{"type":"FeatureCollection","features":[{"type":"Feature","name":"ShapeMeta","geometry":{"type":"LineString","coordinates":[[6.102061,49.58565],[6.101538,49.58554]]},"properties":{"name":"Rue Jean-Pierre Thoma","highway":"residential","maxspeed":"30","profile":"car","distance":"39.59446","time":"6.335114"}},{"type":"Feature","name":"ShapeMeta","geometry":{"type":"LineString","coordinates":[[6.101538,49.58554],[6.101492,49.58558]]},"properties":{"name":"Rue Jean-Pierre Thoma","oneway":"yes","highway":"residential","maxspeed":"30","profile":"car","distance":"44.89446","time":"7.183114"}},{"type":"Feature","name":"ShapeMeta","geometry":{"type":"LineString","coordinates":[[6.101492,49.58558],[6.101438,49.58559],[6.101359,49.58558],[6.101305,49.58553],[6.101305,49.5855],[6.101373,49.58545],[6.101429,49.58544],[6.101516,49.58546],[6.101532,49.58548]]},"properties":{"name":"Rue Jean-Pierre Thoma","oneway":"yes","highway":"residential","maxspeed":"30","profile":"car","distance":"86.59446","time":"13.85511"}},{"type":"Feature","name":"ShapeMeta","geometry":{"type":"LineString","coordinates":[[6.101532,49.58548],[6.101545,49.58551],[6.101538,49.58554]]},"properties":{"name":"Rue Jean-Pierre Thoma","oneway":"yes","highway":"residential","maxspeed":"30","profile":"car","distance":"93.89446","time":"15.02311"}},{"type":"Feature","name":"ShapeMeta","geometry":{"type":"LineString","coordinates":[[6.101538,49.58554],[6.102316,49.5857],[6.102387,49.5857],[6.10245,49.58569],[6.10249,49.58565],[6.102907,49.58488]]},"properties":{"name":"Rue Jean-Pierre Thoma","highway":"residential","maxspeed":"30","profile":"car","distance":"258.3945","time":"41.34311"}},{"type":"Feature","name":"ShapeMeta","geometry":{"type":"LineString","coordinates":[[6.102907,49.58488],[6.103719,49.58513],[6.104544,49.58527]]},"properties":{"name":"Kohlenberg","highway":"residential","maxspeed":"30","profile":"car","distance":"384.4945","time":"61.51911"}},{"type":"Feature","name":"ShapeMeta","geometry":{"type":"LineString","coordinates":[[6.104544,49.58527],[6.105147,49.58536],[6.1057,49.58549]]},"properties":{"name":"Kohlenberg","highway":"residential","maxspeed":"30","profile":"car","distance":"471.6945","time":"75.47112"}},{"type":"Feature","name":"ShapeMeta","geometry":{"type":"LineString","coordinates":[[6.1057,49.58549],[6.105394,49.58604],[6.105378,49.58611],[6.105402,49.58617],[6.105464,49.58623],[6.105555,49.58627],[6.106318,49.58646]]},"properties":{"name":"Rue Nicolas Gredt","highway":"residential","maxspeed":"30","profile":"car","distance":"626.0029","time":"100.1605"}},{"type":"Feature","name":"ShapeMeta","geometry":{"type":"LineString","coordinates":[[6.106318,49.58646],[6.106953,49.58663],[6.107044,49.58665],[6.107137,49.58664],[6.107222,49.58662],[6.107288,49.58657],[6.1078,49.58612]]},"properties":{"name":"Rue Nicolas Gredt","highway":"residential","maxspeed":"30","profile":"car","distance":"764.6945","time":"122.3512"}},{"type":"Feature","name":"ShapeMeta","geometry":{"type":"LineString","coordinates":[[6.1078,49.58612],[6.108617,49.58662],[6.108716,49.58668]]},"properties":{"name":"Kohlenberg","highway":"residential","maxspeed":"30","profile":"car","distance":"855.1945","time":"136.8311"}},{"type":"Feature","name":"ShapeMeta","geometry":{"type":"LineString","coordinates":[[6.108716,49.58668],[6.108652,49.58676],[6.107895,49.58769]]},"properties":{"name":"Rue Tubis","highway":"residential","maxspeed":"30","profile":"car","distance":"982.1945","time":"157.1512"}},{"type":"Feature","name":"ShapeMeta","geometry":{"type":"LineString","coordinates":[[6.107895,49.58769],[6.107327,49.58826],[6.107117,49.58847],[6.107071,49.58849],[6.106933,49.58854]]},"properties":{"name":"Rue Tubis","highway":"residential","maxspeed":"30","profile":"car","distance":"1100.995","time":"176.1591"}},{"type":"Feature","name":"ShapeMeta","geometry":{"type":"LineString","coordinates":[[6.106933,49.58854],[6.106951,49.58865],[6.106906,49.58876],[6.106788,49.58905]]},"properties":{"name":"Rue de Cessange","maxspeed":"50","highway":"secondary","profile":"car","distance":"1158.594","time":"181.6888"}},{"type":"Feature","name":"ShapeMeta","geometry":{"type":"LineString","coordinates":[[6.106788,49.58905],[6.107004,49.58908],[6.107892,49.58922],[6.108067,49.58925]]},"properties":{"name":"Rue Verte","maxspeed":"50","highway":"tertiary","profile":"car","distance":"1253.495","time":"190.7991"}},{"type":"Feature","name":"ShapeMeta","geometry":{"type":"LineString","coordinates":[[6.108067,49.58925],[6.108029,49.58934],[6.107853,49.58977]]},"properties":{"name":"Rue Saint-Joseph","highway":"residential","maxspeed":"30","profile":"car","distance":"1313.6","time":"200.4161"}},{"type":"Feature","name":"ShapeMeta","geometry":{"type":"LineString","coordinates":[[6.107853,49.58977],[6.108029,49.58934],[6.108067,49.58925]]},"properties":{"name":"Rue Saint-Joseph","highway":"residential","maxspeed":"30","profile":"car","distance":"1373.706","time":"210.0331"}},{"type":"Feature","name":"ShapeMeta","geometry":{"type":"LineString","coordinates":[[6.108067,49.58925],[6.10886,49.58938],[6.109175,49.58943],[6.10945,49.5895],[6.110471,49.58995],[6.11068,49.59003]]},"properties":{"name":"Rue Verte","maxspeed":"50","highway":"tertiary","profile":"car","distance":"1583.706","time":"230.1931"}},{"type":"Feature","name":"ShapeMeta","geometry":{"type":"LineString","coordinates":[[6.11068,49.59003],[6.11112,49.59013],[6.111693,49.59023],[6.112607,49.59034],[6.113151,49.59039],[6.113704,49.5904],[6.11419,49.59039]]},"properties":{"name":"Rue Verte","maxspeed":"50","highway":"tertiary","profile":"car","distance":"1841.806","time":"254.9706"}},{"type":"Feature","name":"ShapeMeta","geometry":{"type":"LineString","coordinates":[[6.11419,49.59039],[6.114853,49.59035],[6.115164,49.59032],[6.115382,49.59026]]},"properties":{"name":"Rue Verte","maxspeed":"50","highway":"tertiary","profile":"car","distance":"1929.506","time":"263.3898"}},{"type":"Feature","name":"ShapeMeta","geometry":{"type":"LineString","coordinates":[[6.115382,49.59026],[6.115456,49.5902],[6.115519,49.59012],[6.115604,49.58995],[6.115695,49.58985],[6.115841,49.58977]]},"properties":{"name":"Rue Verte","maxspeed":"50","highway":"tertiary","profile":"car","distance":"1994.806","time":"269.6586"}},{"type":"Feature","name":"ShapeMeta","geometry":{"type":"LineString","coordinates":[[6.115841,49.58977],[6.116006,49.58977],[6.116258,49.58976],[6.116443,49.58977]]},"properties":{"name":"Kohlenberg","maxspeed":"50","highway":"tertiary","profile":"car","distance":"2038.206","time":"273.825"}},{"type":"Feature","name":"ShapeMeta","geometry":{"type":"LineString","coordinates":[[6.116443,49.58977],[6.116625,49.58978],[6.116782,49.58976],[6.117438,49.58971]]},"properties":{"name":"Rue Christophe Plantin","maxspeed":"50","highway":"unclassified","profile":"car","distance":"2110.306","time":"280.7466"}},{"type":"Feature","name":"ShapeMeta","geometry":{"type":"LineString","coordinates":[[6.117438,49.58971],[6.117581,49.5897]]},"properties":{"name":"Rue Christophe Plantin","maxspeed":"50","highway":"unclassified","profile":"car","distance":"2120.606","time":"281.7354"}},{"type":"Feature","name":"ShapeMeta","geometry":{"type":"LineString","coordinates":[[6.117581,49.5897],[6.117596,49.58979],[6.117717,49.59064],[6.117655,49.59069]]},"properties":{"name":"Rue Ludwig van Beethoven","oneway":"yes","highway":"residential","maxspeed":"30","profile":"car","distance":"2232.406","time":"299.6234"}},{"type":"Feature","name":"ShapeMeta","geometry":{"type":"LineString","coordinates":[[6.117655,49.59069],[6.117676,49.59078]]},"properties":{"name":"Rue Ludwig van Beethoven","highway":"residential","maxspeed":"30","profile":"car","distance":"2242.206","time":"301.1914"}},{"type":"Feature","name":"ShapeMeta","geometry":{"type":"LineString","coordinates":[[6.117676,49.59078],[6.117744,49.59105],[6.117824,49.59133]]},"properties":{"name":"Rue Ludwig van Beethoven","highway":"residential","maxspeed":"30","profile":"car","distance":"2304.206","time":"311.1114"}},{"type":"Feature","name":"ShapeMeta","geometry":{"type":"LineString","coordinates":[[6.117824,49.59133],[6.118441,49.59128]]},"properties":{"name":"Rue Jacques Lamort","highway":"residential","maxspeed":"30","profile":"car","distance":"2348.916","time":"318.2649"}},{"type":"Feature","name":"ShapeMeta","geometry":{"type":"LineString","coordinates":[[6.118441,49.59128],[6.117824,49.59133]]},"properties":{"name":"Rue Jacques Lamort","highway":"residential","maxspeed":"30","profile":"car","distance":"2393.626","time":"325.4184"}},{"type":"Feature","name":"ShapeMeta","geometry":{"type":"LineString","coordinates":[[6.117824,49.59133],[6.117744,49.59105],[6.117676,49.59078]]},"properties":{"name":"Rue Ludwig van Beethoven","highway":"residential","maxspeed":"30","profile":"car","distance":"2455.626","time":"335.3384"}},{"type":"Feature","name":"ShapeMeta","geometry":{"type":"LineString","coordinates":[[6.117676,49.59078],[6.117655,49.59069]]},"properties":{"name":"Rue Ludwig van Beethoven","highway":"residential","maxspeed":"30","profile":"car","distance":"2465.426","time":"336.9064"}},{"type":"Feature","name":"ShapeMeta","geometry":{"type":"LineString","coordinates":[[6.117655,49.59069],[6.117603,49.59065],[6.117461,49.58981],[6.117438,49.58971]]},"properties":{"name":"Rue Ludwig van Beethoven","oneway":"yes","highway":"residential","maxspeed":"30","profile":"car","distance":"2576.026","time":"354.6024"}},{"type":"Feature","name":"ShapeMeta","geometry":{"type":"LineString","coordinates":[[6.117438,49.58971],[6.117581,49.5897]]},"properties":{"name":"Rue Christophe Plantin","maxspeed":"50","highway":"unclassified","profile":"car","distance":"2586.326","time":"355.5912"}},{"type":"Feature","name":"ShapeMeta","geometry":{"type":"LineString","coordinates":[[6.117581,49.5897],[6.118335,49.58965]]},"properties":{"name":"Rue Christophe Plantin","maxspeed":"50","highway":"unclassified","profile":"car","distance":"2641.026","time":"360.8424"}},{"type":"Feature","name":"ShapeMeta","geometry":{"type":"LineString","coordinates":[[6.118335,49.58965],[6.118604,49.58962]]},"properties":{"name":"Rue Christophe Plantin","maxspeed":"50","highway":"unclassified","profile":"car","distance":"2660.526","time":"362.7144"}},{"type":"Feature","name":"ShapeMeta","geometry":{"type":"LineString","coordinates":[[6.118604,49.58962],[6.118805,49.58961]]},"properties":{"name":"Rue Christophe Plantin","maxspeed":"50","highway":"unclassified","profile":"car","distance":"2675.026","time":"364.1064"}},{"type":"Feature","name":"ShapeMeta","geometry":{"type":"LineString","coordinates":[[6.118805,49.58961],[6.118917,49.5896],[6.119217,49.58953],[6.119406,49.58942],[6.120303,49.58868]]},"properties":{"name":"Rue Christophe Plantin","maxspeed":"50","highway":"unclassified","profile":"car","distance":"2829.326","time":"378.9192"}},{"type":"Feature","name":"ShapeMeta","geometry":{"type":"LineString","coordinates":[[6.120303,49.58868],[6.120581,49.58844]]},"properties":{"name":"Rue Christophe Plantin","maxspeed":"50","highway":"unclassified","profile":"car","distance":"2862.326","time":"382.0872"}},{"type":"Feature","name":"ShapeMeta","geometry":{"type":"LineString","coordinates":[[6.120581,49.58844],[6.120867,49.5882]]},"properties":{"name":"Rue Christophe Plantin","maxspeed":"50","highway":"unclassified","profile":"car","distance":"2896.079","time":"385.3276"}},{"type":"Feature","name":"Stop","Shape":"0","geometry":{"type":"Point","coordinates":[6.102068,49.58562]},"properties":{"index":"0","distance":"0","time":"0","stop":"0"}},{"type":"Feature","name":"Stop","Shape":"27","geometry":{"type":"Point","coordinates":[6.106317,49.58646]},"properties":{"index":"1","distance":"626.0029","time":"100.1605","stop":"1"}},{"type":"Feature","name":"Stop","Shape":"49","geometry":{"type":"Point","coordinates":[6.107841,49.58977]},"properties":{"index":"2","distance":"1313.6","time":"200.4161","stop":"2"}},{"type":"Feature","name":"Stop","Shape":"84","geometry":{"type":"Point","coordinates":[6.118441,49.59127]},"properties":{"index":"3","distance":"2348.916","time":"318.2649","stop":"3"}},{"type":"Feature","name":"Stop","Shape":"101","geometry":{"type":"Point","coordinates":[6.120844,49.58817]},"properties":{"index":"4","distance":"2896.079","time":"385.3276","stop":"4"}}]}