{"type":"FeatureCollection","features":[{"type":"Feature","name":"ShapeMeta","geometry":{"type":"LineString","coordinates":[[6.102061,49.58565],[6.102316,49.5857],[6.102387,49.5857],[6.10245,49.58569],[6.10249,49.58565],[6.102907,49.58488]]},"properties":{"name":"Rue Jean-Pierre Thoma","highway":"residential","maxspeed":"30","profile":"car","distance":"124.9055","time":"19.98489"}},{"type":"Feature","name":"ShapeMeta","geometry":{"type":"LineString","coordinates":[[6.102907,49.58488],[6.103719,49.58513],[6.104544,49.58527]]},"properties":{"name":"Kohlenberg","highway":"residential","maxspeed":"30","profile":"car","distance":"251.0055","time":"40.16089"}},{"type":"Feature","name":"ShapeMeta","geometry":{"type":"LineString","coordinates":[[6.104544,49.58527],[6.105147,49.58536],[6.1057,49.58549]]},"properties":{"name":"Kohlenberg","highway":"residential","maxspeed":"30","profile":"car","distance":"338.2055","time":"54.11289"}},{"type":"Feature","name":"ShapeMeta","geometry":{"type":"LineString","coordinates":[[6.1057,49.58549],[6.105394,49.58604],[6.105378,49.58611],[6.105402,49.58617],[6.105464,49.58623],[6.105555,49.58627],[6.106318,49.58646]]},"properties":{"name":"Rue Nicolas Gredt","highway":"residential","maxspeed":"30","profile":"car","distance":"492.5139","time":"78.80224"}},{"type":"Feature","name":"ShapeMeta","geometry":{"type":"LineString","coordinates":[[6.106318,49.58646],[6.106953,49.58663],[6.107044,49.58665],[6.107137,49.58664],[6.107222,49.58662],[6.107288,49.58657],[6.1078,49.58612]]},"properties":{"name":"Rue Nicolas Gredt","highway":"residential","maxspeed":"30","profile":"car","distance":"631.2055","time":"100.9929"}},{"type":"Feature","name":"ShapeMeta","geometry":{"type":"LineString","coordinates":[[6.1078,49.58612],[6.108617,49.58662],[6.108716,49.58668]]},"properties":{"name":"Kohlenberg","highway":"residential","maxspeed":"30","profile":"car","distance":"721.7055","time":"115.4729"}},{"type":"Feature","name":"ShapeMeta","geometry":{"type":"LineString","coordinates":[[6.108716,49.58668],[6.108652,49.58676],[6.107895,49.58769]]},"properties":{"name":"Rue Tubis","highway":"residential","maxspeed":"30","profile":"car","distance":"848.7054","time":"135.7929"}},{"type":"Feature","name":"ShapeMeta","geometry":{"type":"LineString","coordinates":[[6.107895,49.58769],[6.107327,49.58826],[6.107117,49.58847],[6.107071,49.58849],[6.106933,49.58854]]},"properties":{"name":"Rue Tubis","highway":"residential","maxspeed":"30","profile":"car","distance":"967.5055","time":"154.8009"}},{"type":"Feature","name":"ShapeMeta","geometry":{"type":"LineString","coordinates":[[6.106933,49.58854],[6.106951,49.58865],[6.106906,49.58876],[6.106788,49.58905]]},"properties":{"name":"Rue de Cessange","maxspeed":"50","highway":"secondary","profile":"car","distance":"1025.105","time":"160.3305"}},{"type":"Feature","name":"ShapeMeta","geometry":{"type":"LineString","coordinates":[[6.106788,49.58905],[6.106705,49.5892]]},"properties":{"name":"Rue de Cessange","maxspeed":"50","highway":"secondary","profile":"car","distance":"1043.406","time":"162.0873"}},{"type":"Feature","name":"ShapeMeta","geometry":{"type":"LineString","coordinates":[[6.106705,49.5892],[6.106674,49.58928],[6.106558,49.58952],[6.1063,49.59007]]},"properties":{"name":"Rue de Cessange","maxspeed":"50","highway":"secondary","profile":"car","distance":"1144.406","time":"171.7833"}},{"type":"Feature","name":"ShapeMeta","geometry":{"type":"LineString","coordinates":[[6.1063,49.59007],[6.106443,49.59009],[6.107576,49.59019],[6.107652,49.59017],[6.107707,49.59013],[6.107853,49.58977]]},"properties":{"name":"Rue Saint-Joseph","highway":"residential","maxspeed":"30","profile":"car","distance":"1290.5","time":"195.1583"}},{"type":"Feature","name":"ShapeMeta","geometry":{"type":"LineString","coordinates":[[6.107853,49.58977],[6.108029,49.58934],[6.108067,49.58925]]},"properties":{"name":"Rue Saint-Joseph","highway":"residential","maxspeed":"30","profile":"car","distance":"1350.606","time":"204.7752"}},{"type":"Feature","name":"ShapeMeta","geometry":{"type":"LineString","coordinates":[[6.108067,49.58925],[6.10886,49.58938],[6.109175,49.58943],[6.10945,49.5895],[6.110471,49.58995],[6.11068,49.59003]]},"properties":{"name":"Rue Verte","maxspeed":"50","highway":"tertiary","profile":"car","distance":"1560.606","time":"224.9352"}},{"type":"Feature","name":"ShapeMeta","geometry":{"type":"LineString","coordinates":[[6.11068,49.59003],[6.11112,49.59013],[6.111693,49.59023],[6.112607,49.59034],[6.113151,49.59039],[6.113704,49.5904],[6.11419,49.59039]]},"properties":{"name":"Rue Verte","maxspeed":"50","highway":"tertiary","profile":"car","distance":"1818.706","time":"249.7128"}},{"type":"Feature","name":"ShapeMeta","geometry":{"type":"LineString","coordinates":[[6.11419,49.59039],[6.114853,49.59035],[6.115164,49.59032],[6.115382,49.59026]]},"properties":{"name":"Rue Verte","maxspeed":"50","highway":"tertiary","profile":"car","distance":"1906.406","time":"258.132"}},{"type":"Feature","name":"ShapeMeta","geometry":{"type":"LineString","coordinates":[[6.115382,49.59026],[6.115456,49.5902],[6.115519,49.59012],[6.115604,49.58995],[6.115695,49.58985],[6.115841,49.58977]]},"properties":{"name":"Rue Verte","maxspeed":"50","highway":"tertiary","profile":"car","distance":"1971.706","time":"264.4008"}},{"type":"Feature","name":"ShapeMeta","geometry":{"type":"LineString","coordinates":[[6.115841,49.58977],[6.116006,49.58977],[6.116258,49.58976],[6.116443,49.58977]]},"properties":{"name":"Kohlenberg","maxspeed":"50","highway":"tertiary","profile":"car","distance":"2015.106","time":"268.5672"}},{"type":"Feature","name":"ShapeMeta","geometry":{"type":"LineString","coordinates":[[6.116443,49.58977],[6.116625,49.58978],[6.116782,49.58976],[6.117438,49.58971]]},"properties":{"name":"Rue Christophe Plantin","maxspeed":"50","highway":"unclassified","profile":"car","distance":"2087.206","time":"275.4888"}},{"type":"Feature","name":"ShapeMeta","geometry":{"type":"LineString","coordinates":[[6.117438,49.58971],[6.117581,49.5897]]},"properties":{"name":"Rue Christophe Plantin","maxspeed":"50","highway":"unclassified","profile":"car","distance":"2097.506","time":"276.4776"}},{"type":"Feature","name":"ShapeMeta","geometry":{"type":"LineString","coordinates":[[6.117581,49.5897],[6.117596,49.58979],[6.117717,49.59064],[6.117655,49.59069]]},"properties":{"name":"Rue Ludwig van Beethoven","oneway":"yes","highway":"residential","maxspeed":"30","profile":"car","distance":"2209.306","time":"294.3656"}},{"type":"Feature","name":"ShapeMeta","geometry":{"type":"LineString","coordinates":[[6.117655,49.59069],[6.117676,49.59078]]},"properties":{"name":"Rue Ludwig van Beethoven","highway":"residential","maxspeed":"30","profile":"car","distance":"2219.106","time":"295.9336"}},{"type":"Feature","name":"ShapeMeta","geometry":{"type":"LineString","coordinates":[[6.117676,49.59078],[6.117744,49.59105],[6.117824,49.59133]]},"properties":{"name":"Rue Ludwig van Beethoven","highway":"residential","maxspeed":"30","profile":"car","distance":"2281.106","time":"305.8536"}},{"type":"Feature","name":"ShapeMeta","geometry":{"type":"LineString","coordinates":[[6.117824,49.59133],[6.118441,49.59128]]},"properties":{"name":"Rue Jacques Lamort","highway":"residential","maxspeed":"30","profile":"car","distance":"2325.816","time":"313.0071"}},{"type":"Feature","name":"ShapeMeta","geometry":{"type":"LineString","coordinates":[[6.118441,49.59128],[6.11876,49.59126]]},"properties":{"name":"Rue Jacques Lamort","highway":"residential","maxspeed":"30","profile":"car","distance":"2348.906","time":"316.7016"}},{"type":"Feature","name":"ShapeMeta","geometry":{"type":"LineString","coordinates":[[6.11876,49.59126],[6.118951,49.59126]]},"properties":{"name":"Rue Jacques Lamort","highway":"residential","maxspeed":"30","profile":"car","distance":"2362.706","time":"318.9096"}},{"type":"Feature","name":"ShapeMeta","geometry":{"type":"LineString","coordinates":[[6.118951,49.59126],[6.119053,49.59113],[6.119156,49.59101],[6.119127,49.59089],[6.119042,49.59066]]},"properties":{"highway":"track","profile":"car","distance":"2433.406","time":"330.2216"}},{"type":"Feature","name":"ShapeMeta","geometry":{"type":"LineString","coordinates":[[6.119042,49.59066],[6.118733,49.5907],[6.118257,49.59075],[6.117676,49.59078]]},"properties":{"name":"Rue Louis de Froment","oneway":"yes","highway":"residential","maxspeed":"30","profile":"car","distance":"2532.906","time":"346.1416"}},{"type":"Feature","name":"ShapeMeta","geometry":{"type":"LineString","coordinates":[[6.117676,49.59078],[6.117655,49.59069]]},"properties":{"name":"Rue Ludwig van Beethoven","highway":"residential","maxspeed":"30","profile":"car","distance":"2542.706","time":"347.7096"}},{"type":"Feature","name":"ShapeMeta","geometry":{"type":"LineString","coordinates":[[6.117655,49.59069],[6.117603,49.59065],[6.117461,49.58981],[6.117438,49.58971]]},"properties":{"name":"Rue Ludwig van Beethoven","oneway":"yes","highway":"residential","maxspeed":"30","profile":"car","distance":"2653.306","time":"365.4056"}},{"type":"Feature","name":"ShapeMeta","geometry":{"type":"LineString","coordinates":[[6.117438,49.58971],[6.117581,49.5897]]},"properties":{"name":"Rue Christophe Plantin","maxspeed":"50","highway":"unclassified","profile":"car","distance":"2663.606","time":"366.3944"}},{"type":"Feature","name":"ShapeMeta","geometry":{"type":"LineString","coordinates":[[6.117581,49.5897],[6.118335,49.58965]]},"properties":{"name":"Rue Christophe Plantin","maxspeed":"50","highway":"unclassified","profile":"car","distance":"2718.306","time":"371.6456"}},{"type":"Feature","name":"ShapeMeta","geometry":{"type":"LineString","coordinates":[[6.118335,49.58965],[6.118604,49.58962]]},"properties":{"name":"Rue Christophe Plantin","maxspeed":"50","highway":"unclassified","profile":"car","distance":"2737.806","time":"373.5176"}},{"type":"Feature","name":"ShapeMeta","geometry":{"type":"LineString","coordinates":[[6.118604,49.58962],[6.118805,49.58961]]},"properties":{"name":"Rue Christophe Plantin","maxspeed":"50","highway":"unclassified","profile":"car","distance":"2752.306","time":"374.9096"}},{"type":"Feature","name":"ShapeMeta","geometry":{"type":"LineString","coordinates":[[6.118805,49.58961],[6.118917,49.5896],[6.119217,49.58953],[6.119406,49.58942],[6.120303,49.58868]]},"properties":{"name":"Rue Christophe Plantin","maxspeed":"50","highway":"unclassified","profile":"car","distance":"2906.606","time":"389.7224"}},{"type":"Feature","name":"ShapeMeta","geometry":{"type":"LineString","coordinates":[[6.120303,49.58868],[6.120581,49.58844]]},"properties":{"name":"Rue Christophe Plantin","maxspeed":"50","highway":"unclassified","profile":"car","distance":"2939.606","time":"392.8904"}},{"type":"Feature","name":"ShapeMeta","geometry":{"type":"LineString","coordinates":[[6.120581,49.58844],[6.120867,49.5882]]},"properties":{"name":"Rue Christophe Plantin","maxspeed":"50","highway":"unclassified","profile":"car","distance":"2973.36","time":"396.1307"}},{"type":"Feature","name":"Stop","Shape":"0","geometry":{"type":"Point","coordinates":[6.102068,49.58562]},"properties":{"index":"0","distance":"0","time":"0","stop":"0"}},{"type":"Feature","name":"Stop","Shape":"15","geometry":{"type":"Point","coordinates":[6.106317,49.58646]},"properties":{"index":"1","distance":"492.5139","time":"78.80224","stop":"1"}},{"type":"Feature","name":"Stop","Shape":"41","geometry":{"type":"Point","coordinates":[6.107841,49.58977]},"properties":{"index":"2","distance":"1290.5","time":"195.1583","stop":"2"}},{"type":"Feature","name":"Stop","Shape":"76","geometry":{"type":"Point","coordinates":[6.118441,49.59127]},"properties":{"index":"3","distance":"2325.816","time":"313.0071","stop":"3"}},{"type":"Feature","name":"Stop","Shape":"99","geometry":{"type":"Point","coordinates":[6.120844,49.58817]},"properties":{"index":"4","distance":"2973.36","time":"396.1307","stop":"4"}}]}