{"type":"FeatureCollection","features":[{"type":"Feature","name":"ShapeMeta","geometry":{"type":"LineString","coordinates":[[6.102061,49.58565],[6.102316,49.5857],[6.102387,49.5857],[6.10245,49.58569],[6.10249,49.58565],[6.102907,49.58488]]},"properties":{"name":"Rue Jean-Pierre Thoma","highway":"residential","maxspeed":"30","profile":"car","distance":"124.9055","time":"19.98489"}},{"type":"Feature","name":"ShapeMeta","geometry":{"type":"LineString","coordinates":[[6.102907,49.58488],[6.103719,49.58513],[6.104544,49.58527]]},"properties":{"name":"Kohlenberg","highway":"residential","maxspeed":"30","profile":"car","distance":"251.0055","time":"40.16089"}},{"type":"Feature","name":"ShapeMeta","geometry":{"type":"LineString","coordinates":[[6.104544,49.58527],[6.105147,49.58536],[6.1057,49.58549]]},"properties":{"name":"Kohlenberg","highway":"residential","maxspeed":"30","profile":"car","distance":"338.2055","time":"54.11289"}},{"type":"Feature","name":"ShapeMeta","geometry":{"type":"LineString","coordinates":[[6.1057,49.58549],[6.105394,49.58604],[6.105378,49.58611],[6.105402,49.58617],[6.105464,49.58623],[6.105555,49.58627],[6.106318,49.58646]]},"properties":{"name":"Rue Nicolas Gredt","highway":"residential","maxspeed":"30","profile":"car","distance":"492.5139","time":"78.80224"}},{"type":"Feature","name":"ShapeMeta","geometry":{"type":"LineString","coordinates":[[6.106318,49.58646],[6.106953,49.58663],[6.107044,49.58665],[6.107137,49.58664],[6.107222,49.58662],[6.107288,49.58657],[6.1078,49.58612]]},"properties":{"name":"Rue Nicolas Gredt","highway":"residential","maxspeed":"30","profile":"car","distance":"631.2055","time":"100.9929"}},{"type":"Feature","name":"ShapeMeta","geometry":{"type":"LineString","coordinates":[[6.1078,49.58612],[6.108617,49.58662],[6.108716,49.58668]]},"properties":{"name":"Kohlenberg","highway":"residential","maxspeed":"30","profile":"car","distance":"721.7055","time":"115.4729"}},{"type":"Feature","name":"ShapeMeta","geometry":{"type":"LineString","coordinates":[[6.108716,49.58668],[6.108652,49.58676],[6.107895,49.58769]]},"properties":{"name":"Rue Tubis","highway":"residential","maxspeed":"30","profile":"car","distance":"848.7054","time":"135.7929"}},{"type":"Feature","name":"ShapeMeta","geometry":{"type":"LineString","coordinates":[[6.107895,49.58769],[6.107327,49.58826],[6.107117,49.58847],[6.107071,49.58849],[6.106933,49.58854]]},"properties":{"name":"Rue Tubis","highway":"residential","maxspeed":"30","profile":"car","distance":"967.5055","time":"154.8009"}},{"type":"Feature","name":"ShapeMeta","geometry":{"type":"LineString","coordinates":[[6.106933,49.58854],[6.106951,49.58865],[6.106906,49.58876],[6.106788,49.58905]]},"properties":{"name":"Rue de Cessange","maxspeed":"50","highway":"secondary","profile":"car","distance":"1025.105","time":"160.3305"}},{"type":"Feature","name":"ShapeMeta","geometry":{"type":"LineString","coordinates":[[6.106788,49.58905],[6.107004,49.58908],[6.107892,49.58922],[6.108067,49.58925]]},"properties":{"name":"Rue Verte","maxspeed":"50","highway":"tertiary","profile":"car","distance":"1120.005","time":"169.4409"}},{"type":"Feature","name":"ShapeMeta","geometry":{"type":"LineString","coordinates":[[6.108067,49.58925],[6.108029,49.58934],[6.107853,49.58977]]},"properties":{"name":"Rue Saint-Joseph","highway":"residential","maxspeed":"30","profile":"car","distance":"1180.111","time":"179.0578"}},{"type":"Feature","name":"ShapeMeta","geometry":{"type":"LineString","coordinates":[[6.107853,49.58977],[6.108029,49.58934],[6.108067,49.58925]]},"properties":{"name":"Rue Saint-Joseph","highway":"residential","maxspeed":"30","profile":"car","distance":"1240.217","time":"188.6747"}},{"type":"Feature","name":"ShapeMeta","geometry":{"type":"LineString","coordinates":[[6.108067,49.58925],[6.10886,49.58938],[6.109175,49.58943],[6.10945,49.5895],[6.110471,49.58995],[6.11068,49.59003]]},"properties":{"name":"Rue Verte","maxspeed":"50","highway":"tertiary","profile":"car","distance":"1450.217","time":"208.8347"}},{"type":"Feature","name":"ShapeMeta","geometry":{"type":"LineString","coordinates":[[6.11068,49.59003],[6.11112,49.59013],[6.111693,49.59023],[6.112607,49.59034],[6.113151,49.59039],[6.113704,49.5904],[6.11419,49.59039]]},"properties":{"name":"Rue Verte","maxspeed":"50","highway":"tertiary","profile":"car","distance":"1708.317","time":"233.6123"}},{"type":"Feature","name":"ShapeMeta","geometry":{"type":"LineString","coordinates":[[6.11419,49.59039],[6.114853,49.59035],[6.115164,49.59032],[6.115382,49.59026]]},"properties":{"name":"Rue Verte","maxspeed":"50","highway":"tertiary","profile":"car","distance":"1796.017","time":"242.0315"}},{"type":"Feature","name":"ShapeMeta","geometry":{"type":"LineString","coordinates":[[6.115382,49.59026],[6.115456,49.5902],[6.115519,49.59012],[6.115604,49.58995],[6.115695,49.58985],[6.115841,49.58977]]},"properties":{"name":"Rue Verte","maxspeed":"50","highway":"tertiary","profile":"car","distance":"1861.317","time":"248.3003"}},{"type":"Feature","name":"ShapeMeta","geometry":{"type":"LineString","coordinates":[[6.115841,49.58977],[6.116006,49.58977],[6.116258,49.58976],[6.116443,49.58977]]},"properties":{"name":"Kohlenberg","maxspeed":"50","highway":"tertiary","profile":"car","distance":"1904.717","time":"252.4667"}},{"type":"Feature","name":"ShapeMeta","geometry":{"type":"LineString","coordinates":[[6.116443,49.58977],[6.116625,49.58978],[6.116782,49.58976],[6.117438,49.58971]]},"properties":{"name":"Rue Christophe Plantin","maxspeed":"50","highway":"unclassified","profile":"car","distance":"1976.817","time":"259.3883"}},{"type":"Feature","name":"ShapeMeta","geometry":{"type":"LineString","coordinates":[[6.117438,49.58971],[6.117581,49.5897]]},"properties":{"name":"Rue Christophe Plantin","maxspeed":"50","highway":"unclassified","profile":"car","distance":"1987.117","time":"260.3771"}},{"type":"Feature","name":"ShapeMeta","geometry":{"type":"LineString","coordinates":[[6.117581,49.5897],[6.117596,49.58979],[6.117717,49.59064],[6.117655,49.59069]]},"properties":{"name":"Rue Ludwig van Beethoven","oneway":"yes","highway":"residential","maxspeed":"30","profile":"car","distance":"2098.917","time":"278.2651"}},{"type":"Feature","name":"ShapeMeta","geometry":{"type":"LineString","coordinates":[[6.117655,49.59069],[6.117676,49.59078]]},"properties":{"name":"Rue Ludwig van Beethoven","highway":"residential","maxspeed":"30","profile":"car","distance":"2108.717","time":"279.8331"}},{"type":"Feature","name":"ShapeMeta","geometry":{"type":"LineString","coordinates":[[6.117676,49.59078],[6.117744,49.59105],[6.117824,49.59133]]},"properties":{"name":"Rue Ludwig van Beethoven","highway":"residential","maxspeed":"30","profile":"car","distance":"2170.717","time":"289.7531"}},{"type":"Feature","name":"ShapeMeta","geometry":{"type":"LineString","coordinates":[[6.117824,49.59133],[6.118441,49.59128]]},"properties":{"name":"Rue Jacques Lamort","highway":"residential","maxspeed":"30","profile":"car","distance":"2215.427","time":"296.9066"}},{"type":"Feature","name":"ShapeMeta","geometry":{"type":"LineString","coordinates":[[6.118441,49.59128],[6.117824,49.59133]]},"properties":{"name":"Rue Jacques Lamort","highway":"residential","maxspeed":"30","profile":"car","distance":"2260.137","time":"304.0601"}},{"type":"Feature","name":"ShapeMeta","geometry":{"type":"LineString","coordinates":[[6.117824,49.59133],[6.117744,49.59105],[6.117676,49.59078]]},"properties":{"name":"Rue Ludwig van Beethoven","highway":"residential","maxspeed":"30","profile":"car","distance":"2322.137","time":"313.9801"}},{"type":"Feature","name":"ShapeMeta","geometry":{"type":"LineString","coordinates":[[6.117676,49.59078],[6.117655,49.59069]]},"properties":{"name":"Rue Ludwig van Beethoven","highway":"residential","maxspeed":"30","profile":"car","distance":"2331.937","time":"315.5481"}},{"type":"Feature","name":"ShapeMeta","geometry":{"type":"LineString","coordinates":[[6.117655,49.59069],[6.117603,49.59065],[6.117461,49.58981],[6.117438,49.58971]]},"properties":{"name":"Rue Ludwig van Beethoven","oneway":"yes","highway":"residential","maxspeed":"30","profile":"car","distance":"2442.537","time":"333.2441"}},{"type":"Feature","name":"ShapeMeta","geometry":{"type":"LineString","coordinates":[[6.117438,49.58971],[6.117581,49.5897]]},"properties":{"name":"Rue Christophe Plantin","maxspeed":"50","highway":"unclassified","profile":"car","distance":"2452.837","time":"334.2329"}},{"type":"Feature","name":"ShapeMeta","geometry":{"type":"LineString","coordinates":[[6.117581,49.5897],[6.118335,49.58965]]},"properties":{"name":"Rue Christophe Plantin","maxspeed":"50","highway":"unclassified","profile":"car","distance":"2507.537","time":"339.4841"}},{"type":"Feature","name":"ShapeMeta","geometry":{"type":"LineString","coordinates":[[6.118335,49.58965],[6.118604,49.58962]]},"properties":{"name":"Rue Christophe Plantin","maxspeed":"50","highway":"unclassified","profile":"car","distance":"2527.037","time":"341.3561"}},{"type":"Feature","name":"ShapeMeta","geometry":{"type":"LineString","coordinates":[[6.118604,49.58962],[6.118805,49.58961]]},"properties":{"name":"Rue Christophe Plantin","maxspeed":"50","highway":"unclassified","profile":"car","distance":"2541.537","time":"342.7481"}},{"type":"Feature","name":"ShapeMeta","geometry":{"type":"LineString","coordinates":[[6.118805,49.58961],[6.118917,49.5896],[6.119217,49.58953],[6.119406,49.58942],[6.120303,49.58868]]},"properties":{"name":"Rue Christophe Plantin","maxspeed":"50","highway":"unclassified","profile":"car","distance":"2695.837","time":"357.5609"}},{"type":"Feature","name":"ShapeMeta","geometry":{"type":"LineString","coordinates":[[6.120303,49.58868],[6.120581,49.58844]]},"properties":{"name":"Rue Christophe Plantin","maxspeed":"50","highway":"unclassified","profile":"car","distance":"2728.837","time":"360.7289"}},{"type":"Feature","name":"ShapeMeta","geometry":{"type":"LineString","coordinates":[[6.120581,49.58844],[6.120867,49.5882]]},"properties":{"name":"Rue Christophe Plantin","maxspeed":"50","highway":"unclassified","profile":"car","distance":"2762.59","time":"363.9693"}},{"type":"Feature","name":"Stop","Shape":"0","geometry":{"type":"Point","coordinates":[6.102068,49.58562]},"properties":{"index":"0","distance":"0","time":"0"}},{"type":"Feature","name":"Stop","Shape":"15","geometry":{"type":"Point","coordinates":[6.106317,49.58646]},"properties":{"index":"1","distance":"492.5139","time":"78.80224"}},{"type":"Feature","name":"Stop","Shape":"37","geometry":{"type":"Point","coordinates":[6.107841,49.58977]},"properties":{"index":"2","distance":"1180.111","time":"179.0578"}},{"type":"Feature","name":"Stop","Shape":"72","geometry":{"type":"Point","coordinates":[6.118441,49.59127]},"properties":{"index":"3","distance":"2215.427","time":"296.9066"}},{"type":"Feature","name":"Stop","Shape":"89","geometry":{"type":"Point","coordinates":[6.120844,49.58817]},"properties":{"index":"4","distance":"2762.59","time":"363.9693"}}]}