{"type":"FeatureCollection","features":[{"type":"Feature","name":"ShapeMeta","geometry":{"type":"LineString","coordinates":[[23.63093,46.76816],[23.63088,46.76832],[23.63094,46.76848]]},"properties":{"name":"Strada Alexandru Vaida Voevod","highway":"residential","custom-speed":"50","maxspeed":"RO:urban","number-of-cars":"0","profile":"car","distance":"36.47415","time":"2.626138"}},{"type":"Feature","name":"ShapeMeta","geometry":{"type":"LineString","coordinates":[[23.63094,46.76848],[23.63092,46.76857],[23.63088,46.76864],[23.63078,46.76871]]},"properties":{"name":"Strada Alexandru Vaida Voevod","highway":"residential","custom-speed":"50","maxspeed":"RO:urban","number-of-cars":"0","profile":"car","distance":"65.77415","time":"4.735738"}},{"type":"Feature","name":"ShapeMeta","geometry":{"type":"LineString","coordinates":[[23.63078,46.76871],[23.63056,46.76866],[23.63029,46.76861]]},"properties":{"name":"Strada Lucia Sturdza Bulandra","highway":"residential","custom-speed":"50","maxspeed":"RO:urban","number-of-cars":"0","profile":"car","distance":"104.0741","time":"7.493338"}},{"type":"Feature","name":"ShapeMeta","geometry":{"type":"LineString","coordinates":[[23.63029,46.76861],[23.63026,46.76863]]},"properties":{"name":"Strada Unirii","highway":"residential","custom-speed":"50","maxspeed":"RO:urban","number-of-cars":"0","profile":"car","distance":"107.1741","time":"7.716538"}},{"type":"Feature","name":"ShapeMeta","geometry":{"type":"LineString","coordinates":[[23.63026,46.76863],[23.63024,46.76864],[23.63018,46.76866],[23.6301,46.76866]]},"properties":{"name":"Strada Unirii","highway":"residential","maxspeed":"RO:urban","number-of-cars":"0","custom-speed":"1","profile":"car","distance":"120.6741","time":"56.31654"}},{"type":"Feature","name":"ShapeMeta","geometry":{"type":"LineString","coordinates":[[23.6301,46.76866],[23.63007,46.76865]]},"properties":{"name":"Strada Unirii","highway":"residential","custom-speed":"50","maxspeed":"RO:urban","number-of-cars":"0","profile":"car","distance":"123.2741","time":"56.50374"}},{"type":"Feature","name":"ShapeMeta","geometry":{"type":"LineString","coordinates":[[23.63007,46.76865],[23.63003,46.76865],[23.62998,46.76862],[23.62994,46.76857]]},"properties":{"name":"Strada Unirii","highway":"residential","custom-speed":"50","maxspeed":"RO:urban","number-of-cars":"0","profile":"car","distance":"137.8741","time":"57.55494"}},{"type":"Feature","name":"ShapeMeta","geometry":{"type":"LineString","coordinates":[[23.62994,46.76857],[23.62993,46.76851]]},"properties":{"name":"Strada Unirii","highway":"residential","custom-speed":"50","maxspeed":"RO:urban","number-of-cars":"0","profile":"car","distance":"144.1741","time":"58.00854"}},{"type":"Feature","name":"ShapeMeta","geometry":{"type":"LineString","coordinates":[[23.62993,46.76851],[23.6298,46.76824]]},"properties":{"name":"Strada Unirii","highway":"residential","custom-speed":"50","maxspeed":"RO:urban","number-of-cars":"0","profile":"car","distance":"175.9741","time":"60.29814"}},{"type":"Feature","name":"ShapeMeta","geometry":{"type":"LineString","coordinates":[[23.6298,46.76824],[23.62962,46.76809]]},"properties":{"name":"Strada Unirii","highway":"residential","custom-speed":"50","maxspeed":"RO:urban","number-of-cars":"0","profile":"car","distance":"196.7741","time":"61.79574"}},{"type":"Feature","name":"ShapeMeta","geometry":{"type":"LineString","coordinates":[[23.62962,46.76809],[23.62965,46.76778]]},"properties":{"name":"Aleea Detunata","highway":"residential","custom-speed":"50","maxspeed":"RO:urban","number-of-cars":"0","profile":"car","distance":"231.5741","time":"64.30134"}},{"type":"Feature","name":"ShapeMeta","geometry":{"type":"LineString","coordinates":[[23.62965,46.76778],[23.62927,46.76782],[23.62818,46.76779]]},"properties":{"highway":"residential","custom-speed":"50","maxspeed":"RO:urban","number-of-cars":"0","profile":"car","distance":"343.9741","time":"72.39413"}},{"type":"Feature","name":"ShapeMeta","geometry":{"type":"LineString","coordinates":[[23.62818,46.76779],[23.62835,46.76738]]},"properties":{"name":"Aleea Meseș","highway":"residential","custom-speed":"50","maxspeed":"RO:urban","number-of-cars":"0","profile":"car","distance":"391.0741","time":"75.78532"}},{"type":"Feature","name":"ShapeMeta","geometry":{"type":"LineString","coordinates":[[23.62835,46.76738],[23.62911,46.76719],[23.62946,46.76702],[23.62978,46.76682],[23.62999,46.7666],[23.63019,46.76613],[23.6302,46.76593]]},"properties":{"name":"Aleea Meseș","highway":"residential","custom-speed":"50","maxspeed":"RO:urban","number-of-cars":"0","profile":"car","distance":"624.3741","time":"92.58292"}},{"type":"Feature","name":"ShapeMeta","geometry":{"type":"LineString","coordinates":[[23.6302,46.76593],[23.63021,46.76553]]},"properties":{"name":"Aleea Meseș","highway":"residential","custom-speed":"50","maxspeed":"RO:urban","number-of-cars":"0","profile":"car","distance":"668.4741","time":"95.75812"}},{"type":"Feature","name":"ShapeMeta","geometry":{"type":"LineString","coordinates":[[23.63021,46.76553],[23.62968,46.76548],[23.62922,46.7655],[23.62878,46.76561],[23.62842,46.76577],[23.6277,46.76615],[23.62734,46.76628],[23.62686,46.76637],[23.62658,46.7664],[23.62605,46.76634],[23.62565,46.76627],[23.62553,46.76626]]},"properties":{"name":"Aleea Detunata","highway":"residential","custom-speed":"50","maxspeed":"RO:urban","number-of-cars":"0","profile":"car","distance":"1052.874","time":"123.4349"}},{"type":"Feature","name":"ShapeMeta","geometry":{"type":"LineString","coordinates":[[23.62553,46.76626],[23.62547,46.7663]]},"properties":{"name":"Aleea Detunata","highway":"residential","custom-speed":"50","maxspeed":"RO:urban","number-of-cars":"0","profile":"car","distance":"1059.974","time":"123.9461"}},{"type":"Feature","name":"ShapeMeta","geometry":{"type":"LineString","coordinates":[[23.62547,46.7663],[23.62546,46.76634],[23.62547,46.76642]]},"properties":{"name":"Aleea Detunata","highway":"residential","custom-speed":"50","maxspeed":"RO:urban","number-of-cars":"0","profile":"car","distance":"1073.174","time":"124.8965"}},{"type":"Feature","name":"ShapeMeta","geometry":{"type":"LineString","coordinates":[[23.62547,46.76642],[23.6249,46.76663],[23.62479,46.76664],[23.62463,46.76664]]},"properties":{"name":"Aleea Detunata","highway":"residential","custom-speed":"50","maxspeed":"RO:urban","number-of-cars":"0","profile":"car","distance":"1142.874","time":"129.9149"}},{"type":"Feature","name":"ShapeMeta","geometry":{"type":"LineString","coordinates":[[23.62463,46.76664],[23.62449,46.76662],[23.62439,46.76657]]},"properties":{"name":"Aleea Detunata","highway":"residential","custom-speed":"50","maxspeed":"RO:urban","number-of-cars":"0","profile":"car","distance":"1163.174","time":"131.3765"}},{"type":"Feature","name":"ShapeMeta","geometry":{"type":"LineString","coordinates":[[23.62439,46.76657],[23.62451,46.76628],[23.62448,46.76618],[23.62445,46.76606]]},"properties":{"name":"Aleea Băișoara","highway":"residential","custom-speed":"50","maxspeed":"RO:urban","number-of-cars":"0","profile":"car","distance":"1221.674","time":"135.5885"}},{"type":"Feature","name":"ShapeMeta","geometry":{"type":"LineString","coordinates":[[23.62445,46.76606],[23.62416,46.76606],[23.62394,46.76606],[23.6236,46.76611]]},"properties":{"name":"Aleea Băița","highway":"residential","custom-speed":"50","maxspeed":"RO:urban","number-of-cars":"0","profile":"car","distance":"1286.974","time":"140.2901"}},{"type":"Feature","name":"ShapeMeta","geometry":{"type":"LineString","coordinates":[[23.6236,46.76611],[23.62378,46.76572]]},"properties":{"highway":"residential","custom-speed":"50","maxspeed":"RO:urban","number-of-cars":"0","profile":"car","distance":"1333.274","time":"143.6237"}},{"type":"Feature","name":"ShapeMeta","geometry":{"type":"LineString","coordinates":[[23.62378,46.76572],[23.62362,46.76566],[23.62235,46.76564]]},"properties":{"highway":"residential","custom-speed":"50","maxspeed":"RO:urban","number-of-cars":"0","profile":"car","distance":"1443.774","time":"151.5797"}},{"type":"Feature","name":"ShapeMeta","geometry":{"type":"LineString","coordinates":[[23.62235,46.76564],[23.62239,46.76528]]},"properties":{"highway":"residential","custom-speed":"50","maxspeed":"RO:urban","number-of-cars":"0","profile":"car","distance":"1484.074","time":"154.4813"}},{"type":"Feature","name":"ShapeMeta","geometry":{"type":"LineString","coordinates":[[23.62239,46.76528],[23.62246,46.76519],[23.62252,46.76492]]},"properties":{"highway":"residential","custom-speed":"50","maxspeed":"RO:urban","number-of-cars":"0","profile":"car","distance":"1526.574","time":"157.5413"}},{"type":"Feature","name":"ShapeMeta","geometry":{"type":"LineString","coordinates":[[23.62252,46.76492],[23.62241,46.76492],[23.62171,46.76491],[23.62126,46.76485],[23.62104,46.76476]]},"properties":{"name":"Aleea Scărișoara","highway":"residential","custom-speed":"50","maxspeed":"RO:urban","number-of-cars":"0","profile":"car","distance":"1642.874","time":"165.9149"}},{"type":"Feature","name":"ShapeMeta","geometry":{"type":"LineString","coordinates":[[23.62104,46.76476],[23.62105,46.76448]]},"properties":{"name":"Aleea Scărișoara","highway":"residential","custom-speed":"50","maxspeed":"RO:urban","number-of-cars":"0","profile":"car","distance":"1672.974","time":"168.0821"}},{"type":"Feature","name":"ShapeMeta","geometry":{"type":"LineString","coordinates":[[23.62105,46.76448],[23.62045,46.76441]]},"properties":{"name":"Aleea Scărișoara","highway":"residential","custom-speed":"50","maxspeed":"RO:urban","number-of-cars":"0","profile":"car","distance":"1719.474","time":"171.4301"}},{"type":"Feature","name":"ShapeMeta","geometry":{"type":"LineString","coordinates":[[23.62045,46.76441],[23.62051,46.76423]]},"properties":{"name":"Strada Liviu Rebreanu","highway":"residential","custom-speed":"50","maxspeed":"RO:urban","number-of-cars":"0","profile":"car","distance":"1740.274","time":"172.9277"}},{"type":"Feature","name":"ShapeMeta","geometry":{"type":"LineString","coordinates":[[23.62051,46.76423],[23.62058,46.76403],[23.62105,46.76264],[23.62107,46.76257]]},"properties":{"name":"Strada Liviu Rebreanu","highway":"residential","profile":"car","distance":"1929.674","time":"191.1101"}},{"type":"Feature","name":"ShapeMeta","geometry":{"type":"LineString","coordinates":[[23.62107,46.76257],[23.62121,46.76218],[23.62127,46.7621]]},"properties":{"name":"Strada Liviu Rebreanu","highway":"residential","profile":"car","distance":"1983.274","time":"196.2557"}},{"type":"Feature","name":"ShapeMeta","geometry":{"type":"LineString","coordinates":[[23.62127,46.7621],[23.62041,46.76196],[23.61677,46.76134],[23.61627,46.76128],[23.61578,46.76124],[23.61559,46.76128]]},"properties":{"name":"Aleea Văleni","highway":"residential","profile":"car","distance":"2427.974","time":"238.9469"}},{"type":"Feature","name":"ShapeMeta","geometry":{"type":"LineString","coordinates":[[23.61559,46.76128],[23.61526,46.76157],[23.61518,46.76165]]},"properties":{"name":"Aleea Rășinari","highway":"residential","profile":"car","distance":"2479.174","time":"243.8621"}},{"type":"Feature","name":"ShapeMeta","geometry":{"type":"LineString","coordinates":[[23.61518,46.76165],[23.61511,46.76189]]},"properties":{"name":"Aleea Rășinari","highway":"residential","profile":"car","distance":"2506.474","time":"246.4829"}},{"type":"Feature","name":"ShapeMeta","geometry":{"type":"LineString","coordinates":[[23.61511,46.76189],[23.61506,46.7623]]},"properties":{"name":"Aleea Rășinari","highway":"residential","profile":"car","distance":"2552.374","time":"250.8893"}},{"type":"Feature","name":"ShapeMeta","geometry":{"type":"LineString","coordinates":[[23.61506,46.7623],[23.61501,46.76254],[23.61497,46.76273],[23.61491,46.76282],[23.61484,46.76287]]},"properties":{"name":"Aleea Rășinari","highway":"residential","profile":"car","distance":"2619.174","time":"257.3021"}},{"type":"Feature","name":"ShapeMeta","geometry":{"type":"LineString","coordinates":[[23.61484,46.76287],[23.61447,46.7628],[23.61441,46.76279],[23.61406,46.76273]]},"properties":{"name":"Strada Albac","highway":"residential","custom-speed":"50","maxspeed":"RO:urban","number-of-cars":"0","profile":"car","distance":"2680.174","time":"261.6941"}},{"type":"Feature","name":"ShapeMeta","geometry":{"type":"LineString","coordinates":[[23.61406,46.76273],[23.61389,46.7627]]},"properties":{"name":"Strada Albac","highway":"residential","custom-speed":"50","maxspeed":"RO:urban","number-of-cars":"0","profile":"car","distance":"2693.674","time":"262.6661"}},{"type":"Feature","name":"ShapeMeta","geometry":{"type":"LineString","coordinates":[[23.61389,46.7627],[23.61361,46.76265],[23.6134,46.76261]]},"properties":{"name":"Strada Albac","highway":"residential","custom-speed":"50","maxspeed":"RO:urban","number-of-cars":"0","profile":"car","distance":"2732.474","time":"265.4597"}},{"type":"Feature","name":"ShapeMeta","geometry":{"type":"LineString","coordinates":[[23.6134,46.76261],[23.61332,46.76272],[23.6125,46.76395]]},"properties":{"name":"Strada Septimiu Albini","highway":"residential","custom-speed":"50","maxspeed":"RO:urban","number-of-cars":"0","profile":"car","distance":"2896.074","time":"277.2389"}},{"type":"Feature","name":"ShapeMeta","geometry":{"type":"LineString","coordinates":[[23.6125,46.76395],[23.61229,46.76389],[23.61208,46.76382],[23.61118,46.76351]]},"properties":{"name":"Strada Constantin Brâncoveanu","highway":"residential","custom-speed":"50","maxspeed":"RO:urban","number-of-cars":"0","profile":"car","distance":"3008.174","time":"285.3101"}},{"type":"Feature","name":"ShapeMeta","geometry":{"type":"LineString","coordinates":[[23.61118,46.76351],[23.61066,46.76332],[23.60968,46.76299]]},"properties":{"name":"Strada Constantin Brâncoveanu","highway":"residential","custom-speed":"50","maxspeed":"RO:urban","number-of-cars":"0","profile":"car","distance":"3136.574","time":"294.5549"}},{"type":"Feature","name":"ShapeMeta","geometry":{"type":"LineString","coordinates":[[23.60968,46.76299],[23.60957,46.76295],[23.60949,46.76292]]},"properties":{"name":"Strada Constantin Brâncoveanu","highway":"residential","custom-speed":"50","maxspeed":"RO:urban","number-of-cars":"0","profile":"car","distance":"3152.474","time":"295.6997"}},{"type":"Feature","name":"ShapeMeta","geometry":{"type":"LineString","coordinates":[[23.60949,46.76292],[23.60851,46.7635],[23.60837,46.76358]]},"properties":{"name":"Strada Constantin Brâncuși","highway":"residential","custom-speed":"50","maxspeed":"RO:urban","number-of-cars":"0","profile":"car","distance":"3264.674","time":"303.7781"}},{"type":"Feature","name":"ShapeMeta","geometry":{"type":"LineString","coordinates":[[23.60837,46.76358],[23.60825,46.76365],[23.60693,46.76439],[23.60682,46.76445]]},"properties":{"name":"Strada Constantin Brâncuși","highway":"residential","custom-speed":"50","maxspeed":"RO:urban","number-of-cars":"0","profile":"car","distance":"3416.974","time":"314.7437"}},{"type":"Feature","name":"ShapeMeta","geometry":{"type":"LineString","coordinates":[[23.60682,46.76445],[23.60683,46.76446],[23.60683,46.76447],[23.60683,46.76447]]},"properties":{"name":"Strada Constantin Brâncuși","highway":"residential","custom-speed":"50","maxspeed":"RO:urban","number-of-cars":"0","profile":"car","distance":"3419.674","time":"314.9381"}},{"type":"Feature","name":"ShapeMeta","geometry":{"type":"LineString","coordinates":[[23.60683,46.76447],[23.60682,46.76448],[23.60679,46.76448],[23.60678,46.76448]]},"properties":{"name":"Strada Constantin Brâncuși","oneway":"yes","highway":"secondary","junction":"roundabout","profile":"car","distance":"3423.674","time":"315.2124"}},{"type":"Feature","name":"ShapeMeta","geometry":{"type":"LineString","coordinates":[[23.60678,46.76448],[23.60678,46.76447],[23.60678,46.76446],[23.60678,46.76445]]},"properties":{"name":"Strada Constantin Brâncuși","oneway":"yes","highway":"secondary","junction":"roundabout","profile":"car","distance":"3426.874","time":"315.4318"}},{"type":"Feature","name":"ShapeMeta","geometry":{"type":"LineString","coordinates":[[23.60678,46.76445],[23.60674,46.76439],[23.6067,46.76432],[23.60654,46.76379]]},"properties":{"name":"Strada Barbu Ștefănescu Delavrancea","highway":"residential","profile":"car","distance":"3502.774","time":"322.7182"}},{"type":"Feature","name":"ShapeMeta","geometry":{"type":"LineString","coordinates":[[23.60654,46.76379],[23.60506,46.76467]]},"properties":{"name":"Strada Anatole France","oneway":"yes","highway":"residential","profile":"car","distance":"3651.574","time":"337.003"}},{"type":"Feature","name":"ShapeMeta","geometry":{"type":"LineString","coordinates":[[23.60506,46.76467],[23.60338,46.76573],[23.60287,46.76606],[23.60245,46.76645],[23.60217,46.76673]]},"properties":{"name":"Strada Anatole France","oneway":"yes","highway":"residential","profile":"car","distance":"3970.674","time":"367.6366"}},{"type":"Feature","name":"ShapeMeta","geometry":{"type":"LineString","coordinates":[[23.60217,46.76673],[23.60197,46.76665]]},"properties":{"name":"Strada Zrínyi Miklós","highway":"residential","profile":"car","distance":"3988.774","time":"369.3742"}},{"type":"Feature","name":"ShapeMeta","geometry":{"type":"LineString","coordinates":[[23.60197,46.76665],[23.60102,46.76628],[23.601,46.76627]]},"properties":{"name":"Strada Zrínyi Miklós","highway":"residential","profile":"car","distance":"4073.774","time":"377.5342"}},{"type":"Feature","name":"ShapeMeta","geometry":{"type":"LineString","coordinates":[[23.601,46.76627],[23.60098,46.76627],[23.60021,46.76597]]},"properties":{"name":"Strada Zrínyi Miklós","highway":"residential","profile":"car","distance":"4142.374","time":"384.1198"}},{"type":"Feature","name":"ShapeMeta","geometry":{"type":"LineString","coordinates":[[23.60021,46.76597],[23.59928,46.76561]]},"properties":{"name":"Strada Zrínyi Miklós","highway":"residential","profile":"car","distance":"4223.774","time":"391.9342"}},{"type":"Feature","name":"ShapeMeta","geometry":{"type":"LineString","coordinates":[[23.59928,46.76561],[23.5989,46.76583]]},"properties":{"name":"Strada Brașov","highway":"residential","profile":"car","distance":"4262.574","time":"395.659"}},{"type":"Feature","name":"ShapeMeta","geometry":{"type":"LineString","coordinates":[[23.5989,46.76583],[23.59883,46.76599],[23.5987,46.76617],[23.59822,46.76687]]},"properties":{"name":"Calea Turzii","highway":"primary","maxspeed":"60","profile":"car","distance":"4389.174","time":"405.787"}},{"type":"Feature","name":"ShapeMeta","geometry":{"type":"LineString","coordinates":[[23.59822,46.76687],[23.59827,46.76699],[23.59831,46.76707],[23.5984,46.76715],[23.59852,46.7672],[23.59866,46.76723],[23.59881,46.76727]]},"properties":{"oneway":"yes","highway":"primary_link","profile":"car","distance":"4457.274","time":"409.419"}},{"type":"Feature","name":"ShapeMeta","geometry":{"type":"LineString","coordinates":[[23.59881,46.76727],[23.59944,46.76739]]},"properties":{"name":"Strada Milton Lehrer","highway":"primary","oneway":"yes","profile":"car","distance":"4507.474","time":"412.0963"}},{"type":"Feature","name":"ShapeMeta","geometry":{"type":"LineString","coordinates":[[23.59944,46.76739],[23.5996,46.76748],[23.59968,46.76762],[23.59969,46.76768],[23.59968,46.76774]]},"properties":{"oneway":"yes","highway":"primary_link","profile":"car","distance":"4553.274","time":"414.539"}},{"type":"Feature","name":"ShapeMeta","geometry":{"type":"LineString","coordinates":[[23.59968,46.76774],[23.59976,46.76766],[23.59993,46.76756]]},"properties":{"name":"Piața Timotei Cipariu","highway":"residential","maxspeed":"RO:urban","number-of-cars":"0","custom-speed":"1","profile":"car","distance":"4581.323","time":"515.5142"}},{"type":"Feature","name":"Stop","Shape":"0","geometry":{"type":"Point","coordinates":[23.63103,46.76819]},"properties":{"distance":"0","time":"0"}},{"type":"Feature","name":"Stop","Shape":"145","geometry":{"type":"Point","coordinates":[23.59993,46.76755]},"properties":{"distance":"4581.323","time":"515.5142"}}]}