{"type":"FeatureCollection","features":[{"type":"Feature","name":"ShapeMeta","geometry":{"type":"LineString","coordinates":[[23.63093,46.76816],[23.63088,46.76832],[23.63094,46.76848]]},"properties":{"name":"Strada Alexandru Vaida Voevod","highway":"residential","custom-speed":"50","maxspeed":"RO:urban","number-of-cars":"0","profile":"car","distance":"36.47415","time":"2.626138"}},{"type":"Feature","name":"ShapeMeta","geometry":{"type":"LineString","coordinates":[[23.63094,46.76848],[23.63092,46.76857],[23.63088,46.76864],[23.63078,46.76871]]},"properties":{"name":"Strada Alexandru Vaida Voevod","highway":"residential","maxspeed":"RO:urban","number-of-cars":"0","custom-speed":"1","profile":"car","distance":"65.77415","time":"108.1061"}},{"type":"Feature","name":"ShapeMeta","geometry":{"type":"LineString","coordinates":[[23.63078,46.76871],[23.63056,46.76866],[23.63029,46.76861]]},"properties":{"name":"Strada Lucia Sturdza Bulandra","highway":"residential","custom-speed":"50","maxspeed":"RO:urban","number-of-cars":"0","profile":"car","distance":"104.0741","time":"110.8637"}},{"type":"Feature","name":"ShapeMeta","geometry":{"type":"LineString","coordinates":[[23.63029,46.76861],[23.63026,46.76863]]},"properties":{"name":"Strada Unirii","highway":"residential","custom-speed":"50","maxspeed":"RO:urban","number-of-cars":"0","profile":"car","distance":"107.1741","time":"111.0869"}},{"type":"Feature","name":"ShapeMeta","geometry":{"type":"LineString","coordinates":[[23.63026,46.76863],[23.63024,46.76864],[23.63018,46.76866],[23.6301,46.76866]]},"properties":{"name":"Strada Unirii","highway":"residential","custom-speed":"50","maxspeed":"RO:urban","number-of-cars":"0","profile":"car","distance":"120.6741","time":"112.0589"}},{"type":"Feature","name":"ShapeMeta","geometry":{"type":"LineString","coordinates":[[23.6301,46.76866],[23.63007,46.76865]]},"properties":{"name":"Strada Unirii","highway":"residential","custom-speed":"50","maxspeed":"RO:urban","number-of-cars":"0","profile":"car","distance":"123.2741","time":"112.2461"}},{"type":"Feature","name":"ShapeMeta","geometry":{"type":"LineString","coordinates":[[23.63007,46.76865],[23.63003,46.76865],[23.62998,46.76862],[23.62994,46.76857]]},"properties":{"name":"Strada Unirii","highway":"residential","custom-speed":"50","maxspeed":"RO:urban","number-of-cars":"0","profile":"car","distance":"137.8741","time":"113.2973"}},{"type":"Feature","name":"ShapeMeta","geometry":{"type":"LineString","coordinates":[[23.62994,46.76857],[23.62993,46.76851]]},"properties":{"name":"Strada Unirii","highway":"residential","custom-speed":"50","maxspeed":"RO:urban","number-of-cars":"0","profile":"car","distance":"144.1741","time":"113.7509"}},{"type":"Feature","name":"ShapeMeta","geometry":{"type":"LineString","coordinates":[[23.62993,46.76851],[23.6298,46.76824]]},"properties":{"name":"Strada Unirii","highway":"residential","custom-speed":"50","maxspeed":"RO:urban","number-of-cars":"0","profile":"car","distance":"175.9741","time":"116.0405"}},{"type":"Feature","name":"ShapeMeta","geometry":{"type":"LineString","coordinates":[[23.6298,46.76824],[23.62962,46.76809]]},"properties":{"name":"Strada Unirii","highway":"residential","custom-speed":"50","maxspeed":"RO:urban","number-of-cars":"0","profile":"car","distance":"196.7741","time":"117.5381"}},{"type":"Feature","name":"ShapeMeta","geometry":{"type":"LineString","coordinates":[[23.62962,46.76809],[23.62965,46.76778]]},"properties":{"name":"Aleea Detunata","highway":"residential","custom-speed":"50","maxspeed":"RO:urban","number-of-cars":"0","profile":"car","distance":"231.5741","time":"120.0437"}},{"type":"Feature","name":"ShapeMeta","geometry":{"type":"LineString","coordinates":[[23.62965,46.76778],[23.62927,46.76782],[23.62818,46.76779]]},"properties":{"highway":"residential","custom-speed":"50","maxspeed":"RO:urban","number-of-cars":"0","profile":"car","distance":"343.9741","time":"128.1365"}},{"type":"Feature","name":"ShapeMeta","geometry":{"type":"LineString","coordinates":[[23.62818,46.76779],[23.62835,46.76738]]},"properties":{"name":"Aleea Meseș","highway":"residential","custom-speed":"50","maxspeed":"RO:urban","number-of-cars":"0","profile":"car","distance":"391.0741","time":"131.5277"}},{"type":"Feature","name":"ShapeMeta","geometry":{"type":"LineString","coordinates":[[23.62835,46.76738],[23.62911,46.76719],[23.62946,46.76702],[23.62978,46.76682],[23.62999,46.7666],[23.63019,46.76613],[23.6302,46.76593]]},"properties":{"name":"Aleea Meseș","highway":"residential","custom-speed":"50","maxspeed":"RO:urban","number-of-cars":"0","profile":"car","distance":"624.3741","time":"148.3253"}},{"type":"Feature","name":"ShapeMeta","geometry":{"type":"LineString","coordinates":[[23.6302,46.76593],[23.62986,46.76604],[23.62944,46.76628],[23.62897,46.76647],[23.62733,46.76698],[23.62693,46.76706],[23.62644,46.76701],[23.62601,46.76693],[23.62571,46.76678]]},"properties":{"name":"Aleea Detunata","highway":"residential","custom-speed":"50","maxspeed":"RO:urban","number-of-cars":"0","profile":"car","distance":"1005.274","time":"175.7501"}},{"type":"Feature","name":"ShapeMeta","geometry":{"type":"LineString","coordinates":[[23.62571,46.76678],[23.62568,46.76674]]},"properties":{"name":"Aleea Detunata","highway":"residential","custom-speed":"50","maxspeed":"RO:urban","number-of-cars":"0","profile":"car","distance":"1009.974","time":"176.0885"}},{"type":"Feature","name":"ShapeMeta","geometry":{"type":"LineString","coordinates":[[23.62568,46.76674],[23.62562,46.76662],[23.62547,46.76642]]},"properties":{"name":"Aleea Detunata","highway":"residential","custom-speed":"50","maxspeed":"RO:urban","number-of-cars":"0","profile":"car","distance":"1049.074","time":"178.9037"}},{"type":"Feature","name":"ShapeMeta","geometry":{"type":"LineString","coordinates":[[23.62547,46.76642],[23.6249,46.76663],[23.62479,46.76664],[23.62463,46.76664]]},"properties":{"name":"Aleea Detunata","highway":"residential","custom-speed":"50","maxspeed":"RO:urban","number-of-cars":"0","profile":"car","distance":"1118.774","time":"183.9221"}},{"type":"Feature","name":"ShapeMeta","geometry":{"type":"LineString","coordinates":[[23.62463,46.76664],[23.62449,46.76662],[23.62439,46.76657]]},"properties":{"name":"Aleea Detunata","highway":"residential","custom-speed":"50","maxspeed":"RO:urban","number-of-cars":"0","profile":"car","distance":"1139.074","time":"185.3837"}},{"type":"Feature","name":"ShapeMeta","geometry":{"type":"LineString","coordinates":[[23.62439,46.76657],[23.62451,46.76628],[23.62448,46.76618],[23.62445,46.76606]]},"properties":{"name":"Aleea Băișoara","highway":"residential","custom-speed":"50","maxspeed":"RO:urban","number-of-cars":"0","profile":"car","distance":"1197.574","time":"189.5957"}},{"type":"Feature","name":"ShapeMeta","geometry":{"type":"LineString","coordinates":[[23.62445,46.76606],[23.62416,46.76606],[23.62394,46.76606],[23.6236,46.76611]]},"properties":{"name":"Aleea Băița","highway":"residential","custom-speed":"50","maxspeed":"RO:urban","number-of-cars":"0","profile":"car","distance":"1262.874","time":"194.2973"}},{"type":"Feature","name":"ShapeMeta","geometry":{"type":"LineString","coordinates":[[23.6236,46.76611],[23.62378,46.76572]]},"properties":{"highway":"residential","custom-speed":"50","maxspeed":"RO:urban","number-of-cars":"0","profile":"car","distance":"1309.174","time":"197.6309"}},{"type":"Feature","name":"ShapeMeta","geometry":{"type":"LineString","coordinates":[[23.62378,46.76572],[23.62362,46.76566],[23.62235,46.76564]]},"properties":{"highway":"residential","custom-speed":"50","maxspeed":"RO:urban","number-of-cars":"0","profile":"car","distance":"1419.674","time":"205.5869"}},{"type":"Feature","name":"ShapeMeta","geometry":{"type":"LineString","coordinates":[[23.62235,46.76564],[23.62233,46.76619]]},"properties":{"highway":"service","profile":"car","distance":"1480.774","time":"215.3629"}},{"type":"Feature","name":"ShapeMeta","geometry":{"type":"LineString","coordinates":[[23.62233,46.76619],[23.62219,46.7662],[23.62195,46.76622],[23.62139,46.76625]]},"properties":{"name":"Aleea Băița","highway":"residential","maxspeed":"20","profile":"car","distance":"1552.474","time":"232.5709"}},{"type":"Feature","name":"ShapeMeta","geometry":{"type":"LineString","coordinates":[[23.62139,46.76625],[23.62085,46.76626],[23.62046,46.76624],[23.61984,46.76613]]},"properties":{"name":"Aleea Băița","highway":"residential","maxspeed":"20","profile":"car","distance":"1672.074","time":"261.2749"}},{"type":"Feature","name":"ShapeMeta","geometry":{"type":"LineString","coordinates":[[23.61984,46.76613],[23.61978,46.76628]]},"properties":{"name":"Strada Liviu Rebreanu","highway":"residential","profile":"car","distance":"1689.674","time":"262.9645"}},{"type":"Feature","name":"ShapeMeta","geometry":{"type":"LineString","coordinates":[[23.61978,46.76628],[23.6187,46.76612]]},"properties":{"name":"Strada Heltai Gáspár","highway":"residential","profile":"car","distance":"1773.574","time":"271.0189"}},{"type":"Feature","name":"ShapeMeta","geometry":{"type":"LineString","coordinates":[[23.6187,46.76612],[23.61844,46.76699]]},"properties":{"name":"Strada Zambilei","highway":"residential","profile":"car","distance":"1872.674","time":"280.5325"}},{"type":"Feature","name":"ShapeMeta","geometry":{"type":"LineString","coordinates":[[23.61844,46.76699],[23.61781,46.7669]]},"properties":{"name":"Strada Tache Ionescu","highway":"residential","custom-speed":"50","maxspeed":"RO:urban","number-of-cars":"0","profile":"car","distance":"1922.074","time":"284.0893"}},{"type":"Feature","name":"ShapeMeta","geometry":{"type":"LineString","coordinates":[[23.61781,46.7669],[23.61775,46.76689]]},"properties":{"name":"Strada Tache Ionescu","highway":"residential","custom-speed":"50","maxspeed":"RO:urban","number-of-cars":"0","profile":"car","distance":"1926.674","time":"284.4205"}},{"type":"Feature","name":"ShapeMeta","geometry":{"type":"LineString","coordinates":[[23.61775,46.76689],[23.61698,46.76675]]},"properties":{"name":"Strada Tache Ionescu","highway":"residential","profile":"car","distance":"1986.674","time":"290.1805"}},{"type":"Feature","name":"ShapeMeta","geometry":{"type":"LineString","coordinates":[[23.61698,46.76675],[23.61372,46.76617],[23.61363,46.76616],[23.6135,46.76614]]},"properties":{"name":"Strada Tache Ionescu","highway":"residential","profile":"car","distance":"2260.774","time":"316.4941"}},{"type":"Feature","name":"ShapeMeta","geometry":{"type":"LineString","coordinates":[[23.6135,46.76614],[23.61331,46.7661],[23.6108,46.76568]]},"properties":{"name":"Strada Tache Ionescu","oneway":"yes","highway":"residential","profile":"car","distance":"2472.774","time":"336.8461"}},{"type":"Feature","name":"ShapeMeta","geometry":{"type":"LineString","coordinates":[[23.6108,46.76568],[23.61058,46.76562],[23.6095,46.76534]]},"properties":{"name":"Strada Tache Ionescu","highway":"residential","profile":"car","distance":"2578.374","time":"346.9837"}},{"type":"Feature","name":"ShapeMeta","geometry":{"type":"LineString","coordinates":[[23.6095,46.76534],[23.60863,46.7651],[23.60802,46.7649],[23.60794,46.76488]]},"properties":{"name":"Strada Tache Ionescu","highway":"residential","profile":"car","distance":"2707.874","time":"359.4157"}},{"type":"Feature","name":"ShapeMeta","geometry":{"type":"LineString","coordinates":[[23.60794,46.76488],[23.60787,46.76486],[23.60692,46.76451],[23.60683,46.76447]]},"properties":{"name":"Strada Tache Ionescu","highway":"residential","profile":"car","distance":"2803.674","time":"368.6125"}},{"type":"Feature","name":"ShapeMeta","geometry":{"type":"LineString","coordinates":[[23.60683,46.76447],[23.60682,46.76448],[23.60679,46.76448],[23.60678,46.76448]]},"properties":{"name":"Strada Constantin Brâncuși","oneway":"yes","highway":"secondary","junction":"roundabout","profile":"car","distance":"2807.674","time":"368.8868"}},{"type":"Feature","name":"ShapeMeta","geometry":{"type":"LineString","coordinates":[[23.60678,46.76448],[23.6066,46.76458],[23.60531,46.7653]]},"properties":{"name":"Strada Constantin Brâncuși","highway":"secondary","profile":"car","distance":"2952.174","time":"378.7954"}},{"type":"Feature","name":"ShapeMeta","geometry":{"type":"LineString","coordinates":[[23.60531,46.7653],[23.60341,46.7664]]},"properties":{"name":"Strada Constantin Brâncuși","highway":"secondary","profile":"car","distance":"3141.774","time":"391.7965"}},{"type":"Feature","name":"ShapeMeta","geometry":{"type":"LineString","coordinates":[[23.60341,46.7664],[23.60255,46.7669]]},"properties":{"name":"Strada Constantin Brâncuși","highway":"secondary","profile":"car","distance":"3227.574","time":"397.6799"}},{"type":"Feature","name":"ShapeMeta","geometry":{"type":"LineString","coordinates":[[23.60255,46.7669],[23.60244,46.76696],[23.60229,46.76704]]},"properties":{"name":"Strada Constantin Brâncuși","highway":"secondary","profile":"car","distance":"3252.774","time":"399.4079"}},{"type":"Feature","name":"ShapeMeta","geometry":{"type":"LineString","coordinates":[[23.60229,46.76704],[23.6017,46.76738]]},"properties":{"name":"Strada Constantin Brâncuși","highway":"secondary","profile":"car","distance":"3311.374","time":"403.4262"}},{"type":"Feature","name":"ShapeMeta","geometry":{"type":"LineString","coordinates":[[23.6017,46.76738],[23.60155,46.76747]]},"properties":{"name":"Strada Constantin Brâncuși","highway":"secondary","profile":"car","distance":"3326.974","time":"404.4959"}},{"type":"Feature","name":"ShapeMeta","geometry":{"type":"LineString","coordinates":[[23.60155,46.76747],[23.60147,46.76751]]},"properties":{"name":"Strada Constantin Brâncuși","highway":"secondary","profile":"car","distance":"3334.074","time":"404.9828"}},{"type":"Feature","name":"ShapeMeta","geometry":{"type":"LineString","coordinates":[[23.60147,46.76751],[23.60118,46.76768]]},"properties":{"name":"Strada Constantin Brâncuși","highway":"secondary","profile":"car","distance":"3362.974","time":"406.9645"}},{"type":"Feature","name":"ShapeMeta","geometry":{"type":"LineString","coordinates":[[23.60118,46.76768],[23.60111,46.76773]]},"properties":{"name":"Strada Constantin Brâncuși","highway":"secondary","profile":"car","distance":"3370.974","time":"407.5131"}},{"type":"Feature","name":"ShapeMeta","geometry":{"type":"LineString","coordinates":[[23.60111,46.76773],[23.60096,46.76769]]},"properties":{"name":"Bulevardul Nicolae Titulescu","highway":"residential","custom-speed":"50","maxspeed":"RO:urban","number-of-cars":"0","profile":"car","distance":"3382.874","time":"408.3699"}},{"type":"Feature","name":"ShapeMeta","geometry":{"type":"LineString","coordinates":[[23.60096,46.76769],[23.60023,46.76751],[23.60008,46.7675]]},"properties":{"name":"Bulevardul Nicolae Titulescu","highway":"residential","custom-speed":"50","maxspeed":"RO:urban","number-of-cars":"0","profile":"car","distance":"3453.674","time":"413.4675"}},{"type":"Feature","name":"ShapeMeta","geometry":{"type":"LineString","coordinates":[[23.60008,46.7675],[23.59995,46.76754],[23.59993,46.76756]]},"properties":{"name":"Piața Timotei Cipariu","highway":"residential","maxspeed":"RO:urban","number-of-cars":"0","custom-speed":"1","profile":"car","distance":"3466.525","time":"459.7323"}},{"type":"Feature","name":"Stop","Shape":"0","geometry":{"type":"Point","coordinates":[23.63103,46.76819]},"properties":{"distance":"0","time":"0"}},{"type":"Feature","name":"Stop","Shape":"98","geometry":{"type":"Point","coordinates":[23.59993,46.76755]},"properties":{"distance":"3466.525","time":"459.7323"}}]}