{"type":"FeatureCollection","features":[{"type":"Feature","name":"ShapeMeta","geometry":{"type":"LineString","coordinates":[[23.63093,46.76816],[23.63088,46.76832],[23.63094,46.76848]]},"properties":{"name":"Strada Alexandru Vaida Voevod","highway":"residential","custom-speed":"50","maxspeed":"RO:urban","number-of-cars":"0","profile":"car","distance":"36.47415","time":"2.626138"}},{"type":"Feature","name":"ShapeMeta","geometry":{"type":"LineString","coordinates":[[23.63094,46.76848],[23.63092,46.76857],[23.63088,46.76864],[23.63078,46.76871]]},"properties":{"name":"Strada Alexandru Vaida Voevod","highway":"residential","maxspeed":"RO:urban","number-of-cars":"0","custom-speed":"1","profile":"car","distance":"65.77415","time":"108.1061"}},{"type":"Feature","name":"ShapeMeta","geometry":{"type":"LineString","coordinates":[[23.63078,46.76871],[23.63056,46.76866],[23.63029,46.76861]]},"properties":{"name":"Strada Lucia Sturdza Bulandra","highway":"residential","custom-speed":"50","maxspeed":"RO:urban","number-of-cars":"0","profile":"car","distance":"104.0741","time":"110.8637"}},{"type":"Feature","name":"ShapeMeta","geometry":{"type":"LineString","coordinates":[[23.63029,46.76861],[23.63026,46.76863]]},"properties":{"name":"Strada Unirii","highway":"residential","custom-speed":"50","maxspeed":"RO:urban","number-of-cars":"0","profile":"car","distance":"107.1741","time":"111.0869"}},{"type":"Feature","name":"ShapeMeta","geometry":{"type":"LineString","coordinates":[[23.63026,46.76863],[23.63024,46.76864],[23.63018,46.76866],[23.6301,46.76866]]},"properties":{"name":"Strada Unirii","highway":"residential","custom-speed":"50","maxspeed":"RO:urban","number-of-cars":"0","profile":"car","distance":"120.6741","time":"112.0589"}},{"type":"Feature","name":"ShapeMeta","geometry":{"type":"LineString","coordinates":[[23.6301,46.76866],[23.63007,46.76865]]},"properties":{"name":"Strada Unirii","highway":"residential","custom-speed":"50","maxspeed":"RO:urban","number-of-cars":"0","profile":"car","distance":"123.2741","time":"112.2461"}},{"type":"Feature","name":"ShapeMeta","geometry":{"type":"LineString","coordinates":[[23.63007,46.76865],[23.62981,46.7688]]},"properties":{"name":"Strada Unirii","highway":"residential","custom-speed":"50","maxspeed":"RO:urban","number-of-cars":"0","profile":"car","distance":"149.1741","time":"114.1109"}},{"type":"Feature","name":"ShapeMeta","geometry":{"type":"LineString","coordinates":[[23.62981,46.7688],[23.62969,46.76889]]},"properties":{"name":"Strada Alexandru Vaida Voevod","highway":"residential","custom-speed":"50","maxspeed":"RO:urban","number-of-cars":"0","profile":"car","distance":"162.4741","time":"115.0685"}},{"type":"Feature","name":"ShapeMeta","geometry":{"type":"LineString","coordinates":[[23.62969,46.76889],[23.62926,46.7692]]},"properties":{"name":"Strada Alexandru Vaida Voevod","highway":"residential","custom-speed":"50","maxspeed":"RO:urban","number-of-cars":"0","profile":"car","distance":"209.5741","time":"118.4597"}},{"type":"Feature","name":"ShapeMeta","geometry":{"type":"LineString","coordinates":[[23.62926,46.7692],[23.6292,46.76924]]},"properties":{"name":"Strada Alexandru Vaida Voevod","highway":"residential","custom-speed":"50","maxspeed":"RO:urban","number-of-cars":"0","profile":"car","distance":"215.7741","time":"118.9061"}},{"type":"Feature","name":"ShapeMeta","geometry":{"type":"LineString","coordinates":[[23.6292,46.76924],[23.62888,46.76908],[23.62883,46.76907]]},"properties":{"highway":"residential","custom-speed":"50","maxspeed":"RO:urban","number-of-cars":"0","profile":"car","distance":"249.9741","time":"121.3685"}},{"type":"Feature","name":"ShapeMeta","geometry":{"type":"LineString","coordinates":[[23.62883,46.76907],[23.62887,46.76822]]},"properties":{"highway":"residential","custom-speed":"50","maxspeed":"RO:urban","number-of-cars":"0","profile":"car","distance":"344.9741","time":"128.2085"}},{"type":"Feature","name":"ShapeMeta","geometry":{"type":"LineString","coordinates":[[23.62887,46.76822],[23.62889,46.76791]]},"properties":{"highway":"residential","custom-speed":"50","maxspeed":"RO:urban","number-of-cars":"0","profile":"car","distance":"379.2741","time":"130.6781"}},{"type":"Feature","name":"ShapeMeta","geometry":{"type":"LineString","coordinates":[[23.62889,46.76791],[23.62864,46.76791],[23.62848,46.76791]]},"properties":{"name":"Strada Unirii","highway":"residential","custom-speed":"50","maxspeed":"RO:urban","number-of-cars":"0","profile":"car","distance":"410.0741","time":"132.8957"}},{"type":"Feature","name":"ShapeMeta","geometry":{"type":"LineString","coordinates":[[23.62848,46.76791],[23.62845,46.7679]]},"properties":{"name":"Strada Unirii","highway":"residential","custom-speed":"50","maxspeed":"RO:urban","number-of-cars":"0","profile":"car","distance":"412.7741","time":"133.0901"}},{"type":"Feature","name":"ShapeMeta","geometry":{"type":"LineString","coordinates":[[23.62845,46.7679],[23.62787,46.76788]]},"properties":{"name":"Strada Unirii","highway":"residential","custom-speed":"50","maxspeed":"RO:urban","number-of-cars":"0","profile":"car","distance":"456.7741","time":"136.2581"}},{"type":"Feature","name":"ShapeMeta","geometry":{"type":"LineString","coordinates":[[23.62787,46.76788],[23.6278,46.76788],[23.62664,46.76785],[23.62658,46.76785]]},"properties":{"name":"Strada Unirii","highway":"residential","custom-speed":"50","maxspeed":"RO:urban","number-of-cars":"0","profile":"car","distance":"554.8741","time":"143.3213"}},{"type":"Feature","name":"ShapeMeta","geometry":{"type":"LineString","coordinates":[[23.62658,46.76785],[23.62595,46.76783]]},"properties":{"name":"Strada Unirii","highway":"residential","custom-speed":"50","maxspeed":"RO:urban","number-of-cars":"0","profile":"car","distance":"602.7741","time":"146.7701"}},{"type":"Feature","name":"ShapeMeta","geometry":{"type":"LineString","coordinates":[[23.62595,46.76783],[23.62595,46.76793],[23.62595,46.76806]]},"properties":{"name":"Aleea Snagov","highway":"residential","custom-speed":"50","maxspeed":"RO:urban","number-of-cars":"0","profile":"car","distance":"628.1741","time":"148.5989"}},{"type":"Feature","name":"ShapeMeta","geometry":{"type":"LineString","coordinates":[[23.62595,46.76806],[23.62592,46.76908]]},"properties":{"name":"Aleea Snagov","highway":"residential","custom-speed":"50","maxspeed":"RO:urban","number-of-cars":"0","profile":"car","distance":"741.3741","time":"156.7493"}},{"type":"Feature","name":"ShapeMeta","geometry":{"type":"LineString","coordinates":[[23.62592,46.76908],[23.62542,46.76907]]},"properties":{"highway":"service","profile":"car","distance":"779.3741","time":"162.8293"}},{"type":"Feature","name":"ShapeMeta","geometry":{"type":"LineString","coordinates":[[23.62542,46.76907],[23.62496,46.76907]]},"properties":{"highway":"service","profile":"car","distance":"814.4741","time":"168.4453"}},{"type":"Feature","name":"ShapeMeta","geometry":{"type":"LineString","coordinates":[[23.62496,46.76907],[23.62464,46.76906],[23.62456,46.7691]]},"properties":{"highway":"service","profile":"car","distance":"846.4741","time":"173.5653"}},{"type":"Feature","name":"ShapeMeta","geometry":{"type":"LineString","coordinates":[[23.62456,46.7691],[23.62452,46.76792]]},"properties":{"highway":"service","profile":"car","distance":"977.9741","time":"194.6053"}},{"type":"Feature","name":"ShapeMeta","geometry":{"type":"LineString","coordinates":[[23.62452,46.76792],[23.6239,46.76809],[23.62362,46.76816],[23.62303,46.76831]]},"properties":{"name":"Strada Unirii","highway":"residential","custom-speed":"50","maxspeed":"RO:urban","number-of-cars":"0","profile":"car","distance":"1098.974","time":"203.3173"}},{"type":"Feature","name":"ShapeMeta","geometry":{"type":"LineString","coordinates":[[23.62303,46.76831],[23.62268,46.76832],[23.62252,46.76833],[23.62078,46.76828],[23.62036,46.76832],[23.62022,46.76836]]},"properties":{"name":"Strada Unirii","highway":"residential","custom-speed":"50","maxspeed":"RO:urban","number-of-cars":"0","profile":"car","distance":"1314.674","time":"218.8477"}},{"type":"Feature","name":"ShapeMeta","geometry":{"type":"LineString","coordinates":[[23.62022,46.76836],[23.62008,46.76841],[23.61965,46.76855],[23.61935,46.76863]]},"properties":{"name":"Strada Unirii","highway":"residential","custom-speed":"50","maxspeed":"RO:urban","number-of-cars":"0","profile":"car","distance":"1387.774","time":"224.1109"}},{"type":"Feature","name":"ShapeMeta","geometry":{"type":"LineString","coordinates":[[23.61935,46.76863],[23.61914,46.76869]]},"properties":{"name":"Strada Unirii","highway":"residential","custom-speed":"50","maxspeed":"RO:urban","number-of-cars":"0","profile":"car","distance":"1404.874","time":"225.3421"}},{"type":"Feature","name":"ShapeMeta","geometry":{"type":"LineString","coordinates":[[23.61914,46.76869],[23.61914,46.76879],[23.6191,46.76887],[23.61899,46.76894]]},"properties":{"name":"Bulevardul Nicolae Titulescu","highway":"residential","custom-speed":"50","maxspeed":"RO:urban","number-of-cars":"0","profile":"car","distance":"1436.774","time":"227.6389"}},{"type":"Feature","name":"ShapeMeta","geometry":{"type":"LineString","coordinates":[[23.61899,46.76894],[23.61884,46.76895]]},"properties":{"name":"Bulevardul Nicolae Titulescu","highway":"residential","custom-speed":"50","maxspeed":"RO:urban","number-of-cars":"0","profile":"car","distance":"1447.874","time":"228.4381"}},{"type":"Feature","name":"ShapeMeta","geometry":{"type":"LineString","coordinates":[[23.61884,46.76895],[23.6187,46.76889],[23.61862,46.76881]]},"properties":{"name":"Bulevardul Nicolae Titulescu","highway":"residential","custom-speed":"50","maxspeed":"RO:urban","number-of-cars":"0","profile":"car","distance":"1471.374","time":"230.1301"}},{"type":"Feature","name":"ShapeMeta","geometry":{"type":"LineString","coordinates":[[23.61862,46.76881],[23.61823,46.76886],[23.61765,46.76895]]},"properties":{"name":"Bulevardul Nicolae Titulescu","highway":"residential","custom-speed":"50","maxspeed":"RO:urban","number-of-cars":"0","profile":"car","distance":"1547.174","time":"235.5877"}},{"type":"Feature","name":"ShapeMeta","geometry":{"type":"LineString","coordinates":[[23.61765,46.76895],[23.61749,46.7697]]},"properties":{"name":"Strada Bistriței","highway":"residential","custom-speed":"50","maxspeed":"RO:urban","number-of-cars":"0","profile":"car","distance":"1631.674","time":"241.6717"}},{"type":"Feature","name":"ShapeMeta","geometry":{"type":"LineString","coordinates":[[23.61749,46.7697],[23.61745,46.76986],[23.6174,46.77007]]},"properties":{"name":"Strada Bistriței","highway":"residential","custom-speed":"50","maxspeed":"RO:urban","number-of-cars":"0","profile":"car","distance":"1672.774","time":"244.6309"}},{"type":"Feature","name":"ShapeMeta","geometry":{"type":"LineString","coordinates":[[23.6174,46.77007],[23.61731,46.77047]]},"properties":{"name":"Strada Bistriței","highway":"residential","custom-speed":"50","maxspeed":"RO:urban","number-of-cars":"0","profile":"car","distance":"1718.174","time":"247.8997"}},{"type":"Feature","name":"ShapeMeta","geometry":{"type":"LineString","coordinates":[[23.61731,46.77047],[23.61716,46.77114]]},"properties":{"name":"Strada Bistriței","highway":"residential","custom-speed":"50","maxspeed":"RO:urban","number-of-cars":"0","profile":"car","distance":"1792.774","time":"253.2709"}},{"type":"Feature","name":"ShapeMeta","geometry":{"type":"LineString","coordinates":[[23.61716,46.77114],[23.61571,46.77114]]},"properties":{"name":"Strada Actorului","highway":"residential","custom-speed":"50","maxspeed":"RO:urban","number-of-cars":"0","profile":"car","distance":"1903.274","time":"261.2269"}},{"type":"Feature","name":"ShapeMeta","geometry":{"type":"LineString","coordinates":[[23.61571,46.77114],[23.61295,46.77115]]},"properties":{"name":"Strada Actorului","highway":"residential","custom-speed":"50","maxspeed":"RO:urban","number-of-cars":"0","profile":"car","distance":"2113.674","time":"276.3757"}},{"type":"Feature","name":"ShapeMeta","geometry":{"type":"LineString","coordinates":[[23.61295,46.77115],[23.61164,46.77115]]},"properties":{"name":"Strada Actorului","highway":"residential","profile":"car","distance":"2213.674","time":"285.9757"}},{"type":"Feature","name":"ShapeMeta","geometry":{"type":"LineString","coordinates":[[23.61164,46.77115],[23.61127,46.77122]]},"properties":{"name":"Strada Aurel Suciu","highway":"residential","profile":"car","distance":"2242.674","time":"288.7597"}},{"type":"Feature","name":"ShapeMeta","geometry":{"type":"LineString","coordinates":[[23.61127,46.77122],[23.6105,46.77136]]},"properties":{"name":"Strada Aurel Suciu","highway":"residential","profile":"car","distance":"2303.374","time":"294.5869"}},{"type":"Feature","name":"ShapeMeta","geometry":{"type":"LineString","coordinates":[[23.6105,46.77136],[23.60907,46.77161]]},"properties":{"name":"Strada Aurel Suciu","highway":"residential","profile":"car","distance":"2415.674","time":"305.3677"}},{"type":"Feature","name":"ShapeMeta","geometry":{"type":"LineString","coordinates":[[23.60907,46.77161],[23.60907,46.77162],[23.60906,46.77165],[23.60905,46.77166]]},"properties":{"highway":"residential","junction":"roundabout","profile":"car","distance":"2421.174","time":"305.8957"}},{"type":"Feature","name":"ShapeMeta","geometry":{"type":"LineString","coordinates":[[23.60905,46.77166],[23.60904,46.77166],[23.60902,46.77166],[23.60898,46.77165],[23.60897,46.77164],[23.60897,46.77164]]},"properties":{"highway":"residential","junction":"roundabout","profile":"car","distance":"2428.574","time":"306.6061"}},{"type":"Feature","name":"ShapeMeta","geometry":{"type":"LineString","coordinates":[[23.60897,46.77164],[23.60883,46.77168],[23.60821,46.7718],[23.60811,46.77182]]},"properties":{"name":"Strada Aurel Suciu","highway":"residential","profile":"car","distance":"2496.974","time":"313.1725"}},{"type":"Feature","name":"ShapeMeta","geometry":{"type":"LineString","coordinates":[[23.60811,46.77182],[23.60765,46.7719]]},"properties":{"name":"Strada Aurel Suciu","highway":"residential","profile":"car","distance":"2533.174","time":"316.6477"}},{"type":"Feature","name":"ShapeMeta","geometry":{"type":"LineString","coordinates":[[23.60765,46.7719],[23.60728,46.77167],[23.60647,46.77129],[23.60616,46.77117],[23.60492,46.77075]]},"properties":{"name":"Strada General Traian Moșoiu","highway":"residential","profile":"car","distance":"2778.974","time":"340.2445"}},{"type":"Feature","name":"ShapeMeta","geometry":{"type":"LineString","coordinates":[[23.60492,46.77075],[23.60476,46.77069],[23.60319,46.77],[23.60225,46.76968]]},"properties":{"name":"Strada General Traian Moșoiu","oneway":"yes","highway":"residential","profile":"car","distance":"3014.774","time":"362.8813"}},{"type":"Feature","name":"ShapeMeta","geometry":{"type":"LineString","coordinates":[[23.60225,46.76968],[23.60168,46.76947]]},"properties":{"name":"Strada General Traian Moșoiu","oneway":"yes","highway":"residential","profile":"car","distance":"3063.974","time":"367.6045"}},{"type":"Feature","name":"ShapeMeta","geometry":{"type":"LineString","coordinates":[[23.60168,46.76947],[23.60026,46.76905]]},"properties":{"name":"Strada General Traian Moșoiu","highway":"residential","profile":"car","distance":"3181.974","time":"378.9325"}},{"type":"Feature","name":"ShapeMeta","geometry":{"type":"LineString","coordinates":[[23.60026,46.76905],[23.59937,46.7688],[23.59921,46.76876],[23.59908,46.76872]]},"properties":{"name":"Strada General Traian Moșoiu","highway":"residential","profile":"car","distance":"3278.974","time":"388.2445"}},{"type":"Feature","name":"ShapeMeta","geometry":{"type":"LineString","coordinates":[[23.59908,46.76872],[23.59887,46.76865],[23.598,46.76837],[23.59789,46.76833]]},"properties":{"name":"Strada Posada","highway":"primary","oneway":"yes","profile":"car","distance":"3379.074","time":"393.5832"}},{"type":"Feature","name":"ShapeMeta","geometry":{"type":"LineString","coordinates":[[23.59789,46.76833],[23.59795,46.76815],[23.59795,46.76814]]},"properties":{"highway":"primary","oneway":"yes","profile":"car","distance":"3400.774","time":"394.7405"}},{"type":"Feature","name":"ShapeMeta","geometry":{"type":"LineString","coordinates":[[23.59795,46.76814],[23.59797,46.76807]]},"properties":{"highway":"primary","oneway":"yes","profile":"car","distance":"3408.574","time":"395.1565"}},{"type":"Feature","name":"ShapeMeta","geometry":{"type":"LineString","coordinates":[[23.59797,46.76807],[23.59806,46.76791],[23.59818,46.76771],[23.59829,46.76751]]},"properties":{"name":"Piața Ștefan cel Mare","oneway":"yes","highway":"primary_link","profile":"car","distance":"3475.374","time":"398.7191"}},{"type":"Feature","name":"ShapeMeta","geometry":{"type":"LineString","coordinates":[[23.59829,46.76751],[23.59851,46.76738],[23.59865,46.76732],[23.59881,46.76727]]},"properties":{"name":"Piața Ștefan cel Mare","oneway":"yes","highway":"primary_link","profile":"car","distance":"3523.674","time":"401.2951"}},{"type":"Feature","name":"ShapeMeta","geometry":{"type":"LineString","coordinates":[[23.59881,46.76727],[23.59944,46.76739]]},"properties":{"name":"Strada Milton Lehrer","highway":"primary","oneway":"yes","profile":"car","distance":"3573.874","time":"403.9724"}},{"type":"Feature","name":"ShapeMeta","geometry":{"type":"LineString","coordinates":[[23.59944,46.76739],[23.5996,46.76748],[23.59968,46.76762],[23.59969,46.76768],[23.59968,46.76774]]},"properties":{"oneway":"yes","highway":"primary_link","profile":"car","distance":"3619.674","time":"406.4151"}},{"type":"Feature","name":"ShapeMeta","geometry":{"type":"LineString","coordinates":[[23.59968,46.76774],[23.59976,46.76766],[23.59993,46.76756]]},"properties":{"name":"Piața Timotei Cipariu","highway":"residential","maxspeed":"RO:urban","number-of-cars":"0","custom-speed":"1","profile":"car","distance":"3647.723","time":"507.3903"}},{"type":"Feature","name":"Stop","Shape":"0","geometry":{"type":"Point","coordinates":[23.63103,46.76819]},"properties":{"distance":"0","time":"0"}},{"type":"Feature","name":"Stop","Shape":"110","geometry":{"type":"Point","coordinates":[23.59993,46.76755]},"properties":{"distance":"3647.723","time":"507.3903"}}]}