{"type":"FeatureCollection","features":[{"type":"Feature","name":"ShapeMeta","geometry":{"type":"LineString","coordinates":[[23.63093,46.76816],[23.63088,46.76832],[23.63094,46.76848]]},"properties":{"name":"Strada Alexandru Vaida Voevod","highway":"residential","custom-speed":"50","maxspeed":"RO:urban","number-of-cars":"0","profile":"car","distance":"36.47415","time":"2.626138"}},{"type":"Feature","name":"ShapeMeta","geometry":{"type":"LineString","coordinates":[[23.63094,46.76848],[23.63092,46.76857],[23.63088,46.76864],[23.63078,46.76871]]},"properties":{"name":"Strada Alexandru Vaida Voevod","highway":"residential","custom-speed":"50","maxspeed":"RO:urban","number-of-cars":"0","profile":"car","distance":"65.77415","time":"4.735738"}},{"type":"Feature","name":"ShapeMeta","geometry":{"type":"LineString","coordinates":[[23.63078,46.76871],[23.63056,46.76866],[23.63029,46.76861]]},"properties":{"name":"Strada Lucia Sturdza Bulandra","highway":"residential","maxspeed":"RO:urban","number-of-cars":"0","custom-speed":"1","profile":"car","distance":"104.0741","time":"142.6157"}},{"type":"Feature","name":"ShapeMeta","geometry":{"type":"LineString","coordinates":[[23.63029,46.76861],[23.63026,46.76863]]},"properties":{"name":"Strada Unirii","highway":"residential","custom-speed":"50","maxspeed":"RO:urban","number-of-cars":"0","profile":"car","distance":"107.1741","time":"142.8389"}},{"type":"Feature","name":"ShapeMeta","geometry":{"type":"LineString","coordinates":[[23.63026,46.76863],[23.63024,46.76864],[23.63018,46.76866],[23.6301,46.76866]]},"properties":{"name":"Strada Unirii","highway":"residential","custom-speed":"50","maxspeed":"RO:urban","number-of-cars":"0","profile":"car","distance":"120.6741","time":"143.8109"}},{"type":"Feature","name":"ShapeMeta","geometry":{"type":"LineString","coordinates":[[23.6301,46.76866],[23.63007,46.76865]]},"properties":{"name":"Strada Unirii","highway":"residential","custom-speed":"50","maxspeed":"RO:urban","number-of-cars":"0","profile":"car","distance":"123.2741","time":"143.9981"}},{"type":"Feature","name":"ShapeMeta","geometry":{"type":"LineString","coordinates":[[23.63007,46.76865],[23.62981,46.7688]]},"properties":{"name":"Strada Unirii","highway":"residential","custom-speed":"50","maxspeed":"RO:urban","number-of-cars":"0","profile":"car","distance":"149.1741","time":"145.8629"}},{"type":"Feature","name":"ShapeMeta","geometry":{"type":"LineString","coordinates":[[23.62981,46.7688],[23.62969,46.76889]]},"properties":{"name":"Strada Alexandru Vaida Voevod","highway":"residential","custom-speed":"50","maxspeed":"RO:urban","number-of-cars":"0","profile":"car","distance":"162.4741","time":"146.8205"}},{"type":"Feature","name":"ShapeMeta","geometry":{"type":"LineString","coordinates":[[23.62969,46.76889],[23.62926,46.7692]]},"properties":{"name":"Strada Alexandru Vaida Voevod","highway":"residential","custom-speed":"50","maxspeed":"RO:urban","number-of-cars":"0","profile":"car","distance":"209.5741","time":"150.2117"}},{"type":"Feature","name":"ShapeMeta","geometry":{"type":"LineString","coordinates":[[23.62926,46.7692],[23.6292,46.76924]]},"properties":{"name":"Strada Alexandru Vaida Voevod","highway":"residential","custom-speed":"50","maxspeed":"RO:urban","number-of-cars":"0","profile":"car","distance":"215.7741","time":"150.6581"}},{"type":"Feature","name":"ShapeMeta","geometry":{"type":"LineString","coordinates":[[23.6292,46.76924],[23.62876,46.76954],[23.62866,46.76961]]},"properties":{"name":"Strada Alexandru Vaida Voevod","highway":"residential","custom-speed":"50","maxspeed":"RO:urban","number-of-cars":"0","profile":"car","distance":"274.3741","time":"154.8773"}},{"type":"Feature","name":"ShapeMeta","geometry":{"type":"LineString","coordinates":[[23.62866,46.76961],[23.62863,46.76963]]},"properties":{"name":"Strada Alexandru Vaida Voevod","highway":"residential","custom-speed":"50","maxspeed":"RO:urban","number-of-cars":"0","profile":"car","distance":"277.6741","time":"155.1149"}},{"type":"Feature","name":"ShapeMeta","geometry":{"type":"LineString","coordinates":[[23.62863,46.76963],[23.62821,46.76992],[23.62814,46.76997]]},"properties":{"name":"Strada Alexandru Vaida Voevod","highway":"residential","custom-speed":"50","maxspeed":"RO:urban","number-of-cars":"0","profile":"car","distance":"330.4741","time":"158.9165"}},{"type":"Feature","name":"ShapeMeta","geometry":{"type":"LineString","coordinates":[[23.62814,46.76997],[23.62802,46.77005],[23.62792,46.77012]]},"properties":{"name":"Strada Alexandru Vaida Voevod","highway":"residential","custom-speed":"50","maxspeed":"RO:urban","number-of-cars":"0","profile":"car","distance":"353.6741","time":"160.5869"}},{"type":"Feature","name":"ShapeMeta","geometry":{"type":"LineString","coordinates":[[23.62792,46.77012],[23.62773,46.77024]]},"properties":{"name":"Strada Alexandru Vaida Voevod","highway":"residential","custom-speed":"50","maxspeed":"RO:urban","number-of-cars":"0","profile":"car","distance":"373.4741","time":"162.0125"}},{"type":"Feature","name":"ShapeMeta","geometry":{"type":"LineString","coordinates":[[23.62773,46.77024],[23.62669,46.77087],[23.62658,46.77093],[23.62654,46.77095]]},"properties":{"name":"Strada Alexandru Vaida Voevod","highway":"residential","custom-speed":"50","maxspeed":"RO:urban","number-of-cars":"0","profile":"car","distance":"493.4741","time":"170.6525"}},{"type":"Feature","name":"ShapeMeta","geometry":{"type":"LineString","coordinates":[[23.62654,46.77095],[23.6264,46.77102],[23.62561,46.77142]]},"properties":{"name":"Strada Alexandru Vaida Voevod","highway":"residential","custom-speed":"50","maxspeed":"RO:urban","number-of-cars":"0","profile":"car","distance":"581.5741","time":"176.9957"}},{"type":"Feature","name":"ShapeMeta","geometry":{"type":"LineString","coordinates":[[23.62561,46.77142],[23.62541,46.77151],[23.62538,46.77152],[23.62531,46.77155]]},"properties":{"name":"Strada Alexandru Vaida Voevod","highway":"residential","custom-speed":"50","maxspeed":"RO:urban","number-of-cars":"0","profile":"car","distance":"608.6741","time":"178.9469"}},{"type":"Feature","name":"ShapeMeta","geometry":{"type":"LineString","coordinates":[[23.62531,46.77155],[23.62521,46.7716],[23.62504,46.77167],[23.62501,46.77169]]},"properties":{"name":"Strada Alexandru Vaida Voevod","highway":"residential","custom-speed":"50","maxspeed":"RO:urban","number-of-cars":"0","profile":"car","distance":"636.274","time":"180.9341"}},{"type":"Feature","name":"ShapeMeta","geometry":{"type":"LineString","coordinates":[[23.62501,46.77169],[23.62498,46.7717]]},"properties":{"name":"Strada Alexandru Vaida Voevod","highway":"secondary","profile":"car","distance":"638.774","time":"181.1055"}},{"type":"Feature","name":"ShapeMeta","geometry":{"type":"LineString","coordinates":[[23.62498,46.7717],[23.62495,46.77171],[23.62486,46.77176],[23.62476,46.7718]]},"properties":{"name":"Strada Alexandru Vaida Voevod","highway":"residential","custom-speed":"50","maxspeed":"RO:urban","number-of-cars":"0","profile":"car","distance":"659.174","time":"182.5743"}},{"type":"Feature","name":"ShapeMeta","geometry":{"type":"LineString","coordinates":[[23.62476,46.7718],[23.62423,46.77203]]},"properties":{"name":"Strada Alexandru Vaida Voevod","highway":"residential","custom-speed":"50","maxspeed":"RO:urban","number-of-cars":"0","profile":"car","distance":"706.874","time":"186.0087"}},{"type":"Feature","name":"ShapeMeta","geometry":{"type":"LineString","coordinates":[[23.62423,46.77203],[23.62404,46.77217]]},"properties":{"highway":"residential","custom-speed":"50","maxspeed":"RO:urban","number-of-cars":"0","profile":"car","distance":"728.374","time":"187.5567"}},{"type":"Feature","name":"ShapeMeta","geometry":{"type":"LineString","coordinates":[[23.62404,46.77217],[23.62404,46.77221],[23.62398,46.77228],[23.62392,46.77229],[23.62386,46.77229]]},"properties":{"highway":"residential","custom-speed":"50","maxspeed":"RO:urban","number-of-cars":"0","profile":"car","distance":"751.174","time":"189.1983"}},{"type":"Feature","name":"ShapeMeta","geometry":{"type":"LineString","coordinates":[[23.62386,46.77229],[23.6238,46.77228],[23.62375,46.77225],[23.62373,46.77221]]},"properties":{"highway":"residential","custom-speed":"50","maxspeed":"RO:urban","number-of-cars":"0","profile":"car","distance":"765.674","time":"190.2423"}},{"type":"Feature","name":"ShapeMeta","geometry":{"type":"LineString","coordinates":[[23.62373,46.77221],[23.62374,46.77216]]},"properties":{"highway":"residential","custom-speed":"50","maxspeed":"RO:urban","number-of-cars":"0","profile":"car","distance":"770.674","time":"190.6023"}},{"type":"Feature","name":"ShapeMeta","geometry":{"type":"LineString","coordinates":[[23.62374,46.77216],[23.62337,46.77198],[23.62298,46.77183],[23.62234,46.77162]]},"properties":{"name":"Aleea Slﾄハic","highway":"residential","custom-speed":"50","maxspeed":"RO:urban","number-of-cars":"0","profile":"car","distance":"893.174","time":"199.4223"}},{"type":"Feature","name":"ShapeMeta","geometry":{"type":"LineString","coordinates":[[23.62234,46.77162],[23.62198,46.77151],[23.62101,46.77125],[23.62038,46.771],[23.61947,46.77042],[23.61923,46.7702]]},"properties":{"name":"Aleea Slﾄハic","highway":"residential","custom-speed":"50","maxspeed":"RO:urban","number-of-cars":"0","profile":"car","distance":"1182.474","time":"220.2519"}},{"type":"Feature","name":"ShapeMeta","geometry":{"type":"LineString","coordinates":[[23.61923,46.7702],[23.6191,46.77004],[23.61902,46.76989],[23.61896,46.76976]]},"properties":{"name":"Aleea Slﾄハic","highway":"residential","custom-speed":"50","maxspeed":"RO:urban","number-of-cars":"0","profile":"car","distance":"1236.474","time":"224.1399"}},{"type":"Feature","name":"ShapeMeta","geometry":{"type":"LineString","coordinates":[[23.61896,46.76976],[23.61884,46.76895]]},"properties":{"name":"Aleea Slﾄハic","highway":"residential","custom-speed":"50","maxspeed":"RO:urban","number-of-cars":"0","profile":"car","distance":"1326.774","time":"230.6415"}},{"type":"Feature","name":"ShapeMeta","geometry":{"type":"LineString","coordinates":[[23.61884,46.76895],[23.6187,46.76889],[23.61862,46.76881]]},"properties":{"name":"Bulevardul Nicolae Titulescu","highway":"residential","custom-speed":"50","maxspeed":"RO:urban","number-of-cars":"0","profile":"car","distance":"1350.274","time":"232.3335"}},{"type":"Feature","name":"ShapeMeta","geometry":{"type":"LineString","coordinates":[[23.61862,46.76881],[23.61823,46.76886],[23.61765,46.76895]]},"properties":{"name":"Bulevardul Nicolae Titulescu","highway":"residential","custom-speed":"50","maxspeed":"RO:urban","number-of-cars":"0","profile":"car","distance":"1426.074","time":"237.7911"}},{"type":"Feature","name":"ShapeMeta","geometry":{"type":"LineString","coordinates":[[23.61765,46.76895],[23.61647,46.76908],[23.61626,46.7691]]},"properties":{"name":"Bulevardul Nicolae Titulescu","highway":"residential","custom-speed":"50","maxspeed":"RO:urban","number-of-cars":"0","profile":"car","distance":"1533.374","time":"245.5167"}},{"type":"Feature","name":"ShapeMeta","geometry":{"type":"LineString","coordinates":[[23.61626,46.7691],[23.61571,46.76916]]},"properties":{"name":"Bulevardul Nicolae Titulescu","highway":"residential","custom-speed":"50","maxspeed":"RO:urban","number-of-cars":"0","profile":"car","distance":"1575.674","time":"248.5623"}},{"type":"Feature","name":"ShapeMeta","geometry":{"type":"LineString","coordinates":[[23.61571,46.76916],[23.61572,46.76947]]},"properties":{"highway":"residential","profile":"car","distance":"1610.374","time":"251.8935"}},{"type":"Feature","name":"ShapeMeta","geometry":{"type":"LineString","coordinates":[[23.61572,46.76947],[23.61571,46.76966]]},"properties":{"highway":"residential","profile":"car","distance":"1630.674","time":"253.8423"}},{"type":"Feature","name":"ShapeMeta","geometry":{"type":"LineString","coordinates":[[23.61571,46.76966],[23.61571,46.7701]]},"properties":{"highway":"residential","profile":"car","distance":"1679.374","time":"258.5175"}},{"type":"Feature","name":"ShapeMeta","geometry":{"type":"LineString","coordinates":[[23.61571,46.7701],[23.61571,46.77031]]},"properties":{"highway":"residential","profile":"car","distance":"1703.474","time":"260.8311"}},{"type":"Feature","name":"ShapeMeta","geometry":{"type":"LineString","coordinates":[[23.61571,46.77031],[23.61438,46.77032]]},"properties":{"name":"Aleea Godeanu","highway":"residential","profile":"car","distance":"1804.774","time":"270.5559"}},{"type":"Feature","name":"ShapeMeta","geometry":{"type":"LineString","coordinates":[[23.61438,46.77032],[23.61299,46.77032]]},"properties":{"name":"Aleea Godeanu","highway":"residential","profile":"car","distance":"1910.474","time":"280.7031"}},{"type":"Feature","name":"ShapeMeta","geometry":{"type":"LineString","coordinates":[[23.61299,46.77032],[23.613,46.76997]]},"properties":{"name":"Strada Arieﾈ冰lui","oneway":"yes","highway":"residential","profile":"car","distance":"1949.474","time":"284.4471"}},{"type":"Feature","name":"ShapeMeta","geometry":{"type":"LineString","coordinates":[[23.613,46.76997],[23.61304,46.76944]]},"properties":{"name":"Strada Arieﾈ冰lui","oneway":"yes","highway":"residential","profile":"car","distance":"2008.074","time":"290.0727"}},{"type":"Feature","name":"ShapeMeta","geometry":{"type":"LineString","coordinates":[[23.61304,46.76944],[23.61288,46.76944],[23.6123,46.76944]]},"properties":{"name":"Bulevardul Nicolae Titulescu","highway":"residential","custom-speed":"50","maxspeed":"RO:urban","number-of-cars":"0","profile":"car","distance":"2064.374","time":"294.1263"}},{"type":"Feature","name":"ShapeMeta","geometry":{"type":"LineString","coordinates":[[23.6123,46.76944],[23.61166,46.76941]]},"properties":{"name":"Bulevardul Nicolae Titulescu","highway":"residential","custom-speed":"50","maxspeed":"RO:urban","number-of-cars":"0","profile":"car","distance":"2113.274","time":"297.6471"}},{"type":"Feature","name":"ShapeMeta","geometry":{"type":"LineString","coordinates":[[23.61166,46.76941],[23.60995,46.76929],[23.6097,46.76928],[23.60956,46.76926]]},"properties":{"name":"Bulevardul Nicolae Titulescu","highway":"residential","custom-speed":"50","maxspeed":"RO:urban","number-of-cars":"0","profile":"car","distance":"2273.574","time":"309.1887"}},{"type":"Feature","name":"ShapeMeta","geometry":{"type":"LineString","coordinates":[[23.60956,46.76926],[23.60929,46.76935]]},"properties":{"name":"Bulevardul Nicolae Titulescu","highway":"residential","custom-speed":"50","maxspeed":"RO:urban","number-of-cars":"0","profile":"car","distance":"2296.774","time":"310.8591"}},{"type":"Feature","name":"ShapeMeta","geometry":{"type":"LineString","coordinates":[[23.60929,46.76935],[23.60924,46.76938],[23.60916,46.7694]]},"properties":{"name":"Bulevardul Nicolae Titulescu","highway":"residential","custom-speed":"50","maxspeed":"RO:urban","number-of-cars":"0","profile":"car","distance":"2308.274","time":"311.6871"}},{"type":"Feature","name":"ShapeMeta","geometry":{"type":"LineString","coordinates":[[23.60916,46.7694],[23.60911,46.76951],[23.6091,46.76962]]},"properties":{"name":"Strada Septimiu Albini","oneway":"yes","highway":"residential","profile":"car","distance":"2333.474","time":"314.1063"}},{"type":"Feature","name":"ShapeMeta","geometry":{"type":"LineString","coordinates":[[23.6091,46.76962],[23.60911,46.77026]]},"properties":{"name":"Strada Septimiu Albini","highway":"residential","profile":"car","distance":"2403.874","time":"320.8647"}},{"type":"Feature","name":"ShapeMeta","geometry":{"type":"LineString","coordinates":[[23.60911,46.77026],[23.60806,46.77019],[23.6075,46.7701]]},"properties":{"name":"Strada Minerilor","highway":"residential","profile":"car","distance":"2527.474","time":"332.7303"}},{"type":"Feature","name":"ShapeMeta","geometry":{"type":"LineString","coordinates":[[23.6075,46.7701],[23.60727,46.77004]]},"properties":{"name":"Strada Minerilor","highway":"residential","profile":"car","distance":"2546.574","time":"334.5639"}},{"type":"Feature","name":"ShapeMeta","geometry":{"type":"LineString","coordinates":[[23.60727,46.77004],[23.60563,46.76962]]},"properties":{"name":"Strada Minerilor","highway":"residential","profile":"car","distance":"2679.874","time":"347.3607"}},{"type":"Feature","name":"ShapeMeta","geometry":{"type":"LineString","coordinates":[[23.60563,46.76962],[23.60593,46.76892]]},"properties":{"name":"Strada Sﾄパﾄフorilor","highway":"residential","profile":"car","distance":"2761.174","time":"355.1655"}},{"type":"Feature","name":"ShapeMeta","geometry":{"type":"LineString","coordinates":[[23.60593,46.76892],[23.60476,46.76869]]},"properties":{"name":"Bulevardul Nicolae Titulescu","highway":"residential","custom-speed":"50","maxspeed":"RO:urban","number-of-cars":"0","profile":"car","distance":"2854.474","time":"361.8831"}},{"type":"Feature","name":"ShapeMeta","geometry":{"type":"LineString","coordinates":[[23.60476,46.76869],[23.60439,46.7686],[23.6036,46.76839],[23.60316,46.76827]]},"properties":{"name":"Bulevardul Nicolae Titulescu","highway":"residential","custom-speed":"50","maxspeed":"RO:urban","number-of-cars":"0","profile":"car","distance":"2984.374","time":"371.2359"}},{"type":"Feature","name":"ShapeMeta","geometry":{"type":"LineString","coordinates":[[23.60316,46.76827],[23.60284,46.76818]]},"properties":{"name":"Bulevardul Nicolae Titulescu","highway":"residential","custom-speed":"50","maxspeed":"RO:urban","number-of-cars":"0","profile":"car","distance":"3010.874","time":"373.1439"}},{"type":"Feature","name":"ShapeMeta","geometry":{"type":"LineString","coordinates":[[23.60284,46.76818],[23.60279,46.76817]]},"properties":{"name":"Bulevardul Nicolae Titulescu","highway":"residential","custom-speed":"50","maxspeed":"RO:urban","number-of-cars":"0","profile":"car","distance":"3014.974","time":"373.4391"}},{"type":"Feature","name":"ShapeMeta","geometry":{"type":"LineString","coordinates":[[23.60279,46.76817],[23.60263,46.76815],[23.60229,46.76805]]},"properties":{"name":"Bulevardul Nicolae Titulescu","highway":"residential","custom-speed":"50","maxspeed":"RO:urban","number-of-cars":"0","profile":"car","distance":"3054.774","time":"376.3047"}},{"type":"Feature","name":"ShapeMeta","geometry":{"type":"LineString","coordinates":[[23.60229,46.76805],[23.60142,46.76781],[23.60111,46.76773]]},"properties":{"name":"Bulevardul Nicolae Titulescu","highway":"residential","custom-speed":"50","maxspeed":"RO:urban","number-of-cars":"0","profile":"car","distance":"3151.874","time":"383.2959"}},{"type":"Feature","name":"ShapeMeta","geometry":{"type":"LineString","coordinates":[[23.60111,46.76773],[23.60096,46.76769]]},"properties":{"name":"Bulevardul Nicolae Titulescu","highway":"residential","custom-speed":"50","maxspeed":"RO:urban","number-of-cars":"0","profile":"car","distance":"3163.774","time":"384.1527"}},{"type":"Feature","name":"ShapeMeta","geometry":{"type":"LineString","coordinates":[[23.60096,46.76769],[23.60023,46.76751],[23.60008,46.7675]]},"properties":{"name":"Bulevardul Nicolae Titulescu","highway":"residential","maxspeed":"RO:urban","number-of-cars":"0","custom-speed":"1","profile":"car","distance":"3234.574","time":"639.0327"}},{"type":"Feature","name":"ShapeMeta","geometry":{"type":"LineString","coordinates":[[23.60008,46.7675],[23.59995,46.76754],[23.59993,46.76756]]},"properties":{"name":"Piaﾈ嫗 Timotei Cipariu","oneway":"yes","highway":"secondary","profile":"car","distance":"3247.425","time":"639.9139"}},{"type":"Feature","name":"Stop","Shape":"0","geometry":{"type":"Point","coordinates":[23.63103,46.76819]},"properties":{"distance":"0","time":"0"}},{"type":"Feature","name":"Stop","Shape":"108","geometry":{"type":"Point","coordinates":[23.59993,46.76755]},"properties":{"distance":"3247.425","time":"639.9139"}}]}