{"type":"FeatureCollection","features":[{"type":"Feature","name":"ShapeMeta","geometry":{"type":"LineString","coordinates":[[23.63093,46.76816],[23.63095,46.7681],[23.63116,46.76785]]},"properties":{"name":"Strada Alexandru Vaida Voevod","highway":"residential","custom-speed":"50","maxspeed":"RO:urban","number-of-cars":"0","profile":"car","distance":"38.12585","time":"2.745061"}},{"type":"Feature","name":"ShapeMeta","geometry":{"type":"LineString","coordinates":[[23.63116,46.76785],[23.63178,46.76649],[23.63207,46.76597]]},"properties":{"name":"Strada Alexandru Vaida Voevod","highway":"residential","custom-speed":"50","maxspeed":"RO:urban","number-of-cars":"0","profile":"car","distance":"258.8258","time":"18.63546"}},{"type":"Feature","name":"ShapeMeta","geometry":{"type":"LineString","coordinates":[[23.63207,46.76597],[23.63041,46.76543],[23.63032,46.76541],[23.63025,46.76543],[23.63013,46.76547]]},"properties":{"name":"Strada Octavian Fodor","highway":"residential","custom-speed":"50","maxspeed":"RO:urban","number-of-cars":"0","profile":"car","distance":"421.6258","time":"30.35706"}},{"type":"Feature","name":"ShapeMeta","geometry":{"type":"LineString","coordinates":[[23.63013,46.76547],[23.63021,46.76553]]},"properties":{"name":"Aleea Detunata","highway":"residential","custom-speed":"50","maxspeed":"RO:urban","number-of-cars":"0","profile":"car","distance":"430.6258","time":"31.00506"}},{"type":"Feature","name":"ShapeMeta","geometry":{"type":"LineString","coordinates":[[23.63021,46.76553],[23.63059,46.76566],[23.63071,46.76573],[23.63088,46.76587],[23.63097,46.76609],[23.63098,46.76648],[23.6309,46.76676],[23.63063,46.76717],[23.63032,46.76745],[23.62993,46.76767],[23.62965,46.76778]]},"properties":{"name":"Aleea Detunata","highway":"residential","custom-speed":"50","maxspeed":"RO:urban","number-of-cars":"0","profile":"car","distance":"748.1258","time":"53.86506"}},{"type":"Feature","name":"ShapeMeta","geometry":{"type":"LineString","coordinates":[[23.62965,46.76778],[23.62962,46.76809]]},"properties":{"name":"Aleea Detunata","highway":"residential","custom-speed":"50","maxspeed":"RO:urban","number-of-cars":"0","profile":"car","distance":"782.9258","time":"56.37066"}},{"type":"Feature","name":"ShapeMeta","geometry":{"type":"LineString","coordinates":[[23.62962,46.76809],[23.62935,46.76798]]},"properties":{"name":"Strada Unirii","highway":"residential","custom-speed":"50","maxspeed":"RO:urban","number-of-cars":"0","profile":"car","distance":"807.1258","time":"58.11306"}},{"type":"Feature","name":"ShapeMeta","geometry":{"type":"LineString","coordinates":[[23.62935,46.76798],[23.62916,46.76793],[23.62897,46.76791],[23.62889,46.76791]]},"properties":{"name":"Strada Unirii","highway":"residential","custom-speed":"50","maxspeed":"RO:urban","number-of-cars":"0","profile":"car","distance":"843.4258","time":"60.72666"}},{"type":"Feature","name":"ShapeMeta","geometry":{"type":"LineString","coordinates":[[23.62889,46.76791],[23.62864,46.76791],[23.62848,46.76791]]},"properties":{"name":"Strada Unirii","highway":"residential","custom-speed":"50","maxspeed":"RO:urban","number-of-cars":"0","profile":"car","distance":"874.2258","time":"62.94426"}},{"type":"Feature","name":"ShapeMeta","geometry":{"type":"LineString","coordinates":[[23.62848,46.76791],[23.62845,46.7679]]},"properties":{"name":"Strada Unirii","highway":"residential","custom-speed":"50","maxspeed":"RO:urban","number-of-cars":"0","profile":"car","distance":"876.9258","time":"63.13866"}},{"type":"Feature","name":"ShapeMeta","geometry":{"type":"LineString","coordinates":[[23.62845,46.7679],[23.62787,46.76788]]},"properties":{"name":"Strada Unirii","highway":"residential","custom-speed":"50","maxspeed":"RO:urban","number-of-cars":"0","profile":"car","distance":"920.9258","time":"66.30666"}},{"type":"Feature","name":"ShapeMeta","geometry":{"type":"LineString","coordinates":[[23.62787,46.76788],[23.6278,46.76788],[23.62664,46.76785],[23.62658,46.76785]]},"properties":{"name":"Strada Unirii","highway":"residential","custom-speed":"50","maxspeed":"RO:urban","number-of-cars":"0","profile":"car","distance":"1019.026","time":"73.36987"}},{"type":"Feature","name":"ShapeMeta","geometry":{"type":"LineString","coordinates":[[23.62658,46.76785],[23.62595,46.76783]]},"properties":{"name":"Strada Unirii","highway":"residential","custom-speed":"50","maxspeed":"RO:urban","number-of-cars":"0","profile":"car","distance":"1066.926","time":"76.81867"}},{"type":"Feature","name":"ShapeMeta","geometry":{"type":"LineString","coordinates":[[23.62595,46.76783],[23.62595,46.76793],[23.62595,46.76806]]},"properties":{"name":"Aleea Snagov","highway":"residential","custom-speed":"50","maxspeed":"RO:urban","number-of-cars":"0","profile":"car","distance":"1092.326","time":"78.64747"}},{"type":"Feature","name":"ShapeMeta","geometry":{"type":"LineString","coordinates":[[23.62595,46.76806],[23.62592,46.76908]]},"properties":{"name":"Aleea Snagov","highway":"residential","custom-speed":"50","maxspeed":"RO:urban","number-of-cars":"0","profile":"car","distance":"1205.526","time":"86.79787"}},{"type":"Feature","name":"ShapeMeta","geometry":{"type":"LineString","coordinates":[[23.62592,46.76908],[23.62591,46.76944]]},"properties":{"name":"Aleea Snagov","highway":"residential","custom-speed":"50","maxspeed":"RO:urban","number-of-cars":"0","profile":"car","distance":"1245.326","time":"89.66347"}},{"type":"Feature","name":"ShapeMeta","geometry":{"type":"LineString","coordinates":[[23.62591,46.76944],[23.62591,46.76948]]},"properties":{"name":"Aleea Snagov","highway":"residential","custom-speed":"50","maxspeed":"RO:urban","number-of-cars":"0","profile":"car","distance":"1249.926","time":"89.99467"}},{"type":"Feature","name":"ShapeMeta","geometry":{"type":"LineString","coordinates":[[23.62591,46.76948],[23.62597,46.76955],[23.6259,46.77005],[23.62589,46.77024]]},"properties":{"highway":"residential","custom-speed":"50","maxspeed":"RO:urban","number-of-cars":"0","profile":"car","distance":"1336.726","time":"96.24427"}},{"type":"Feature","name":"ShapeMeta","geometry":{"type":"LineString","coordinates":[[23.62589,46.77024],[23.62587,46.77024],[23.6257,46.77017],[23.62556,46.77011]]},"properties":{"name":"Aleea Herculane","highway":"residential","custom-speed":"50","maxspeed":"RO:urban","number-of-cars":"0","profile":"car","distance":"1366.226","time":"98.36827"}},{"type":"Feature","name":"ShapeMeta","geometry":{"type":"LineString","coordinates":[[23.62556,46.77011],[23.62548,46.77008],[23.62433,46.77011],[23.62414,46.77021],[23.62402,46.77026]]},"properties":{"name":"Aleea Herculane","highway":"residential","custom-speed":"50","maxspeed":"RO:urban","number-of-cars":"0","profile":"car","distance":"1489.426","time":"107.2387"}},{"type":"Feature","name":"ShapeMeta","geometry":{"type":"LineString","coordinates":[[23.62402,46.77026],[23.62411,46.771]]},"properties":{"name":"Aleea Herculane","highway":"residential","maxspeed":"20","profile":"car","distance":"1571.926","time":"127.0387"}},{"type":"Feature","name":"ShapeMeta","geometry":{"type":"LineString","coordinates":[[23.62411,46.771],[23.62494,46.77099]]},"properties":{"name":"Aleea Herculane","highway":"residential","maxspeed":"20","profile":"car","distance":"1635.226","time":"142.2307"}},{"type":"Feature","name":"ShapeMeta","geometry":{"type":"LineString","coordinates":[[23.62494,46.77099],[23.62504,46.77099],[23.62524,46.77105],[23.62561,46.77142]]},"properties":{"name":"Aleea Herculane","highway":"residential","maxspeed":"20","profile":"car","distance":"1709.126","time":"159.9667"}},{"type":"Feature","name":"ShapeMeta","geometry":{"type":"LineString","coordinates":[[23.62561,46.77142],[23.62541,46.77151],[23.62538,46.77152],[23.62531,46.77155]]},"properties":{"name":"Strada Alexandru Vaida Voevod","highway":"residential","custom-speed":"50","maxspeed":"RO:urban","number-of-cars":"0","profile":"car","distance":"1736.226","time":"161.9179"}},{"type":"Feature","name":"ShapeMeta","geometry":{"type":"LineString","coordinates":[[23.62531,46.77155],[23.62521,46.7716],[23.62504,46.77167],[23.62501,46.77169]]},"properties":{"name":"Strada Alexandru Vaida Voevod","highway":"residential","custom-speed":"50","maxspeed":"RO:urban","number-of-cars":"0","profile":"car","distance":"1763.826","time":"163.9051"}},{"type":"Feature","name":"ShapeMeta","geometry":{"type":"LineString","coordinates":[[23.62501,46.77169],[23.62498,46.7717]]},"properties":{"name":"Strada Alexandru Vaida Voevod","highway":"secondary","profile":"car","distance":"1766.326","time":"164.0765"}},{"type":"Feature","name":"ShapeMeta","geometry":{"type":"LineString","coordinates":[[23.62498,46.7717],[23.62495,46.77171],[23.62486,46.77176],[23.62476,46.7718]]},"properties":{"name":"Strada Alexandru Vaida Voevod","highway":"residential","custom-speed":"50","maxspeed":"RO:urban","number-of-cars":"0","profile":"car","distance":"1786.726","time":"165.5453"}},{"type":"Feature","name":"ShapeMeta","geometry":{"type":"LineString","coordinates":[[23.62476,46.7718],[23.62423,46.77203]]},"properties":{"name":"Strada Alexandru Vaida Voevod","highway":"residential","custom-speed":"50","maxspeed":"RO:urban","number-of-cars":"0","profile":"car","distance":"1834.426","time":"168.9797"}},{"type":"Feature","name":"ShapeMeta","geometry":{"type":"LineString","coordinates":[[23.62423,46.77203],[23.62404,46.77217]]},"properties":{"highway":"residential","custom-speed":"50","maxspeed":"RO:urban","number-of-cars":"0","profile":"car","distance":"1855.926","time":"170.5277"}},{"type":"Feature","name":"ShapeMeta","geometry":{"type":"LineString","coordinates":[[23.62404,46.77217],[23.62404,46.77221],[23.62398,46.77228],[23.62392,46.77229],[23.62386,46.77229]]},"properties":{"highway":"residential","custom-speed":"50","maxspeed":"RO:urban","number-of-cars":"0","profile":"car","distance":"1878.726","time":"172.1693"}},{"type":"Feature","name":"ShapeMeta","geometry":{"type":"LineString","coordinates":[[23.62386,46.77229],[23.62356,46.77237]]},"properties":{"highway":"residential","custom-speed":"50","maxspeed":"RO:urban","number-of-cars":"0","profile":"car","distance":"1902.726","time":"173.8973"}},{"type":"Feature","name":"ShapeMeta","geometry":{"type":"LineString","coordinates":[[23.62356,46.77237],[23.6234,46.77246],[23.62284,46.77275]]},"properties":{"name":"Strada Teodor Mihali","highway":"residential","custom-speed":"50","maxspeed":"RO:urban","number-of-cars":"0","profile":"car","distance":"1971.826","time":"178.8725"}},{"type":"Feature","name":"ShapeMeta","geometry":{"type":"LineString","coordinates":[[23.62284,46.77275],[23.62257,46.77291]]},"properties":{"name":"Strada Teodor Mihali","highway":"residential","custom-speed":"50","maxspeed":"RO:urban","number-of-cars":"0","profile":"car","distance":"1999.126","time":"180.8381"}},{"type":"Feature","name":"ShapeMeta","geometry":{"type":"LineString","coordinates":[[23.62257,46.77291],[23.62225,46.77267],[23.62194,46.7725]]},"properties":{"highway":"residential","custom-speed":"50","maxspeed":"RO:urban","number-of-cars":"0","profile":"car","distance":"2065.926","time":"185.6477"}},{"type":"Feature","name":"ShapeMeta","geometry":{"type":"LineString","coordinates":[[23.62194,46.7725],[23.6221,46.77227],[23.62212,46.77211],[23.62217,46.77198],[23.62234,46.77162]]},"properties":{"highway":"residential","custom-speed":"50","maxspeed":"RO:urban","number-of-cars":"0","profile":"car","distance":"2168.326","time":"193.0205"}},{"type":"Feature","name":"ShapeMeta","geometry":{"type":"LineString","coordinates":[[23.62234,46.77162],[23.62198,46.77151],[23.62101,46.77125],[23.62038,46.771],[23.61947,46.77042],[23.61923,46.7702]]},"properties":{"name":"Aleea Slănic","highway":"residential","custom-speed":"50","maxspeed":"RO:urban","number-of-cars":"0","profile":"car","distance":"2457.626","time":"213.8501"}},{"type":"Feature","name":"ShapeMeta","geometry":{"type":"LineString","coordinates":[[23.61923,46.7702],[23.6191,46.77004],[23.61902,46.76989],[23.61896,46.76976]]},"properties":{"name":"Aleea Slănic","highway":"residential","custom-speed":"50","maxspeed":"RO:urban","number-of-cars":"0","profile":"car","distance":"2511.626","time":"217.7381"}},{"type":"Feature","name":"ShapeMeta","geometry":{"type":"LineString","coordinates":[[23.61896,46.76976],[23.61884,46.76895]]},"properties":{"name":"Aleea Slănic","highway":"residential","custom-speed":"50","maxspeed":"RO:urban","number-of-cars":"0","profile":"car","distance":"2601.926","time":"224.2397"}},{"type":"Feature","name":"ShapeMeta","geometry":{"type":"LineString","coordinates":[[23.61884,46.76895],[23.6187,46.76889],[23.61862,46.76881]]},"properties":{"name":"Bulevardul Nicolae Titulescu","highway":"residential","custom-speed":"50","maxspeed":"RO:urban","number-of-cars":"0","profile":"car","distance":"2625.426","time":"225.9317"}},{"type":"Feature","name":"ShapeMeta","geometry":{"type":"LineString","coordinates":[[23.61862,46.76881],[23.61823,46.76886],[23.61765,46.76895]]},"properties":{"name":"Bulevardul Nicolae Titulescu","highway":"residential","custom-speed":"50","maxspeed":"RO:urban","number-of-cars":"0","profile":"car","distance":"2701.226","time":"231.3893"}},{"type":"Feature","name":"ShapeMeta","geometry":{"type":"LineString","coordinates":[[23.61765,46.76895],[23.61647,46.76908],[23.61626,46.7691]]},"properties":{"name":"Bulevardul Nicolae Titulescu","highway":"residential","custom-speed":"50","maxspeed":"RO:urban","number-of-cars":"0","profile":"car","distance":"2808.526","time":"239.1149"}},{"type":"Feature","name":"ShapeMeta","geometry":{"type":"LineString","coordinates":[[23.61626,46.7691],[23.61571,46.76916]]},"properties":{"name":"Bulevardul Nicolae Titulescu","highway":"residential","custom-speed":"50","maxspeed":"RO:urban","number-of-cars":"0","profile":"car","distance":"2850.826","time":"242.1605"}},{"type":"Feature","name":"ShapeMeta","geometry":{"type":"LineString","coordinates":[[23.61571,46.76916],[23.61572,46.76947]]},"properties":{"highway":"residential","custom-speed":"50","maxspeed":"RO:urban","number-of-cars":"0","profile":"car","distance":"2885.526","time":"244.6589"}},{"type":"Feature","name":"ShapeMeta","geometry":{"type":"LineString","coordinates":[[23.61572,46.76947],[23.61571,46.76966]]},"properties":{"highway":"residential","custom-speed":"50","maxspeed":"RO:urban","number-of-cars":"0","profile":"car","distance":"2905.826","time":"246.1205"}},{"type":"Feature","name":"ShapeMeta","geometry":{"type":"LineString","coordinates":[[23.61571,46.76966],[23.61571,46.7701]]},"properties":{"highway":"residential","custom-speed":"50","maxspeed":"RO:urban","number-of-cars":"0","profile":"car","distance":"2954.526","time":"249.6269"}},{"type":"Feature","name":"ShapeMeta","geometry":{"type":"LineString","coordinates":[[23.61571,46.7701],[23.61571,46.77031]]},"properties":{"highway":"residential","custom-speed":"50","maxspeed":"RO:urban","number-of-cars":"0","profile":"car","distance":"2978.626","time":"251.3621"}},{"type":"Feature","name":"ShapeMeta","geometry":{"type":"LineString","coordinates":[[23.61571,46.77031],[23.61438,46.77032]]},"properties":{"name":"Aleea Godeanu","highway":"residential","custom-speed":"50","maxspeed":"RO:urban","number-of-cars":"0","profile":"car","distance":"3079.926","time":"258.6557"}},{"type":"Feature","name":"ShapeMeta","geometry":{"type":"LineString","coordinates":[[23.61438,46.77032],[23.61299,46.77032]]},"properties":{"name":"Aleea Godeanu","highway":"residential","custom-speed":"50","maxspeed":"RO:urban","number-of-cars":"0","profile":"car","distance":"3185.626","time":"266.2661"}},{"type":"Feature","name":"ShapeMeta","geometry":{"type":"LineString","coordinates":[[23.61299,46.77032],[23.613,46.76997]]},"properties":{"name":"Strada Arieșului","highway":"residential","custom-speed":"50","maxspeed":"RO:urban","number-of-cars":"0","profile":"car","distance":"3224.626","time":"269.0741"}},{"type":"Feature","name":"ShapeMeta","geometry":{"type":"LineString","coordinates":[[23.613,46.76997],[23.61304,46.76944]]},"properties":{"name":"Strada Arieșului","highway":"residential","custom-speed":"50","maxspeed":"RO:urban","number-of-cars":"0","profile":"car","distance":"3283.226","time":"273.2933"}},{"type":"Feature","name":"ShapeMeta","geometry":{"type":"LineString","coordinates":[[23.61304,46.76944],[23.61288,46.76944],[23.6123,46.76944]]},"properties":{"name":"Bulevardul Nicolae Titulescu","highway":"residential","custom-speed":"50","maxspeed":"RO:urban","number-of-cars":"0","profile":"car","distance":"3339.526","time":"277.3469"}},{"type":"Feature","name":"ShapeMeta","geometry":{"type":"LineString","coordinates":[[23.6123,46.76944],[23.61166,46.76941]]},"properties":{"name":"Bulevardul Nicolae Titulescu","highway":"residential","custom-speed":"50","maxspeed":"RO:urban","number-of-cars":"0","profile":"car","distance":"3388.426","time":"280.8677"}},{"type":"Feature","name":"ShapeMeta","geometry":{"type":"LineString","coordinates":[[23.61166,46.76941],[23.60995,46.76929],[23.6097,46.76928],[23.60956,46.76926]]},"properties":{"name":"Bulevardul Nicolae Titulescu","highway":"residential","custom-speed":"50","maxspeed":"RO:urban","number-of-cars":"0","profile":"car","distance":"3548.726","time":"292.4093"}},{"type":"Feature","name":"ShapeMeta","geometry":{"type":"LineString","coordinates":[[23.60956,46.76926],[23.60929,46.76935]]},"properties":{"name":"Bulevardul Nicolae Titulescu","highway":"residential","custom-speed":"50","maxspeed":"RO:urban","number-of-cars":"0","profile":"car","distance":"3571.926","time":"294.0797"}},{"type":"Feature","name":"ShapeMeta","geometry":{"type":"LineString","coordinates":[[23.60929,46.76935],[23.60924,46.76938],[23.60916,46.7694]]},"properties":{"name":"Bulevardul Nicolae Titulescu","highway":"residential","custom-speed":"50","maxspeed":"RO:urban","number-of-cars":"0","profile":"car","distance":"3583.426","time":"294.9077"}},{"type":"Feature","name":"ShapeMeta","geometry":{"type":"LineString","coordinates":[[23.60916,46.7694],[23.6091,46.76941],[23.60898,46.76938],[23.60891,46.76934]]},"properties":{"name":"Bulevardul Nicolae Titulescu","highway":"residential","custom-speed":"50","maxspeed":"RO:urban","number-of-cars":"0","profile":"car","distance":"3604.326","time":"296.4125"}},{"type":"Feature","name":"ShapeMeta","geometry":{"type":"LineString","coordinates":[[23.60891,46.76934],[23.60887,46.76928],[23.60886,46.76922],[23.60888,46.76917],[23.60892,46.76913],[23.60898,46.76909]]},"properties":{"name":"Bulevardul Nicolae Titulescu","oneway":"yes","highway":"secondary","junction":"roundabout","profile":"car","distance":"3635.626","time":"298.5588"}},{"type":"Feature","name":"ShapeMeta","geometry":{"type":"LineString","coordinates":[[23.60898,46.76909],[23.609,46.76905],[23.60905,46.76898],[23.60909,46.76889]]},"properties":{"name":"Strada Septimiu Albini","oneway":"yes","highway":"residential","profile":"car","distance":"3658.926","time":"300.7956"}},{"type":"Feature","name":"ShapeMeta","geometry":{"type":"LineString","coordinates":[[23.60909,46.76889],[23.6091,46.76876]]},"properties":{"name":"Strada Septimiu Albini","highway":"residential","profile":"car","distance":"3673.726","time":"302.2164"}},{"type":"Feature","name":"ShapeMeta","geometry":{"type":"LineString","coordinates":[[23.6091,46.76876],[23.60909,46.7686]]},"properties":{"name":"Strada Septimiu Albini","highway":"residential","profile":"car","distance":"3691.526","time":"303.9252"}},{"type":"Feature","name":"ShapeMeta","geometry":{"type":"LineString","coordinates":[[23.60909,46.7686],[23.6091,46.76846],[23.60913,46.76826],[23.60921,46.76794]]},"properties":{"name":"Strada Septimiu Albini","highway":"residential","profile":"car","distance":"3765.526","time":"311.0292"}},{"type":"Feature","name":"ShapeMeta","geometry":{"type":"LineString","coordinates":[[23.60921,46.76794],[23.60835,46.76772]]},"properties":{"name":"Strada Mihai Veliciu","highway":"residential","custom-speed":"50","maxspeed":"RO:urban","number-of-cars":"0","profile":"car","distance":"3835.426","time":"316.062"}},{"type":"Feature","name":"ShapeMeta","geometry":{"type":"LineString","coordinates":[[23.60835,46.76772],[23.60782,46.7676]]},"properties":{"name":"Strada Mihai Veliciu","highway":"residential","custom-speed":"50","maxspeed":"RO:urban","number-of-cars":"0","profile":"car","distance":"3878.126","time":"319.1364"}},{"type":"Feature","name":"ShapeMeta","geometry":{"type":"LineString","coordinates":[[23.60782,46.7676],[23.6061,46.76722]]},"properties":{"name":"Strada Mihai Veliciu","highway":"residential","custom-speed":"50","maxspeed":"RO:urban","number-of-cars":"0","profile":"car","distance":"4015.426","time":"329.022"}},{"type":"Feature","name":"ShapeMeta","geometry":{"type":"LineString","coordinates":[[23.6061,46.76722],[23.6058,46.76715]]},"properties":{"name":"Strada Mihai Veliciu","highway":"residential","custom-speed":"50","maxspeed":"RO:urban","number-of-cars":"0","profile":"car","distance":"4039.826","time":"330.7788"}},{"type":"Feature","name":"ShapeMeta","geometry":{"type":"LineString","coordinates":[[23.6058,46.76715],[23.60478,46.7669],[23.60404,46.76674],[23.60341,46.7664]]},"properties":{"name":"Strada Mihai Veliciu","highway":"residential","custom-speed":"50","maxspeed":"RO:urban","number-of-cars":"0","profile":"car","distance":"4241.726","time":"345.3156"}},{"type":"Feature","name":"ShapeMeta","geometry":{"type":"LineString","coordinates":[[23.60341,46.7664],[23.60255,46.7669]]},"properties":{"name":"Strada Constantin Brâncuși","highway":"residential","custom-speed":"50","maxspeed":"RO:urban","number-of-cars":"0","profile":"car","distance":"4327.526","time":"351.4932"}},{"type":"Feature","name":"ShapeMeta","geometry":{"type":"LineString","coordinates":[[23.60255,46.7669],[23.60217,46.76673]]},"properties":{"name":"Strada Zrínyi Miklós","highway":"residential","profile":"car","distance":"4361.626","time":"354.7668"}},{"type":"Feature","name":"ShapeMeta","geometry":{"type":"LineString","coordinates":[[23.60217,46.76673],[23.60197,46.76665]]},"properties":{"name":"Strada Zrínyi Miklós","highway":"residential","profile":"car","distance":"4379.726","time":"356.5044"}},{"type":"Feature","name":"ShapeMeta","geometry":{"type":"LineString","coordinates":[[23.60197,46.76665],[23.60102,46.76628],[23.601,46.76627]]},"properties":{"name":"Strada Zrínyi Miklós","highway":"residential","profile":"car","distance":"4464.726","time":"364.6644"}},{"type":"Feature","name":"ShapeMeta","geometry":{"type":"LineString","coordinates":[[23.601,46.76627],[23.60098,46.76627],[23.60021,46.76597]]},"properties":{"name":"Strada Zrínyi Miklós","highway":"residential","profile":"car","distance":"4533.326","time":"371.25"}},{"type":"Feature","name":"ShapeMeta","geometry":{"type":"LineString","coordinates":[[23.60021,46.76597],[23.59928,46.76561]]},"properties":{"name":"Strada Zrínyi Miklós","highway":"residential","profile":"car","distance":"4614.726","time":"379.0644"}},{"type":"Feature","name":"ShapeMeta","geometry":{"type":"LineString","coordinates":[[23.59928,46.76561],[23.5989,46.76583]]},"properties":{"name":"Strada Brașov","highway":"residential","profile":"car","distance":"4653.526","time":"382.7892"}},{"type":"Feature","name":"ShapeMeta","geometry":{"type":"LineString","coordinates":[[23.5989,46.76583],[23.59883,46.76599],[23.5987,46.76617],[23.59822,46.76687]]},"properties":{"name":"Calea Turzii","highway":"primary","maxspeed":"60","profile":"car","distance":"4780.126","time":"392.9172"}},{"type":"Feature","name":"ShapeMeta","geometry":{"type":"LineString","coordinates":[[23.59822,46.76687],[23.59827,46.76699],[23.59831,46.76707],[23.5984,46.76715],[23.59852,46.7672],[23.59866,46.76723],[23.59881,46.76727]]},"properties":{"oneway":"yes","highway":"primary_link","profile":"car","distance":"4848.226","time":"396.5492"}},{"type":"Feature","name":"ShapeMeta","geometry":{"type":"LineString","coordinates":[[23.59881,46.76727],[23.59944,46.76739]]},"properties":{"name":"Strada Milton Lehrer","highway":"primary","oneway":"yes","profile":"car","distance":"4898.426","time":"399.2265"}},{"type":"Feature","name":"ShapeMeta","geometry":{"type":"LineString","coordinates":[[23.59944,46.76739],[23.5996,46.76748],[23.59968,46.76762],[23.59969,46.76768],[23.59968,46.76774]]},"properties":{"oneway":"yes","highway":"primary_link","profile":"car","distance":"4944.226","time":"401.6692"}},{"type":"Feature","name":"ShapeMeta","geometry":{"type":"LineString","coordinates":[[23.59968,46.76774],[23.59976,46.76766],[23.59993,46.76756]]},"properties":{"name":"Piața Timotei Cipariu","highway":"residential","maxspeed":"RO:urban","number-of-cars":"0","custom-speed":"1","profile":"car","distance":"4972.275","time":"502.6443"}},{"type":"Feature","name":"Stop","Shape":"0","geometry":{"type":"Point","coordinates":[23.63103,46.76819]},"properties":{"distance":"0","time":"0"}},{"type":"Feature","name":"Stop","Shape":"159","geometry":{"type":"Point","coordinates":[23.59993,46.76755]},"properties":{"distance":"4972.275","time":"502.6443"}}]}