{"type":"FeatureCollection","features":[{"type":"Feature","name":"ShapeMeta","geometry":{"type":"LineString","coordinates":[[23.63093,46.76816],[23.63095,46.7681],[23.63116,46.76785]]},"properties":{"name":"Strada Alexandru Vaida Voevod","highway":"residential","custom-speed":"50","maxspeed":"RO:urban","number-of-cars":"0","profile":"car","distance":"38.12585","time":"2.745061"}},{"type":"Feature","name":"ShapeMeta","geometry":{"type":"LineString","coordinates":[[23.63116,46.76785],[23.63165,46.76772],[23.63318,46.76743],[23.634,46.76732],[23.6342,46.76734]]},"properties":{"name":"Strada Soporului","highway":"residential","custom-speed":"50","maxspeed":"RO:urban","number-of-cars":"0","profile":"car","distance":"278.4258","time":"20.04666"}},{"type":"Feature","name":"ShapeMeta","geometry":{"type":"LineString","coordinates":[[23.6342,46.76734],[23.63436,46.76672],[23.63446,46.76616]]},"properties":{"name":"Strada Georg Friedrich Hegel","highway":"residential","custom-speed":"50","maxspeed":"RO:urban","number-of-cars":"0","profile":"car","distance":"410.9258","time":"29.58666"}},{"type":"Feature","name":"ShapeMeta","geometry":{"type":"LineString","coordinates":[[23.63446,46.76616],[23.6346,46.7653],[23.63465,46.76513],[23.63466,46.76497],[23.63461,46.76477],[23.63453,46.76468]]},"properties":{"name":"Strada Georg Friedrich Hegal","highway":"residential","custom-speed":"50","maxspeed":"RO:urban","number-of-cars":"0","profile":"car","distance":"578.8258","time":"41.67546"}},{"type":"Feature","name":"ShapeMeta","geometry":{"type":"LineString","coordinates":[[23.63453,46.76468],[23.63438,46.76476]]},"properties":{"bridge":"yes","highway":"residential","custom-speed":"50","maxspeed":"RO:urban","number-of-cars":"0","profile":"car","distance":"593.1258","time":"42.70506"}},{"type":"Feature","name":"ShapeMeta","geometry":{"type":"LineString","coordinates":[[23.63438,46.76476],[23.63396,46.765]]},"properties":{"name":"Strada Alexandru Vaida Voevod","highway":"residential","custom-speed":"50","maxspeed":"RO:urban","number-of-cars":"0","profile":"car","distance":"634.9258","time":"45.71466"}},{"type":"Feature","name":"ShapeMeta","geometry":{"type":"LineString","coordinates":[[23.63396,46.765],[23.63353,46.76521]]},"properties":{"name":"Strada Alexandru Vaida Voevod","highway":"residential","custom-speed":"50","maxspeed":"RO:urban","number-of-cars":"0","profile":"car","distance":"675.2258","time":"48.61626"}},{"type":"Feature","name":"ShapeMeta","geometry":{"type":"LineString","coordinates":[[23.63353,46.76521],[23.63315,46.76541]]},"properties":{"name":"Strada Alexandru Vaida Voevod","highway":"residential","custom-speed":"50","maxspeed":"RO:urban","number-of-cars":"0","profile":"car","distance":"711.7258","time":"51.24426"}},{"type":"Feature","name":"ShapeMeta","geometry":{"type":"LineString","coordinates":[[23.63315,46.76541],[23.63268,46.76565]]},"properties":{"name":"Strada Alexandru Vaida Voevod","highway":"residential","custom-speed":"50","maxspeed":"RO:urban","number-of-cars":"0","profile":"car","distance":"755.7258","time":"54.41226"}},{"type":"Feature","name":"ShapeMeta","geometry":{"type":"LineString","coordinates":[[23.63268,46.76565],[23.63207,46.76597]]},"properties":{"name":"Strada Alexandru Vaida Voevod","highway":"residential","custom-speed":"50","maxspeed":"RO:urban","number-of-cars":"0","profile":"car","distance":"814.7258","time":"58.66026"}},{"type":"Feature","name":"ShapeMeta","geometry":{"type":"LineString","coordinates":[[23.63207,46.76597],[23.63041,46.76543],[23.63032,46.76541],[23.63025,46.76543],[23.63013,46.76547]]},"properties":{"name":"Strada Octavian Fodor","highway":"residential","custom-speed":"50","maxspeed":"RO:urban","number-of-cars":"0","profile":"car","distance":"977.5258","time":"70.38186"}},{"type":"Feature","name":"ShapeMeta","geometry":{"type":"LineString","coordinates":[[23.63013,46.76547],[23.63021,46.76553]]},"properties":{"name":"Aleea Detunata","highway":"residential","custom-speed":"50","maxspeed":"RO:urban","number-of-cars":"0","profile":"car","distance":"986.5258","time":"71.02986"}},{"type":"Feature","name":"ShapeMeta","geometry":{"type":"LineString","coordinates":[[23.63021,46.76553],[23.63059,46.76566],[23.63071,46.76573],[23.63088,46.76587],[23.63097,46.76609],[23.63098,46.76648],[23.6309,46.76676],[23.63063,46.76717],[23.63032,46.76745],[23.62993,46.76767],[23.62965,46.76778]]},"properties":{"name":"Aleea Detunata","highway":"residential","custom-speed":"50","maxspeed":"RO:urban","number-of-cars":"0","profile":"car","distance":"1304.026","time":"93.88986"}},{"type":"Feature","name":"ShapeMeta","geometry":{"type":"LineString","coordinates":[[23.62965,46.76778],[23.62962,46.76809]]},"properties":{"name":"Aleea Detunata","highway":"residential","custom-speed":"50","maxspeed":"RO:urban","number-of-cars":"0","profile":"car","distance":"1338.826","time":"96.39546"}},{"type":"Feature","name":"ShapeMeta","geometry":{"type":"LineString","coordinates":[[23.62962,46.76809],[23.6298,46.76824]]},"properties":{"name":"Strada Unirii","highway":"residential","custom-speed":"50","maxspeed":"RO:urban","number-of-cars":"0","profile":"car","distance":"1359.626","time":"97.89306"}},{"type":"Feature","name":"ShapeMeta","geometry":{"type":"LineString","coordinates":[[23.6298,46.76824],[23.63009,46.76839]]},"properties":{"name":"Strada Unirii","oneway":"yes","highway":"secondary","profile":"car","distance":"1387.726","time":"99.81992"}},{"type":"Feature","name":"ShapeMeta","geometry":{"type":"LineString","coordinates":[[23.63009,46.76839],[23.63017,46.76839],[23.6303,46.76845],[23.63033,46.7685]]},"properties":{"name":"Strada Unirii","oneway":"yes","highway":"secondary","junction":"roundabout","profile":"car","distance":"1411.826","time":"101.4725"}},{"type":"Feature","name":"ShapeMeta","geometry":{"type":"LineString","coordinates":[[23.63033,46.7685],[23.63033,46.76855],[23.63029,46.76861]]},"properties":{"name":"Strada Unirii","oneway":"yes","highway":"secondary","junction":"roundabout","profile":"car","distance":"1424.126","time":"102.3159"}},{"type":"Feature","name":"ShapeMeta","geometry":{"type":"LineString","coordinates":[[23.63029,46.76861],[23.63026,46.76863]]},"properties":{"name":"Strada Unirii","highway":"residential","custom-speed":"50","maxspeed":"RO:urban","number-of-cars":"0","profile":"car","distance":"1427.226","time":"102.5391"}},{"type":"Feature","name":"ShapeMeta","geometry":{"type":"LineString","coordinates":[[23.63026,46.76863],[23.63024,46.76864],[23.63018,46.76866],[23.6301,46.76866]]},"properties":{"name":"Strada Unirii","highway":"residential","custom-speed":"50","maxspeed":"RO:urban","number-of-cars":"0","profile":"car","distance":"1440.726","time":"103.5111"}},{"type":"Feature","name":"ShapeMeta","geometry":{"type":"LineString","coordinates":[[23.6301,46.76866],[23.63007,46.76865]]},"properties":{"name":"Strada Unirii","highway":"residential","custom-speed":"50","maxspeed":"RO:urban","number-of-cars":"0","profile":"car","distance":"1443.326","time":"103.6983"}},{"type":"Feature","name":"ShapeMeta","geometry":{"type":"LineString","coordinates":[[23.63007,46.76865],[23.62981,46.7688]]},"properties":{"name":"Strada Unirii","highway":"residential","custom-speed":"50","maxspeed":"RO:urban","number-of-cars":"0","profile":"car","distance":"1469.226","time":"105.5631"}},{"type":"Feature","name":"ShapeMeta","geometry":{"type":"LineString","coordinates":[[23.62981,46.7688],[23.62969,46.76889]]},"properties":{"name":"Strada Alexandru Vaida Voevod","highway":"residential","custom-speed":"50","maxspeed":"RO:urban","number-of-cars":"0","profile":"car","distance":"1482.526","time":"106.5207"}},{"type":"Feature","name":"ShapeMeta","geometry":{"type":"LineString","coordinates":[[23.62969,46.76889],[23.62926,46.7692]]},"properties":{"name":"Strada Alexandru Vaida Voevod","highway":"residential","custom-speed":"50","maxspeed":"RO:urban","number-of-cars":"0","profile":"car","distance":"1529.626","time":"109.9119"}},{"type":"Feature","name":"ShapeMeta","geometry":{"type":"LineString","coordinates":[[23.62926,46.7692],[23.6292,46.76924]]},"properties":{"name":"Strada Alexandru Vaida Voevod","highway":"residential","custom-speed":"50","maxspeed":"RO:urban","number-of-cars":"0","profile":"car","distance":"1535.826","time":"110.3583"}},{"type":"Feature","name":"ShapeMeta","geometry":{"type":"LineString","coordinates":[[23.6292,46.76924],[23.62876,46.76954],[23.62866,46.76961]]},"properties":{"name":"Strada Alexandru Vaida Voevod","highway":"residential","custom-speed":"50","maxspeed":"RO:urban","number-of-cars":"0","profile":"car","distance":"1594.426","time":"114.5775"}},{"type":"Feature","name":"ShapeMeta","geometry":{"type":"LineString","coordinates":[[23.62866,46.76961],[23.62863,46.76963]]},"properties":{"name":"Strada Alexandru Vaida Voevod","highway":"residential","custom-speed":"50","maxspeed":"RO:urban","number-of-cars":"0","profile":"car","distance":"1597.726","time":"114.8151"}},{"type":"Feature","name":"ShapeMeta","geometry":{"type":"LineString","coordinates":[[23.62863,46.76963],[23.62821,46.76992],[23.62814,46.76997]]},"properties":{"name":"Strada Alexandru Vaida Voevod","highway":"residential","maxspeed":"RO:urban","number-of-cars":"0","custom-speed":"1","profile":"car","distance":"1650.526","time":"304.8951"}},{"type":"Feature","name":"ShapeMeta","geometry":{"type":"LineString","coordinates":[[23.62814,46.76997],[23.62802,46.77005],[23.62792,46.77012]]},"properties":{"name":"Strada Alexandru Vaida Voevod","highway":"residential","custom-speed":"50","maxspeed":"RO:urban","number-of-cars":"0","profile":"car","distance":"1673.726","time":"306.5655"}},{"type":"Feature","name":"ShapeMeta","geometry":{"type":"LineString","coordinates":[[23.62792,46.77012],[23.62773,46.77024]]},"properties":{"name":"Strada Alexandru Vaida Voevod","highway":"residential","custom-speed":"50","maxspeed":"RO:urban","number-of-cars":"0","profile":"car","distance":"1693.526","time":"307.9911"}},{"type":"Feature","name":"ShapeMeta","geometry":{"type":"LineString","coordinates":[[23.62773,46.77024],[23.6275,46.7702],[23.62711,46.77015],[23.62689,46.77015],[23.62665,46.77026],[23.62655,46.77028],[23.62636,46.77028],[23.62627,46.77028]]},"properties":{"name":"Aleea Herculane","highway":"residential","custom-speed":"50","maxspeed":"RO:urban","number-of-cars":"0","profile":"car","distance":"1809.726","time":"316.3575"}},{"type":"Feature","name":"ShapeMeta","geometry":{"type":"LineString","coordinates":[[23.62627,46.77028],[23.62603,46.77028],[23.62589,46.77024]]},"properties":{"name":"Aleea Herculane","highway":"residential","custom-speed":"50","maxspeed":"RO:urban","number-of-cars":"0","profile":"car","distance":"1838.926","time":"318.4599"}},{"type":"Feature","name":"ShapeMeta","geometry":{"type":"LineString","coordinates":[[23.62589,46.77024],[23.6259,46.77005],[23.62597,46.76955],[23.62591,46.76948]]},"properties":{"highway":"residential","custom-speed":"50","maxspeed":"RO:urban","number-of-cars":"0","profile":"car","distance":"1925.726","time":"324.7095"}},{"type":"Feature","name":"ShapeMeta","geometry":{"type":"LineString","coordinates":[[23.62591,46.76948],[23.62591,46.76944]]},"properties":{"name":"Aleea Snagov","highway":"residential","custom-speed":"50","maxspeed":"RO:urban","number-of-cars":"0","profile":"car","distance":"1930.326","time":"325.0407"}},{"type":"Feature","name":"ShapeMeta","geometry":{"type":"LineString","coordinates":[[23.62591,46.76944],[23.62592,46.76908]]},"properties":{"name":"Aleea Snagov","highway":"residential","custom-speed":"50","maxspeed":"RO:urban","number-of-cars":"0","profile":"car","distance":"1970.126","time":"327.9063"}},{"type":"Feature","name":"ShapeMeta","geometry":{"type":"LineString","coordinates":[[23.62592,46.76908],[23.62542,46.76907]]},"properties":{"highway":"service","profile":"car","distance":"2008.126","time":"333.9863"}},{"type":"Feature","name":"ShapeMeta","geometry":{"type":"LineString","coordinates":[[23.62542,46.76907],[23.62543,46.76823]]},"properties":{"highway":"service","profile":"car","distance":"2101.826","time":"348.9783"}},{"type":"Feature","name":"ShapeMeta","geometry":{"type":"LineString","coordinates":[[23.62543,46.76823],[23.62535,46.76805]]},"properties":{"highway":"service","profile":"car","distance":"2122.726","time":"352.3223"}},{"type":"Feature","name":"ShapeMeta","geometry":{"type":"LineString","coordinates":[[23.62535,46.76805],[23.62579,46.76805],[23.62595,46.76806]]},"properties":{"name":"Aleea Snagov","highway":"residential","profile":"car","distance":"2168.426","time":"356.7095"}},{"type":"Feature","name":"ShapeMeta","geometry":{"type":"LineString","coordinates":[[23.62595,46.76806],[23.62595,46.76793],[23.62595,46.76783]]},"properties":{"name":"Aleea Snagov","highway":"residential","custom-speed":"50","maxspeed":"RO:urban","number-of-cars":"0","profile":"car","distance":"2193.826","time":"358.5383"}},{"type":"Feature","name":"ShapeMeta","geometry":{"type":"LineString","coordinates":[[23.62595,46.76783],[23.62551,46.76782],[23.62465,46.76789]]},"properties":{"name":"Strada Unirii","highway":"residential","custom-speed":"50","maxspeed":"RO:urban","number-of-cars":"0","profile":"car","distance":"2293.726","time":"365.7311"}},{"type":"Feature","name":"ShapeMeta","geometry":{"type":"LineString","coordinates":[[23.62465,46.76789],[23.62454,46.76772]]},"properties":{"name":"Aleea Bizușa","highway":"residential","custom-speed":"50","maxspeed":"RO:urban","number-of-cars":"0","profile":"car","distance":"2313.626","time":"367.1639"}},{"type":"Feature","name":"ShapeMeta","geometry":{"type":"LineString","coordinates":[[23.62454,46.76772],[23.62403,46.7677]]},"properties":{"name":"Aleea Bizușa","highway":"residential","custom-speed":"50","maxspeed":"RO:urban","number-of-cars":"0","profile":"car","distance":"2353.026","time":"370.0007"}},{"type":"Feature","name":"ShapeMeta","geometry":{"type":"LineString","coordinates":[[23.62403,46.7677],[23.6238,46.76769],[23.62354,46.76769],[23.62331,46.76767]]},"properties":{"name":"Aleea Bizușa","highway":"residential","custom-speed":"50","maxspeed":"RO:urban","number-of-cars":"0","profile":"car","distance":"2407.926","time":"373.9535"}},{"type":"Feature","name":"ShapeMeta","geometry":{"type":"LineString","coordinates":[[23.62331,46.76767],[23.62297,46.76767],[23.62243,46.76766]]},"properties":{"name":"Aleea Bizușa","highway":"residential","custom-speed":"50","maxspeed":"RO:urban","number-of-cars":"0","profile":"car","distance":"2474.726","time":"378.7631"}},{"type":"Feature","name":"ShapeMeta","geometry":{"type":"LineString","coordinates":[[23.62243,46.76766],[23.62214,46.76765]]},"properties":{"name":"Aleea Bizușa","highway":"residential","custom-speed":"50","maxspeed":"RO:urban","number-of-cars":"0","profile":"car","distance":"2496.526","time":"380.3327"}},{"type":"Feature","name":"ShapeMeta","geometry":{"type":"LineString","coordinates":[[23.62214,46.76765],[23.62188,46.76765],[23.62179,46.76765],[23.62168,46.76765]]},"properties":{"name":"Aleea Bizușa","highway":"residential","custom-speed":"50","maxspeed":"RO:urban","number-of-cars":"0","profile":"car","distance":"2531.626","time":"382.8599"}},{"type":"Feature","name":"ShapeMeta","geometry":{"type":"LineString","coordinates":[[23.62168,46.76765],[23.62142,46.76765]]},"properties":{"name":"Aleea Bizușa","highway":"residential","custom-speed":"50","maxspeed":"RO:urban","number-of-cars":"0","profile":"car","distance":"2551.326","time":"384.2783"}},{"type":"Feature","name":"ShapeMeta","geometry":{"type":"LineString","coordinates":[[23.62142,46.76765],[23.62093,46.76765]]},"properties":{"name":"Aleea Bizușa","highway":"residential","custom-speed":"50","maxspeed":"RO:urban","number-of-cars":"0","profile":"car","distance":"2588.626","time":"386.9639"}},{"type":"Feature","name":"ShapeMeta","geometry":{"type":"LineString","coordinates":[[23.62093,46.76765],[23.62062,46.76765]]},"properties":{"name":"Aleea Bizușa","highway":"residential","custom-speed":"50","maxspeed":"RO:urban","number-of-cars":"0","profile":"car","distance":"2612.426","time":"388.6775"}},{"type":"Feature","name":"ShapeMeta","geometry":{"type":"LineString","coordinates":[[23.62062,46.76765],[23.62031,46.76762]]},"properties":{"name":"Aleea Bizușa","highway":"residential","custom-speed":"50","maxspeed":"RO:urban","number-of-cars":"0","profile":"car","distance":"2636.326","time":"390.3983"}},{"type":"Feature","name":"ShapeMeta","geometry":{"type":"LineString","coordinates":[[23.62031,46.76762],[23.61922,46.76751]]},"properties":{"name":"Aleea Bizușa","highway":"residential","custom-speed":"50","maxspeed":"RO:urban","number-of-cars":"0","profile":"car","distance":"2720.026","time":"396.4247"}},{"type":"Feature","name":"ShapeMeta","geometry":{"type":"LineString","coordinates":[[23.61922,46.76751],[23.61938,46.76716]]},"properties":{"name":"Strada Liviu Rebreanu","highway":"residential","custom-speed":"50","maxspeed":"RO:urban","number-of-cars":"0","profile":"car","distance":"2761.326","time":"399.3983"}},{"type":"Feature","name":"ShapeMeta","geometry":{"type":"LineString","coordinates":[[23.61938,46.76716],[23.6193,46.76714],[23.61844,46.76699]]},"properties":{"name":"Strada Tache Ionescu","highway":"residential","custom-speed":"50","maxspeed":"RO:urban","number-of-cars":"0","profile":"car","distance":"2835.326","time":"404.7263"}},{"type":"Feature","name":"ShapeMeta","geometry":{"type":"LineString","coordinates":[[23.61844,46.76699],[23.61781,46.7669]]},"properties":{"name":"Strada Tache Ionescu","highway":"residential","custom-speed":"50","maxspeed":"RO:urban","number-of-cars":"0","profile":"car","distance":"2884.726","time":"408.2831"}},{"type":"Feature","name":"ShapeMeta","geometry":{"type":"LineString","coordinates":[[23.61781,46.7669],[23.61775,46.76689]]},"properties":{"name":"Strada Tache Ionescu","highway":"residential","maxspeed":"RO:urban","number-of-cars":"0","custom-speed":"1","profile":"car","distance":"2889.326","time":"424.8431"}},{"type":"Feature","name":"ShapeMeta","geometry":{"type":"LineString","coordinates":[[23.61775,46.76689],[23.61759,46.76733]]},"properties":{"name":"Strada Iugoslaviei","highway":"residential","custom-speed":"50","maxspeed":"RO:urban","number-of-cars":"0","profile":"car","distance":"2939.926","time":"428.4863"}},{"type":"Feature","name":"ShapeMeta","geometry":{"type":"LineString","coordinates":[[23.61759,46.76733],[23.6174,46.76786]]},"properties":{"name":"Strada Iugoslaviei","highway":"residential","custom-speed":"50","maxspeed":"RO:urban","number-of-cars":"0","profile":"car","distance":"3000.526","time":"432.8495"}},{"type":"Feature","name":"ShapeMeta","geometry":{"type":"LineString","coordinates":[[23.6174,46.76786],[23.61735,46.76806]]},"properties":{"name":"Strada Iugoslaviei","highway":"residential","custom-speed":"50","maxspeed":"RO:urban","number-of-cars":"0","profile":"car","distance":"3022.426","time":"434.4263"}},{"type":"Feature","name":"ShapeMeta","geometry":{"type":"LineString","coordinates":[[23.61735,46.76806],[23.61729,46.76824],[23.61719,46.76834],[23.6167,46.76841],[23.61647,46.76844]]},"properties":{"name":"Strada Iugoslaviei","highway":"residential","custom-speed":"50","maxspeed":"RO:urban","number-of-cars":"0","profile":"car","distance":"3112.826","time":"440.9351"}},{"type":"Feature","name":"ShapeMeta","geometry":{"type":"LineString","coordinates":[[23.61647,46.76844],[23.61619,46.76848],[23.6154,46.76858],[23.61429,46.76859],[23.61322,46.76842],[23.61309,46.7684]]},"properties":{"name":"Strada Iugoslaviei","highway":"residential","custom-speed":"50","maxspeed":"RO:urban","number-of-cars":"0","profile":"car","distance":"3374.026","time":"459.7415"}},{"type":"Feature","name":"ShapeMeta","geometry":{"type":"LineString","coordinates":[[23.61309,46.7684],[23.61296,46.76838],[23.60931,46.7677]]},"properties":{"name":"Strada Iugoslaviei","highway":"residential","custom-speed":"50","maxspeed":"RO:urban","number-of-cars":"0","profile":"car","distance":"3672.326","time":"481.2191"}},{"type":"Feature","name":"ShapeMeta","geometry":{"type":"LineString","coordinates":[[23.60931,46.7677],[23.60921,46.76794]]},"properties":{"name":"Strada Septimiu Albini","highway":"residential","custom-speed":"50","maxspeed":"RO:urban","number-of-cars":"0","profile":"car","distance":"3700.026","time":"483.2135"}},{"type":"Feature","name":"ShapeMeta","geometry":{"type":"LineString","coordinates":[[23.60921,46.76794],[23.60835,46.76772]]},"properties":{"name":"Strada Mihai Veliciu","highway":"residential","custom-speed":"50","maxspeed":"RO:urban","number-of-cars":"0","profile":"car","distance":"3769.926","time":"488.2463"}},{"type":"Feature","name":"ShapeMeta","geometry":{"type":"LineString","coordinates":[[23.60835,46.76772],[23.60782,46.7676]]},"properties":{"name":"Strada Mihai Veliciu","highway":"residential","custom-speed":"50","maxspeed":"RO:urban","number-of-cars":"0","profile":"car","distance":"3812.626","time":"491.3207"}},{"type":"Feature","name":"ShapeMeta","geometry":{"type":"LineString","coordinates":[[23.60782,46.7676],[23.6061,46.76722]]},"properties":{"name":"Strada Mihai Veliciu","highway":"residential","custom-speed":"50","maxspeed":"RO:urban","number-of-cars":"0","profile":"car","distance":"3949.926","time":"501.2063"}},{"type":"Feature","name":"ShapeMeta","geometry":{"type":"LineString","coordinates":[[23.6061,46.76722],[23.6058,46.76715]]},"properties":{"name":"Strada Mihai Veliciu","highway":"residential","custom-speed":"50","maxspeed":"RO:urban","number-of-cars":"0","profile":"car","distance":"3974.326","time":"502.9631"}},{"type":"Feature","name":"ShapeMeta","geometry":{"type":"LineString","coordinates":[[23.6058,46.76715],[23.60478,46.7669],[23.60404,46.76674],[23.60341,46.7664]]},"properties":{"name":"Strada Mihai Veliciu","highway":"residential","custom-speed":"50","maxspeed":"RO:urban","number-of-cars":"0","profile":"car","distance":"4176.226","time":"517.4999"}},{"type":"Feature","name":"ShapeMeta","geometry":{"type":"LineString","coordinates":[[23.60341,46.7664],[23.60255,46.7669]]},"properties":{"name":"Strada Constantin Brâncuși","highway":"residential","custom-speed":"50","maxspeed":"RO:urban","number-of-cars":"0","profile":"car","distance":"4262.026","time":"523.6775"}},{"type":"Feature","name":"ShapeMeta","geometry":{"type":"LineString","coordinates":[[23.60255,46.7669],[23.60244,46.76696],[23.60229,46.76704]]},"properties":{"name":"Strada Constantin Brâncuși","highway":"residential","custom-speed":"50","maxspeed":"RO:urban","number-of-cars":"0","profile":"car","distance":"4287.226","time":"525.4919"}},{"type":"Feature","name":"ShapeMeta","geometry":{"type":"LineString","coordinates":[[23.60229,46.76704],[23.6017,46.76738]]},"properties":{"name":"Strada Constantin Brâncuși","highway":"residential","custom-speed":"50","maxspeed":"RO:urban","number-of-cars":"0","profile":"car","distance":"4345.826","time":"529.7111"}},{"type":"Feature","name":"ShapeMeta","geometry":{"type":"LineString","coordinates":[[23.6017,46.76738],[23.60155,46.76747]]},"properties":{"name":"Strada Constantin Brâncuși","highway":"residential","custom-speed":"50","maxspeed":"RO:urban","number-of-cars":"0","profile":"car","distance":"4361.426","time":"530.8344"}},{"type":"Feature","name":"ShapeMeta","geometry":{"type":"LineString","coordinates":[[23.60155,46.76747],[23.60147,46.76751]]},"properties":{"name":"Strada Constantin Brâncuși","highway":"residential","custom-speed":"50","maxspeed":"RO:urban","number-of-cars":"0","profile":"car","distance":"4368.526","time":"531.3456"}},{"type":"Feature","name":"ShapeMeta","geometry":{"type":"LineString","coordinates":[[23.60147,46.76751],[23.60118,46.76768]]},"properties":{"name":"Strada Constantin Brâncuși","highway":"residential","custom-speed":"50","maxspeed":"RO:urban","number-of-cars":"0","profile":"car","distance":"4397.426","time":"533.4264"}},{"type":"Feature","name":"ShapeMeta","geometry":{"type":"LineString","coordinates":[[23.60118,46.76768],[23.60111,46.76773]]},"properties":{"name":"Strada Constantin Brâncuși","highway":"residential","custom-speed":"50","maxspeed":"RO:urban","number-of-cars":"0","profile":"car","distance":"4405.426","time":"534.0024"}},{"type":"Feature","name":"ShapeMeta","geometry":{"type":"LineString","coordinates":[[23.60111,46.76773],[23.60096,46.76769]]},"properties":{"name":"Bulevardul Nicolae Titulescu","highway":"residential","custom-speed":"50","maxspeed":"RO:urban","number-of-cars":"0","profile":"car","distance":"4417.326","time":"534.8592"}},{"type":"Feature","name":"ShapeMeta","geometry":{"type":"LineString","coordinates":[[23.60096,46.76769],[23.60023,46.76751],[23.60008,46.7675]]},"properties":{"name":"Bulevardul Nicolae Titulescu","highway":"residential","custom-speed":"50","maxspeed":"RO:urban","number-of-cars":"0","profile":"car","distance":"4488.126","time":"539.9568"}},{"type":"Feature","name":"ShapeMeta","geometry":{"type":"LineString","coordinates":[[23.60008,46.7675],[23.59995,46.76754],[23.59993,46.76756]]},"properties":{"name":"Piața Timotei Cipariu","highway":"residential","maxspeed":"RO:urban","number-of-cars":"0","custom-speed":"1","profile":"car","distance":"4500.978","time":"586.2216"}},{"type":"Feature","name":"Stop","Shape":"0","geometry":{"type":"Point","coordinates":[23.63103,46.76819]},"properties":{"distance":"0","time":"0"}},{"type":"Feature","name":"Stop","Shape":"138","geometry":{"type":"Point","coordinates":[23.59993,46.76755]},"properties":{"distance":"4500.978","time":"586.2216"}}]}