{"type":"FeatureCollection","features":[{"type":"Feature","name":"ShapeMeta","geometry":{"type":"LineString","coordinates":[[23.63093,46.76816],[23.63095,46.7681],[23.63116,46.76785]]},"properties":{"name":"Strada Alexandru Vaida Voevod","highway":"residential","custom-speed":"50","maxspeed":"RO:urban","number-of-cars":"0","profile":"car","distance":"38.12585","time":"2.745061"}},{"type":"Feature","name":"ShapeMeta","geometry":{"type":"LineString","coordinates":[[23.63116,46.76785],[23.63178,46.76649],[23.63207,46.76597]]},"properties":{"name":"Strada Alexandru Vaida Voevod","highway":"residential","custom-speed":"50","maxspeed":"RO:urban","number-of-cars":"0","profile":"car","distance":"258.8258","time":"18.63546"}},{"type":"Feature","name":"ShapeMeta","geometry":{"type":"LineString","coordinates":[[23.63207,46.76597],[23.63041,46.76543],[23.63032,46.76541],[23.63025,46.76543],[23.63013,46.76547]]},"properties":{"name":"Strada Octavian Fodor","highway":"residential","custom-speed":"50","maxspeed":"RO:urban","number-of-cars":"0","profile":"car","distance":"421.6258","time":"30.35706"}},{"type":"Feature","name":"ShapeMeta","geometry":{"type":"LineString","coordinates":[[23.63013,46.76547],[23.63021,46.76553]]},"properties":{"name":"Aleea Detunata","highway":"residential","custom-speed":"50","maxspeed":"RO:urban","number-of-cars":"0","profile":"car","distance":"430.6258","time":"31.00506"}},{"type":"Feature","name":"ShapeMeta","geometry":{"type":"LineString","coordinates":[[23.63021,46.76553],[23.63059,46.76566],[23.63071,46.76573],[23.63088,46.76587],[23.63097,46.76609],[23.63098,46.76648],[23.6309,46.76676],[23.63063,46.76717],[23.63032,46.76745],[23.62993,46.76767],[23.62965,46.76778]]},"properties":{"name":"Aleea Detunata","highway":"residential","custom-speed":"50","maxspeed":"RO:urban","number-of-cars":"0","profile":"car","distance":"748.1258","time":"53.86506"}},{"type":"Feature","name":"ShapeMeta","geometry":{"type":"LineString","coordinates":[[23.62965,46.76778],[23.62962,46.76809]]},"properties":{"name":"Aleea Detunata","highway":"residential","custom-speed":"50","maxspeed":"RO:urban","number-of-cars":"0","profile":"car","distance":"782.9258","time":"56.37066"}},{"type":"Feature","name":"ShapeMeta","geometry":{"type":"LineString","coordinates":[[23.62962,46.76809],[23.62935,46.76798]]},"properties":{"name":"Strada Unirii","highway":"residential","custom-speed":"50","maxspeed":"RO:urban","number-of-cars":"0","profile":"car","distance":"807.1258","time":"58.11306"}},{"type":"Feature","name":"ShapeMeta","geometry":{"type":"LineString","coordinates":[[23.62935,46.76798],[23.62916,46.76793],[23.62897,46.76791],[23.62889,46.76791]]},"properties":{"name":"Strada Unirii","highway":"residential","custom-speed":"50","maxspeed":"RO:urban","number-of-cars":"0","profile":"car","distance":"843.4258","time":"60.72666"}},{"type":"Feature","name":"ShapeMeta","geometry":{"type":"LineString","coordinates":[[23.62889,46.76791],[23.62864,46.76791],[23.62848,46.76791]]},"properties":{"name":"Strada Unirii","highway":"residential","custom-speed":"50","maxspeed":"RO:urban","number-of-cars":"0","profile":"car","distance":"874.2258","time":"62.94426"}},{"type":"Feature","name":"ShapeMeta","geometry":{"type":"LineString","coordinates":[[23.62848,46.76791],[23.62845,46.7679]]},"properties":{"name":"Strada Unirii","highway":"residential","custom-speed":"50","maxspeed":"RO:urban","number-of-cars":"0","profile":"car","distance":"876.9258","time":"63.13866"}},{"type":"Feature","name":"ShapeMeta","geometry":{"type":"LineString","coordinates":[[23.62845,46.7679],[23.62787,46.76788]]},"properties":{"name":"Strada Unirii","highway":"residential","custom-speed":"50","maxspeed":"RO:urban","number-of-cars":"0","profile":"car","distance":"920.9258","time":"66.30666"}},{"type":"Feature","name":"ShapeMeta","geometry":{"type":"LineString","coordinates":[[23.62787,46.76788],[23.6278,46.76788],[23.62664,46.76785],[23.62658,46.76785]]},"properties":{"name":"Strada Unirii","highway":"residential","custom-speed":"50","maxspeed":"RO:urban","number-of-cars":"0","profile":"car","distance":"1019.026","time":"73.36987"}},{"type":"Feature","name":"ShapeMeta","geometry":{"type":"LineString","coordinates":[[23.62658,46.76785],[23.62595,46.76783]]},"properties":{"name":"Strada Unirii","highway":"residential","custom-speed":"50","maxspeed":"RO:urban","number-of-cars":"0","profile":"car","distance":"1066.926","time":"76.81867"}},{"type":"Feature","name":"ShapeMeta","geometry":{"type":"LineString","coordinates":[[23.62595,46.76783],[23.62595,46.76793],[23.62595,46.76806]]},"properties":{"name":"Aleea Snagov","highway":"residential","custom-speed":"50","maxspeed":"RO:urban","number-of-cars":"0","profile":"car","distance":"1092.326","time":"78.64747"}},{"type":"Feature","name":"ShapeMeta","geometry":{"type":"LineString","coordinates":[[23.62595,46.76806],[23.62579,46.76805],[23.62535,46.76805]]},"properties":{"name":"Aleea Snagov","highway":"residential","custom-speed":"50","maxspeed":"RO:urban","number-of-cars":"0","profile":"car","distance":"1138.026","time":"81.93787"}},{"type":"Feature","name":"ShapeMeta","geometry":{"type":"LineString","coordinates":[[23.62535,46.76805],[23.62507,46.76804],[23.625,46.76806],[23.62497,46.7681],[23.62496,46.76835]]},"properties":{"name":"Aleea Snagov","highway":"residential","custom-speed":"50","maxspeed":"RO:urban","number-of-cars":"0","profile":"car","distance":"1197.626","time":"86.22906"}},{"type":"Feature","name":"ShapeMeta","geometry":{"type":"LineString","coordinates":[[23.62496,46.76835],[23.62496,46.76907]]},"properties":{"highway":"residential","custom-speed":"50","maxspeed":"RO:urban","number-of-cars":"0","profile":"car","distance":"1276.926","time":"91.93866"}},{"type":"Feature","name":"ShapeMeta","geometry":{"type":"LineString","coordinates":[[23.62496,46.76907],[23.62464,46.76906],[23.62456,46.7691]]},"properties":{"highway":"residential","custom-speed":"50","maxspeed":"RO:urban","number-of-cars":"0","profile":"car","distance":"1308.926","time":"94.24266"}},{"type":"Feature","name":"ShapeMeta","geometry":{"type":"LineString","coordinates":[[23.62456,46.7691],[23.62452,46.76792]]},"properties":{"highway":"residential","custom-speed":"50","maxspeed":"RO:urban","number-of-cars":"0","profile":"car","distance":"1440.426","time":"103.7107"}},{"type":"Feature","name":"ShapeMeta","geometry":{"type":"LineString","coordinates":[[23.62452,46.76792],[23.6239,46.76809],[23.62362,46.76816],[23.62303,46.76831]]},"properties":{"name":"Strada Unirii","highway":"residential","custom-speed":"50","maxspeed":"RO:urban","number-of-cars":"0","profile":"car","distance":"1561.426","time":"112.4227"}},{"type":"Feature","name":"ShapeMeta","geometry":{"type":"LineString","coordinates":[[23.62303,46.76831],[23.62268,46.76832],[23.62252,46.76833],[23.62078,46.76828],[23.62036,46.76832],[23.62022,46.76836]]},"properties":{"name":"Strada Unirii","highway":"residential","custom-speed":"50","maxspeed":"RO:urban","number-of-cars":"0","profile":"car","distance":"1777.126","time":"127.9531"}},{"type":"Feature","name":"ShapeMeta","geometry":{"type":"LineString","coordinates":[[23.62022,46.76836],[23.62008,46.76841],[23.61965,46.76855],[23.61935,46.76863]]},"properties":{"name":"Strada Unirii","highway":"residential","custom-speed":"50","maxspeed":"RO:urban","number-of-cars":"0","profile":"car","distance":"1850.226","time":"133.2163"}},{"type":"Feature","name":"ShapeMeta","geometry":{"type":"LineString","coordinates":[[23.61935,46.76863],[23.61914,46.76869]]},"properties":{"name":"Strada Unirii","highway":"residential","custom-speed":"50","maxspeed":"RO:urban","number-of-cars":"0","profile":"car","distance":"1867.326","time":"134.4475"}},{"type":"Feature","name":"ShapeMeta","geometry":{"type":"LineString","coordinates":[[23.61914,46.76869],[23.61914,46.76879],[23.6191,46.76887],[23.61899,46.76894]]},"properties":{"name":"Bulevardul Nicolae Titulescu","highway":"residential","custom-speed":"50","maxspeed":"RO:urban","number-of-cars":"0","profile":"car","distance":"1899.226","time":"136.7443"}},{"type":"Feature","name":"ShapeMeta","geometry":{"type":"LineString","coordinates":[[23.61899,46.76894],[23.61884,46.76895]]},"properties":{"name":"Bulevardul Nicolae Titulescu","highway":"residential","custom-speed":"50","maxspeed":"RO:urban","number-of-cars":"0","profile":"car","distance":"1910.326","time":"137.5435"}},{"type":"Feature","name":"ShapeMeta","geometry":{"type":"LineString","coordinates":[[23.61884,46.76895],[23.6187,46.76889],[23.61862,46.76881]]},"properties":{"name":"Bulevardul Nicolae Titulescu","highway":"residential","custom-speed":"50","maxspeed":"RO:urban","number-of-cars":"0","profile":"car","distance":"1933.826","time":"139.2355"}},{"type":"Feature","name":"ShapeMeta","geometry":{"type":"LineString","coordinates":[[23.61862,46.76881],[23.61823,46.76886],[23.61765,46.76895]]},"properties":{"name":"Bulevardul Nicolae Titulescu","highway":"residential","custom-speed":"50","maxspeed":"RO:urban","number-of-cars":"0","profile":"car","distance":"2009.626","time":"144.6931"}},{"type":"Feature","name":"ShapeMeta","geometry":{"type":"LineString","coordinates":[[23.61765,46.76895],[23.61647,46.76908],[23.61626,46.7691]]},"properties":{"name":"Bulevardul Nicolae Titulescu","highway":"residential","custom-speed":"50","maxspeed":"RO:urban","number-of-cars":"0","profile":"car","distance":"2116.926","time":"152.4187"}},{"type":"Feature","name":"ShapeMeta","geometry":{"type":"LineString","coordinates":[[23.61626,46.7691],[23.61571,46.76916]]},"properties":{"name":"Bulevardul Nicolae Titulescu","highway":"residential","custom-speed":"50","maxspeed":"RO:urban","number-of-cars":"0","profile":"car","distance":"2159.226","time":"155.4643"}},{"type":"Feature","name":"ShapeMeta","geometry":{"type":"LineString","coordinates":[[23.61571,46.76916],[23.61551,46.76918],[23.61425,46.76933],[23.61359,46.7694]]},"properties":{"name":"Bulevardul Nicolae Titulescu","highway":"residential","custom-speed":"50","maxspeed":"RO:urban","number-of-cars":"0","profile":"car","distance":"2323.026","time":"167.2579"}},{"type":"Feature","name":"ShapeMeta","geometry":{"type":"LineString","coordinates":[[23.61359,46.7694],[23.61304,46.76944]]},"properties":{"name":"Bulevardul Nicolae Titulescu","highway":"residential","custom-speed":"50","maxspeed":"RO:urban","number-of-cars":"0","profile":"car","distance":"2364.926","time":"170.2747"}},{"type":"Feature","name":"ShapeMeta","geometry":{"type":"LineString","coordinates":[[23.61304,46.76944],[23.613,46.76997]]},"properties":{"name":"Strada Arieșului","highway":"residential","custom-speed":"50","maxspeed":"RO:urban","number-of-cars":"0","profile":"car","distance":"2423.526","time":"174.4939"}},{"type":"Feature","name":"ShapeMeta","geometry":{"type":"LineString","coordinates":[[23.613,46.76997],[23.61299,46.77032]]},"properties":{"name":"Strada Arieșului","highway":"residential","custom-speed":"50","maxspeed":"RO:urban","number-of-cars":"0","profile":"car","distance":"2462.526","time":"177.3019"}},{"type":"Feature","name":"ShapeMeta","geometry":{"type":"LineString","coordinates":[[23.61299,46.77032],[23.61295,46.77115]]},"properties":{"name":"Strada Arieșului","highway":"residential","custom-speed":"50","maxspeed":"RO:urban","number-of-cars":"0","profile":"car","distance":"2555.426","time":"183.9907"}},{"type":"Feature","name":"ShapeMeta","geometry":{"type":"LineString","coordinates":[[23.61295,46.77115],[23.61164,46.77115]]},"properties":{"name":"Strada Actorului","highway":"residential","profile":"car","distance":"2655.426","time":"193.5907"}},{"type":"Feature","name":"ShapeMeta","geometry":{"type":"LineString","coordinates":[[23.61164,46.77115],[23.61127,46.77122]]},"properties":{"name":"Strada Aurel Suciu","highway":"residential","profile":"car","distance":"2684.426","time":"196.3747"}},{"type":"Feature","name":"ShapeMeta","geometry":{"type":"LineString","coordinates":[[23.61127,46.77122],[23.6105,46.77136]]},"properties":{"name":"Strada Aurel Suciu","highway":"residential","profile":"car","distance":"2745.126","time":"202.2019"}},{"type":"Feature","name":"ShapeMeta","geometry":{"type":"LineString","coordinates":[[23.6105,46.77136],[23.60907,46.77161]]},"properties":{"name":"Strada Aurel Suciu","highway":"residential","profile":"car","distance":"2857.426","time":"212.9827"}},{"type":"Feature","name":"ShapeMeta","geometry":{"type":"LineString","coordinates":[[23.60907,46.77161],[23.60907,46.77162],[23.60906,46.77165],[23.60905,46.77166]]},"properties":{"highway":"residential","junction":"roundabout","profile":"car","distance":"2862.926","time":"213.5107"}},{"type":"Feature","name":"ShapeMeta","geometry":{"type":"LineString","coordinates":[[23.60905,46.77166],[23.60904,46.77166],[23.60902,46.77166],[23.60898,46.77165],[23.60897,46.77164],[23.60897,46.77164]]},"properties":{"highway":"residential","junction":"roundabout","profile":"car","distance":"2870.326","time":"214.2211"}},{"type":"Feature","name":"ShapeMeta","geometry":{"type":"LineString","coordinates":[[23.60897,46.77164],[23.60883,46.77168],[23.60821,46.7718],[23.60811,46.77182]]},"properties":{"name":"Strada Aurel Suciu","highway":"residential","profile":"car","distance":"2938.726","time":"220.7875"}},{"type":"Feature","name":"ShapeMeta","geometry":{"type":"LineString","coordinates":[[23.60811,46.77182],[23.60765,46.7719]]},"properties":{"name":"Strada Aurel Suciu","highway":"residential","profile":"car","distance":"2974.926","time":"224.2627"}},{"type":"Feature","name":"ShapeMeta","geometry":{"type":"LineString","coordinates":[[23.60765,46.7719],[23.60728,46.77167],[23.60647,46.77129],[23.60616,46.77117],[23.60492,46.77075]]},"properties":{"name":"Strada General Traian Moșoiu","highway":"residential","profile":"car","distance":"3220.726","time":"247.8595"}},{"type":"Feature","name":"ShapeMeta","geometry":{"type":"LineString","coordinates":[[23.60492,46.77075],[23.60476,46.77069],[23.60319,46.77],[23.60225,46.76968]]},"properties":{"name":"Strada General Traian Moșoiu","oneway":"yes","highway":"residential","profile":"car","distance":"3456.526","time":"270.4963"}},{"type":"Feature","name":"ShapeMeta","geometry":{"type":"LineString","coordinates":[[23.60225,46.76968],[23.60168,46.76947]]},"properties":{"name":"Strada General Traian Moșoiu","oneway":"yes","highway":"residential","profile":"car","distance":"3505.726","time":"275.2195"}},{"type":"Feature","name":"ShapeMeta","geometry":{"type":"LineString","coordinates":[[23.60168,46.76947],[23.60026,46.76905]]},"properties":{"name":"Strada General Traian Moșoiu","highway":"residential","profile":"car","distance":"3623.726","time":"286.5475"}},{"type":"Feature","name":"ShapeMeta","geometry":{"type":"LineString","coordinates":[[23.60026,46.76905],[23.59937,46.7688],[23.59921,46.76876],[23.59908,46.76872]]},"properties":{"name":"Strada General Traian Moșoiu","highway":"residential","profile":"car","distance":"3720.726","time":"295.8595"}},{"type":"Feature","name":"ShapeMeta","geometry":{"type":"LineString","coordinates":[[23.59908,46.76872],[23.59887,46.76865],[23.598,46.76837],[23.59789,46.76833]]},"properties":{"name":"Strada Posada","highway":"primary","oneway":"yes","profile":"car","distance":"3820.826","time":"301.1982"}},{"type":"Feature","name":"ShapeMeta","geometry":{"type":"LineString","coordinates":[[23.59789,46.76833],[23.59795,46.76815],[23.59795,46.76814]]},"properties":{"highway":"residential","custom-speed":"50","maxspeed":"RO:urban","number-of-cars":"0","profile":"car","distance":"3842.526","time":"302.7606"}},{"type":"Feature","name":"ShapeMeta","geometry":{"type":"LineString","coordinates":[[23.59795,46.76814],[23.59797,46.76807]]},"properties":{"highway":"residential","custom-speed":"50","maxspeed":"RO:urban","number-of-cars":"0","profile":"car","distance":"3850.326","time":"303.3222"}},{"type":"Feature","name":"ShapeMeta","geometry":{"type":"LineString","coordinates":[[23.59797,46.76807],[23.59801,46.76777],[23.59801,46.76773],[23.59802,46.76765]]},"properties":{"highway":"primary","oneway":"yes","profile":"car","distance":"3897.926","time":"305.8609"}},{"type":"Feature","name":"ShapeMeta","geometry":{"type":"LineString","coordinates":[[23.59802,46.76765],[23.59829,46.76751]]},"properties":{"oneway":"yes","highway":"primary_link","profile":"car","distance":"3923.126","time":"307.2049"}},{"type":"Feature","name":"ShapeMeta","geometry":{"type":"LineString","coordinates":[[23.59829,46.76751],[23.59851,46.76738],[23.59865,46.76732],[23.59881,46.76727]]},"properties":{"name":"Piața Ștefan cel Mare","highway":"residential","custom-speed":"50","maxspeed":"RO:urban","number-of-cars":"0","profile":"car","distance":"3971.426","time":"310.6825"}},{"type":"Feature","name":"ShapeMeta","geometry":{"type":"LineString","coordinates":[[23.59881,46.76727],[23.59944,46.76739]]},"properties":{"name":"Strada Milton Lehrer","highway":"residential","custom-speed":"50","maxspeed":"RO:urban","number-of-cars":"0","profile":"car","distance":"4021.626","time":"314.2969"}},{"type":"Feature","name":"ShapeMeta","geometry":{"type":"LineString","coordinates":[[23.59944,46.76739],[23.5996,46.76748],[23.59968,46.76762],[23.59969,46.76768],[23.59968,46.76774]]},"properties":{"highway":"residential","custom-speed":"50","maxspeed":"RO:urban","number-of-cars":"0","profile":"car","distance":"4067.426","time":"317.5945"}},{"type":"Feature","name":"ShapeMeta","geometry":{"type":"LineString","coordinates":[[23.59968,46.76774],[23.59976,46.76766],[23.59993,46.76756]]},"properties":{"name":"Piața Timotei Cipariu","highway":"residential","maxspeed":"RO:urban","number-of-cars":"0","custom-speed":"1","profile":"car","distance":"4095.475","time":"418.5697"}},{"type":"Feature","name":"Stop","Shape":"0","geometry":{"type":"Point","coordinates":[23.63103,46.76819]},"properties":{"distance":"0","time":"0"}},{"type":"Feature","name":"Stop","Shape":"122","geometry":{"type":"Point","coordinates":[23.59993,46.76755]},"properties":{"distance":"4095.475","time":"418.5697"}}]}