{"type":"FeatureCollection","features":[{"type":"Feature","name":"ShapeMeta","geometry":{"type":"LineString","coordinates":[[23.63093,46.76816],[23.63095,46.7681],[23.63116,46.76785]]},"properties":{"name":"Strada Alexandru Vaida Voevod","highway":"residential","custom-speed":"50","maxspeed":"RO:urban","number-of-cars":"0","profile":"car","distance":"38.12585","time":"2.745061"}},{"type":"Feature","name":"ShapeMeta","geometry":{"type":"LineString","coordinates":[[23.63116,46.76785],[23.63178,46.76649],[23.63207,46.76597]]},"properties":{"name":"Strada Alexandru Vaida Voevod","highway":"residential","custom-speed":"50","maxspeed":"RO:urban","number-of-cars":"0","profile":"car","distance":"258.8258","time":"18.63546"}},{"type":"Feature","name":"ShapeMeta","geometry":{"type":"LineString","coordinates":[[23.63207,46.76597],[23.63041,46.76543],[23.63032,46.76541],[23.63025,46.76543],[23.63013,46.76547]]},"properties":{"name":"Strada Octavian Fodor","highway":"residential","custom-speed":"50","maxspeed":"RO:urban","number-of-cars":"0","profile":"car","distance":"421.6258","time":"30.35706"}},{"type":"Feature","name":"ShapeMeta","geometry":{"type":"LineString","coordinates":[[23.63013,46.76547],[23.63021,46.76553]]},"properties":{"name":"Aleea Detunata","highway":"residential","custom-speed":"50","maxspeed":"RO:urban","number-of-cars":"0","profile":"car","distance":"430.6258","time":"31.00506"}},{"type":"Feature","name":"ShapeMeta","geometry":{"type":"LineString","coordinates":[[23.63021,46.76553],[23.62968,46.76548],[23.62922,46.7655],[23.62878,46.76561],[23.62842,46.76577],[23.6277,46.76615],[23.62734,46.76628],[23.62686,46.76637],[23.62658,46.7664],[23.62605,46.76634],[23.62565,46.76627],[23.62553,46.76626]]},"properties":{"name":"Aleea Detunata","highway":"residential","custom-speed":"50","maxspeed":"RO:urban","number-of-cars":"0","profile":"car","distance":"815.0258","time":"58.68186"}},{"type":"Feature","name":"ShapeMeta","geometry":{"type":"LineString","coordinates":[[23.62553,46.76626],[23.62547,46.7663]]},"properties":{"name":"Aleea Detunata","highway":"residential","custom-speed":"50","maxspeed":"RO:urban","number-of-cars":"0","profile":"car","distance":"822.1258","time":"59.19306"}},{"type":"Feature","name":"ShapeMeta","geometry":{"type":"LineString","coordinates":[[23.62547,46.7663],[23.62534,46.76633],[23.62463,46.76664]]},"properties":{"highway":"residential","custom-speed":"50","maxspeed":"RO:urban","number-of-cars":"0","profile":"car","distance":"896.3258","time":"64.53546"}},{"type":"Feature","name":"ShapeMeta","geometry":{"type":"LineString","coordinates":[[23.62463,46.76664],[23.62449,46.76662],[23.62439,46.76657]]},"properties":{"name":"Aleea Detunata","highway":"residential","custom-speed":"50","maxspeed":"RO:urban","number-of-cars":"0","profile":"car","distance":"916.6258","time":"65.99706"}},{"type":"Feature","name":"ShapeMeta","geometry":{"type":"LineString","coordinates":[[23.62439,46.76657],[23.62436,46.76659],[23.6243,46.76665],[23.62395,46.76711],[23.62382,46.76727]]},"properties":{"name":"Aleea Băișoara","highway":"residential","custom-speed":"50","maxspeed":"RO:urban","number-of-cars":"0","profile":"car","distance":"1006.226","time":"72.44827"}},{"type":"Feature","name":"ShapeMeta","geometry":{"type":"LineString","coordinates":[[23.62382,46.76727],[23.62374,46.76737],[23.62357,46.76751]]},"properties":{"name":"Aleea Băișoara","highway":"residential","custom-speed":"50","maxspeed":"RO:urban","number-of-cars":"0","profile":"car","distance":"1038.626","time":"74.78107"}},{"type":"Feature","name":"ShapeMeta","geometry":{"type":"LineString","coordinates":[[23.62357,46.76751],[23.62331,46.76767]]},"properties":{"name":"Aleea Băișoara","highway":"residential","custom-speed":"50","maxspeed":"RO:urban","number-of-cars":"0","profile":"car","distance":"1065.826","time":"76.73946"}},{"type":"Feature","name":"ShapeMeta","geometry":{"type":"LineString","coordinates":[[23.62331,46.76767],[23.62297,46.76767],[23.62243,46.76766]]},"properties":{"name":"Aleea Bizușa","highway":"residential","custom-speed":"50","maxspeed":"RO:urban","number-of-cars":"0","profile":"car","distance":"1132.626","time":"81.54906"}},{"type":"Feature","name":"ShapeMeta","geometry":{"type":"LineString","coordinates":[[23.62243,46.76766],[23.62214,46.76765]]},"properties":{"name":"Aleea Bizușa","highway":"residential","custom-speed":"50","maxspeed":"RO:urban","number-of-cars":"0","profile":"car","distance":"1154.426","time":"83.11866"}},{"type":"Feature","name":"ShapeMeta","geometry":{"type":"LineString","coordinates":[[23.62214,46.76765],[23.62188,46.76765],[23.62179,46.76765],[23.62168,46.76765]]},"properties":{"name":"Aleea Bizușa","highway":"residential","custom-speed":"50","maxspeed":"RO:urban","number-of-cars":"0","profile":"car","distance":"1189.526","time":"85.64586"}},{"type":"Feature","name":"ShapeMeta","geometry":{"type":"LineString","coordinates":[[23.62168,46.76765],[23.62142,46.76765]]},"properties":{"name":"Aleea Bizușa","highway":"residential","custom-speed":"50","maxspeed":"RO:urban","number-of-cars":"0","profile":"car","distance":"1209.226","time":"87.06426"}},{"type":"Feature","name":"ShapeMeta","geometry":{"type":"LineString","coordinates":[[23.62142,46.76765],[23.62093,46.76765]]},"properties":{"name":"Aleea Bizușa","highway":"residential","custom-speed":"50","maxspeed":"RO:urban","number-of-cars":"0","profile":"car","distance":"1246.526","time":"89.74986"}},{"type":"Feature","name":"ShapeMeta","geometry":{"type":"LineString","coordinates":[[23.62093,46.76765],[23.62062,46.76765]]},"properties":{"name":"Aleea Bizușa","highway":"residential","custom-speed":"50","maxspeed":"RO:urban","number-of-cars":"0","profile":"car","distance":"1270.326","time":"91.46346"}},{"type":"Feature","name":"ShapeMeta","geometry":{"type":"LineString","coordinates":[[23.62062,46.76765],[23.62031,46.76762]]},"properties":{"name":"Aleea Bizușa","highway":"residential","custom-speed":"50","maxspeed":"RO:urban","number-of-cars":"0","profile":"car","distance":"1294.226","time":"93.18427"}},{"type":"Feature","name":"ShapeMeta","geometry":{"type":"LineString","coordinates":[[23.62031,46.76762],[23.61922,46.76751]]},"properties":{"name":"Aleea Bizușa","highway":"residential","custom-speed":"50","maxspeed":"RO:urban","number-of-cars":"0","profile":"car","distance":"1377.926","time":"99.21067"}},{"type":"Feature","name":"ShapeMeta","geometry":{"type":"LineString","coordinates":[[23.61922,46.76751],[23.61885,46.7683],[23.61885,46.76846],[23.61885,46.76859]]},"properties":{"name":"Strada Liviu Rebreanu","highway":"residential","custom-speed":"50","maxspeed":"RO:urban","number-of-cars":"0","profile":"car","distance":"1501.326","time":"108.0955"}},{"type":"Feature","name":"ShapeMeta","geometry":{"type":"LineString","coordinates":[[23.61885,46.76859],[23.61872,46.76862],[23.61863,46.76871],[23.61862,46.76881]]},"properties":{"name":"Bulevardul Nicolae Titulescu","highway":"residential","custom-speed":"50","maxspeed":"RO:urban","number-of-cars":"0","profile":"car","distance":"1534.526","time":"110.4859"}},{"type":"Feature","name":"ShapeMeta","geometry":{"type":"LineString","coordinates":[[23.61862,46.76881],[23.61823,46.76886],[23.61765,46.76895]]},"properties":{"name":"Bulevardul Nicolae Titulescu","highway":"residential","custom-speed":"50","maxspeed":"RO:urban","number-of-cars":"0","profile":"car","distance":"1610.326","time":"115.9435"}},{"type":"Feature","name":"ShapeMeta","geometry":{"type":"LineString","coordinates":[[23.61765,46.76895],[23.61647,46.76908],[23.61626,46.7691]]},"properties":{"name":"Bulevardul Nicolae Titulescu","highway":"residential","custom-speed":"50","maxspeed":"RO:urban","number-of-cars":"0","profile":"car","distance":"1717.626","time":"123.6691"}},{"type":"Feature","name":"ShapeMeta","geometry":{"type":"LineString","coordinates":[[23.61626,46.7691],[23.61571,46.76916]]},"properties":{"name":"Bulevardul Nicolae Titulescu","highway":"residential","custom-speed":"50","maxspeed":"RO:urban","number-of-cars":"0","profile":"car","distance":"1759.926","time":"126.7147"}},{"type":"Feature","name":"ShapeMeta","geometry":{"type":"LineString","coordinates":[[23.61571,46.76916],[23.61551,46.76918],[23.61425,46.76933],[23.61359,46.7694]]},"properties":{"name":"Bulevardul Nicolae Titulescu","highway":"residential","custom-speed":"50","maxspeed":"RO:urban","number-of-cars":"0","profile":"car","distance":"1923.726","time":"138.5083"}},{"type":"Feature","name":"ShapeMeta","geometry":{"type":"LineString","coordinates":[[23.61359,46.7694],[23.61304,46.76944]]},"properties":{"name":"Bulevardul Nicolae Titulescu","highway":"residential","custom-speed":"50","maxspeed":"RO:urban","number-of-cars":"0","profile":"car","distance":"1965.626","time":"141.5251"}},{"type":"Feature","name":"ShapeMeta","geometry":{"type":"LineString","coordinates":[[23.61304,46.76944],[23.61307,46.76896]]},"properties":{"name":"Strada Arieșului","highway":"residential","custom-speed":"50","maxspeed":"RO:urban","number-of-cars":"0","profile":"car","distance":"2019.126","time":"145.3771"}},{"type":"Feature","name":"ShapeMeta","geometry":{"type":"LineString","coordinates":[[23.61307,46.76896],[23.61307,46.76892]]},"properties":{"name":"Strada Arieșului","highway":"residential","custom-speed":"50","maxspeed":"RO:urban","number-of-cars":"0","profile":"car","distance":"2023.726","time":"145.7083"}},{"type":"Feature","name":"ShapeMeta","geometry":{"type":"LineString","coordinates":[[23.61307,46.76892],[23.61308,46.76872],[23.61309,46.7684]]},"properties":{"name":"Strada Arieșului","highway":"residential","custom-speed":"50","maxspeed":"RO:urban","number-of-cars":"0","profile":"car","distance":"2081.426","time":"149.8627"}},{"type":"Feature","name":"ShapeMeta","geometry":{"type":"LineString","coordinates":[[23.61309,46.7684],[23.61296,46.76838],[23.60931,46.7677]]},"properties":{"name":"Strada Iugoslaviei","highway":"residential","custom-speed":"50","maxspeed":"RO:urban","number-of-cars":"0","profile":"car","distance":"2379.726","time":"171.3403"}},{"type":"Feature","name":"ShapeMeta","geometry":{"type":"LineString","coordinates":[[23.60931,46.7677],[23.60921,46.76794]]},"properties":{"name":"Strada Septimiu Albini","highway":"residential","custom-speed":"50","maxspeed":"RO:urban","number-of-cars":"0","profile":"car","distance":"2407.426","time":"173.3347"}},{"type":"Feature","name":"ShapeMeta","geometry":{"type":"LineString","coordinates":[[23.60921,46.76794],[23.60835,46.76772]]},"properties":{"name":"Strada Mihai Veliciu","highway":"residential","custom-speed":"50","maxspeed":"RO:urban","number-of-cars":"0","profile":"car","distance":"2477.326","time":"178.3675"}},{"type":"Feature","name":"ShapeMeta","geometry":{"type":"LineString","coordinates":[[23.60835,46.76772],[23.60782,46.7676]]},"properties":{"name":"Strada Mihai Veliciu","highway":"residential","custom-speed":"50","maxspeed":"RO:urban","number-of-cars":"0","profile":"car","distance":"2520.026","time":"181.4419"}},{"type":"Feature","name":"ShapeMeta","geometry":{"type":"LineString","coordinates":[[23.60782,46.7676],[23.6061,46.76722]]},"properties":{"name":"Strada Mihai Veliciu","highway":"residential","custom-speed":"50","maxspeed":"RO:urban","number-of-cars":"0","profile":"car","distance":"2657.326","time":"191.3275"}},{"type":"Feature","name":"ShapeMeta","geometry":{"type":"LineString","coordinates":[[23.6061,46.76722],[23.6058,46.76715]]},"properties":{"name":"Strada Mihai Veliciu","highway":"residential","custom-speed":"50","maxspeed":"RO:urban","number-of-cars":"0","profile":"car","distance":"2681.726","time":"193.0843"}},{"type":"Feature","name":"ShapeMeta","geometry":{"type":"LineString","coordinates":[[23.6058,46.76715],[23.60478,46.7669],[23.60404,46.76674],[23.60341,46.7664]]},"properties":{"name":"Strada Mihai Veliciu","highway":"residential","custom-speed":"50","maxspeed":"RO:urban","number-of-cars":"0","profile":"car","distance":"2883.626","time":"207.6211"}},{"type":"Feature","name":"ShapeMeta","geometry":{"type":"LineString","coordinates":[[23.60341,46.7664],[23.60255,46.7669]]},"properties":{"name":"Strada Constantin Brâncuși","highway":"residential","custom-speed":"50","maxspeed":"RO:urban","number-of-cars":"0","profile":"car","distance":"2969.426","time":"213.7987"}},{"type":"Feature","name":"ShapeMeta","geometry":{"type":"LineString","coordinates":[[23.60255,46.7669],[23.60217,46.76673]]},"properties":{"name":"Strada Zrínyi Miklós","highway":"residential","profile":"car","distance":"3003.526","time":"217.0723"}},{"type":"Feature","name":"ShapeMeta","geometry":{"type":"LineString","coordinates":[[23.60217,46.76673],[23.60197,46.76665]]},"properties":{"name":"Strada Zrínyi Miklós","highway":"residential","profile":"car","distance":"3021.626","time":"218.8099"}},{"type":"Feature","name":"ShapeMeta","geometry":{"type":"LineString","coordinates":[[23.60197,46.76665],[23.60102,46.76628],[23.601,46.76627]]},"properties":{"name":"Strada Zrínyi Miklós","highway":"residential","profile":"car","distance":"3106.626","time":"226.9699"}},{"type":"Feature","name":"ShapeMeta","geometry":{"type":"LineString","coordinates":[[23.601,46.76627],[23.60098,46.76627],[23.60021,46.76597]]},"properties":{"name":"Strada Zrínyi Miklós","highway":"residential","profile":"car","distance":"3175.226","time":"233.5555"}},{"type":"Feature","name":"ShapeMeta","geometry":{"type":"LineString","coordinates":[[23.60021,46.76597],[23.59928,46.76561]]},"properties":{"name":"Strada Zrínyi Miklós","highway":"residential","profile":"car","distance":"3256.626","time":"241.3699"}},{"type":"Feature","name":"ShapeMeta","geometry":{"type":"LineString","coordinates":[[23.59928,46.76561],[23.5989,46.76583]]},"properties":{"name":"Strada Brașov","highway":"residential","profile":"car","distance":"3295.426","time":"245.0947"}},{"type":"Feature","name":"ShapeMeta","geometry":{"type":"LineString","coordinates":[[23.5989,46.76583],[23.59883,46.76599],[23.5987,46.76617],[23.59822,46.76687]]},"properties":{"name":"Calea Turzii","highway":"primary","maxspeed":"60","profile":"car","distance":"3422.026","time":"255.2227"}},{"type":"Feature","name":"ShapeMeta","geometry":{"type":"LineString","coordinates":[[23.59822,46.76687],[23.59827,46.76699],[23.59831,46.76707],[23.5984,46.76715],[23.59852,46.7672],[23.59866,46.76723],[23.59881,46.76727]]},"properties":{"oneway":"yes","highway":"primary_link","profile":"car","distance":"3490.126","time":"258.8547"}},{"type":"Feature","name":"ShapeMeta","geometry":{"type":"LineString","coordinates":[[23.59881,46.76727],[23.59944,46.76739]]},"properties":{"name":"Strada Milton Lehrer","highway":"primary","oneway":"yes","profile":"car","distance":"3540.326","time":"261.532"}},{"type":"Feature","name":"ShapeMeta","geometry":{"type":"LineString","coordinates":[[23.59944,46.76739],[23.5996,46.76748],[23.59968,46.76762],[23.59969,46.76768],[23.59968,46.76774]]},"properties":{"oneway":"yes","highway":"primary_link","profile":"car","distance":"3586.126","time":"263.9747"}},{"type":"Feature","name":"ShapeMeta","geometry":{"type":"LineString","coordinates":[[23.59968,46.76774],[23.59976,46.76766],[23.59993,46.76756]]},"properties":{"name":"Piața Timotei Cipariu","highway":"residential","maxspeed":"RO:urban","number-of-cars":"0","custom-speed":"1","profile":"car","distance":"3614.175","time":"364.9499"}},{"type":"Feature","name":"Stop","Shape":"0","geometry":{"type":"Point","coordinates":[23.63103,46.76819]},"properties":{"distance":"0","time":"0"}},{"type":"Feature","name":"Stop","Shape":"97","geometry":{"type":"Point","coordinates":[23.59993,46.76755]},"properties":{"distance":"3614.175","time":"364.9499"}}]}