{"type":"FeatureCollection","features":[{"type":"Feature","name":"ShapeMeta","geometry":{"type":"LineString","coordinates":[[23.63093,46.76816],[23.63095,46.7681],[23.63116,46.76785]]},"properties":{"name":"Strada Alexandru Vaida Voevod","highway":"residential","custom-speed":"50","maxspeed":"RO:urban","number-of-cars":"0","profile":"car","distance":"38.12585","time":"2.745061"}},{"type":"Feature","name":"ShapeMeta","geometry":{"type":"LineString","coordinates":[[23.63116,46.76785],[23.63165,46.76772],[23.63318,46.76743],[23.634,46.76732],[23.6342,46.76734]]},"properties":{"name":"Strada Soporului","highway":"residential","custom-speed":"50","maxspeed":"RO:urban","number-of-cars":"0","profile":"car","distance":"278.4258","time":"20.04666"}},{"type":"Feature","name":"ShapeMeta","geometry":{"type":"LineString","coordinates":[[23.6342,46.76734],[23.63436,46.76672],[23.63446,46.76616]]},"properties":{"name":"Strada Georg Friedrich Hegel","highway":"residential","custom-speed":"50","maxspeed":"RO:urban","number-of-cars":"0","profile":"car","distance":"410.9258","time":"29.58666"}},{"type":"Feature","name":"ShapeMeta","geometry":{"type":"LineString","coordinates":[[23.63446,46.76616],[23.6346,46.7653],[23.63465,46.76513],[23.63466,46.76497],[23.63461,46.76477],[23.63453,46.76468]]},"properties":{"name":"Strada Georg Friedrich Hegal","highway":"residential","custom-speed":"50","maxspeed":"RO:urban","number-of-cars":"0","profile":"car","distance":"578.8258","time":"41.67546"}},{"type":"Feature","name":"ShapeMeta","geometry":{"type":"LineString","coordinates":[[23.63453,46.76468],[23.63438,46.76476]]},"properties":{"bridge":"yes","highway":"residential","custom-speed":"50","maxspeed":"RO:urban","number-of-cars":"0","profile":"car","distance":"593.1258","time":"42.70506"}},{"type":"Feature","name":"ShapeMeta","geometry":{"type":"LineString","coordinates":[[23.63438,46.76476],[23.63396,46.765]]},"properties":{"name":"Strada Alexandru Vaida Voevod","highway":"residential","custom-speed":"50","maxspeed":"RO:urban","number-of-cars":"0","profile":"car","distance":"634.9258","time":"45.71466"}},{"type":"Feature","name":"ShapeMeta","geometry":{"type":"LineString","coordinates":[[23.63396,46.765],[23.63353,46.76521]]},"properties":{"name":"Strada Alexandru Vaida Voevod","highway":"residential","custom-speed":"50","maxspeed":"RO:urban","number-of-cars":"0","profile":"car","distance":"675.2258","time":"48.61626"}},{"type":"Feature","name":"ShapeMeta","geometry":{"type":"LineString","coordinates":[[23.63353,46.76521],[23.63315,46.76541]]},"properties":{"name":"Strada Alexandru Vaida Voevod","highway":"residential","custom-speed":"50","maxspeed":"RO:urban","number-of-cars":"0","profile":"car","distance":"711.7258","time":"51.24426"}},{"type":"Feature","name":"ShapeMeta","geometry":{"type":"LineString","coordinates":[[23.63315,46.76541],[23.63268,46.76565]]},"properties":{"name":"Strada Alexandru Vaida Voevod","highway":"residential","custom-speed":"50","maxspeed":"RO:urban","number-of-cars":"0","profile":"car","distance":"755.7258","time":"54.41226"}},{"type":"Feature","name":"ShapeMeta","geometry":{"type":"LineString","coordinates":[[23.63268,46.76565],[23.63207,46.76597]]},"properties":{"name":"Strada Alexandru Vaida Voevod","highway":"residential","custom-speed":"50","maxspeed":"RO:urban","number-of-cars":"0","profile":"car","distance":"814.7258","time":"58.66026"}},{"type":"Feature","name":"ShapeMeta","geometry":{"type":"LineString","coordinates":[[23.63207,46.76597],[23.63041,46.76543],[23.63032,46.76541],[23.63025,46.76543],[23.63013,46.76547]]},"properties":{"name":"Strada Octavian Fodor","highway":"residential","custom-speed":"50","maxspeed":"RO:urban","number-of-cars":"0","profile":"car","distance":"977.5258","time":"70.38186"}},{"type":"Feature","name":"ShapeMeta","geometry":{"type":"LineString","coordinates":[[23.63013,46.76547],[23.63021,46.76553]]},"properties":{"name":"Aleea Detunata","highway":"residential","custom-speed":"50","maxspeed":"RO:urban","number-of-cars":"0","profile":"car","distance":"986.5258","time":"71.02986"}},{"type":"Feature","name":"ShapeMeta","geometry":{"type":"LineString","coordinates":[[23.63021,46.76553],[23.6302,46.76593]]},"properties":{"name":"Aleea Meseș","highway":"residential","custom-speed":"50","maxspeed":"RO:urban","number-of-cars":"0","profile":"car","distance":"1030.626","time":"74.20506"}},{"type":"Feature","name":"ShapeMeta","geometry":{"type":"LineString","coordinates":[[23.6302,46.76593],[23.62986,46.76604],[23.62944,46.76628],[23.62897,46.76647],[23.62733,46.76698],[23.62693,46.76706],[23.62644,46.76701],[23.62601,46.76693],[23.62571,46.76678]]},"properties":{"name":"Aleea Detunata","highway":"residential","custom-speed":"50","maxspeed":"RO:urban","number-of-cars":"0","profile":"car","distance":"1411.526","time":"101.6299"}},{"type":"Feature","name":"ShapeMeta","geometry":{"type":"LineString","coordinates":[[23.62571,46.76678],[23.62568,46.76674]]},"properties":{"name":"Aleea Detunata","highway":"residential","custom-speed":"50","maxspeed":"RO:urban","number-of-cars":"0","profile":"car","distance":"1416.226","time":"101.9683"}},{"type":"Feature","name":"ShapeMeta","geometry":{"type":"LineString","coordinates":[[23.62568,46.76674],[23.62562,46.76662],[23.62547,46.76642]]},"properties":{"name":"Aleea Detunata","highway":"residential","custom-speed":"50","maxspeed":"RO:urban","number-of-cars":"0","profile":"car","distance":"1455.326","time":"104.7835"}},{"type":"Feature","name":"ShapeMeta","geometry":{"type":"LineString","coordinates":[[23.62547,46.76642],[23.6249,46.76663],[23.62479,46.76664],[23.62463,46.76664]]},"properties":{"name":"Aleea Detunata","highway":"residential","custom-speed":"50","maxspeed":"RO:urban","number-of-cars":"0","profile":"car","distance":"1525.026","time":"109.8019"}},{"type":"Feature","name":"ShapeMeta","geometry":{"type":"LineString","coordinates":[[23.62463,46.76664],[23.62449,46.76662],[23.62439,46.76657]]},"properties":{"name":"Aleea Detunata","highway":"residential","custom-speed":"50","maxspeed":"RO:urban","number-of-cars":"0","profile":"car","distance":"1545.326","time":"111.2635"}},{"type":"Feature","name":"ShapeMeta","geometry":{"type":"LineString","coordinates":[[23.62439,46.76657],[23.62436,46.76659],[23.6243,46.76665],[23.62395,46.76711],[23.62382,46.76727]]},"properties":{"name":"Aleea Băișoara","highway":"residential","custom-speed":"50","maxspeed":"RO:urban","number-of-cars":"0","profile":"car","distance":"1634.926","time":"117.7147"}},{"type":"Feature","name":"ShapeMeta","geometry":{"type":"LineString","coordinates":[[23.62382,46.76727],[23.62374,46.76737],[23.62357,46.76751]]},"properties":{"name":"Aleea Băișoara","highway":"residential","custom-speed":"50","maxspeed":"RO:urban","number-of-cars":"0","profile":"car","distance":"1667.326","time":"120.0475"}},{"type":"Feature","name":"ShapeMeta","geometry":{"type":"LineString","coordinates":[[23.62357,46.76751],[23.62331,46.76767]]},"properties":{"name":"Aleea Băișoara","highway":"residential","maxspeed":"RO:urban","number-of-cars":"0","custom-speed":"1","profile":"car","distance":"1694.526","time":"217.9675"}},{"type":"Feature","name":"ShapeMeta","geometry":{"type":"LineString","coordinates":[[23.62331,46.76767],[23.62297,46.76767],[23.62243,46.76766]]},"properties":{"name":"Aleea Bizușa","highway":"residential","custom-speed":"50","maxspeed":"RO:urban","number-of-cars":"0","profile":"car","distance":"1761.326","time":"222.7771"}},{"type":"Feature","name":"ShapeMeta","geometry":{"type":"LineString","coordinates":[[23.62243,46.76766],[23.62214,46.76765]]},"properties":{"name":"Aleea Bizușa","highway":"residential","custom-speed":"50","maxspeed":"RO:urban","number-of-cars":"0","profile":"car","distance":"1783.126","time":"224.3467"}},{"type":"Feature","name":"ShapeMeta","geometry":{"type":"LineString","coordinates":[[23.62214,46.76765],[23.62188,46.76765],[23.62179,46.76765],[23.62168,46.76765]]},"properties":{"name":"Aleea Bizușa","highway":"residential","custom-speed":"50","maxspeed":"RO:urban","number-of-cars":"0","profile":"car","distance":"1818.226","time":"226.8739"}},{"type":"Feature","name":"ShapeMeta","geometry":{"type":"LineString","coordinates":[[23.62168,46.76765],[23.62142,46.76765]]},"properties":{"name":"Aleea Bizușa","highway":"residential","custom-speed":"50","maxspeed":"RO:urban","number-of-cars":"0","profile":"car","distance":"1837.926","time":"228.2923"}},{"type":"Feature","name":"ShapeMeta","geometry":{"type":"LineString","coordinates":[[23.62142,46.76765],[23.62093,46.76765]]},"properties":{"name":"Aleea Bizușa","highway":"residential","custom-speed":"50","maxspeed":"RO:urban","number-of-cars":"0","profile":"car","distance":"1875.226","time":"230.9779"}},{"type":"Feature","name":"ShapeMeta","geometry":{"type":"LineString","coordinates":[[23.62093,46.76765],[23.62062,46.76765]]},"properties":{"name":"Aleea Bizușa","highway":"residential","custom-speed":"50","maxspeed":"RO:urban","number-of-cars":"0","profile":"car","distance":"1899.026","time":"232.6915"}},{"type":"Feature","name":"ShapeMeta","geometry":{"type":"LineString","coordinates":[[23.62062,46.76765],[23.62031,46.76762]]},"properties":{"name":"Aleea Bizușa","highway":"residential","custom-speed":"50","maxspeed":"RO:urban","number-of-cars":"0","profile":"car","distance":"1922.926","time":"234.4123"}},{"type":"Feature","name":"ShapeMeta","geometry":{"type":"LineString","coordinates":[[23.62031,46.76762],[23.61922,46.76751]]},"properties":{"name":"Aleea Bizușa","highway":"residential","custom-speed":"50","maxspeed":"RO:urban","number-of-cars":"0","profile":"car","distance":"2006.626","time":"240.4387"}},{"type":"Feature","name":"ShapeMeta","geometry":{"type":"LineString","coordinates":[[23.61922,46.76751],[23.61885,46.7683],[23.61885,46.76846],[23.61885,46.76859]]},"properties":{"name":"Strada Liviu Rebreanu","highway":"residential","custom-speed":"50","maxspeed":"RO:urban","number-of-cars":"0","profile":"car","distance":"2130.026","time":"249.3235"}},{"type":"Feature","name":"ShapeMeta","geometry":{"type":"LineString","coordinates":[[23.61885,46.76859],[23.61872,46.76862],[23.61863,46.76871],[23.61862,46.76881]]},"properties":{"name":"Bulevardul Nicolae Titulescu","highway":"residential","custom-speed":"50","maxspeed":"RO:urban","number-of-cars":"0","profile":"car","distance":"2163.226","time":"251.7139"}},{"type":"Feature","name":"ShapeMeta","geometry":{"type":"LineString","coordinates":[[23.61862,46.76881],[23.61823,46.76886],[23.61765,46.76895]]},"properties":{"name":"Bulevardul Nicolae Titulescu","highway":"residential","custom-speed":"50","maxspeed":"RO:urban","number-of-cars":"0","profile":"car","distance":"2239.026","time":"257.1715"}},{"type":"Feature","name":"ShapeMeta","geometry":{"type":"LineString","coordinates":[[23.61765,46.76895],[23.61647,46.76908],[23.61626,46.7691]]},"properties":{"name":"Bulevardul Nicolae Titulescu","highway":"residential","custom-speed":"50","maxspeed":"RO:urban","number-of-cars":"0","profile":"car","distance":"2346.326","time":"264.8971"}},{"type":"Feature","name":"ShapeMeta","geometry":{"type":"LineString","coordinates":[[23.61626,46.7691],[23.61571,46.76916]]},"properties":{"name":"Bulevardul Nicolae Titulescu","highway":"residential","custom-speed":"50","maxspeed":"RO:urban","number-of-cars":"0","profile":"car","distance":"2388.626","time":"267.9427"}},{"type":"Feature","name":"ShapeMeta","geometry":{"type":"LineString","coordinates":[[23.61571,46.76916],[23.61551,46.76918],[23.61425,46.76933],[23.61359,46.7694]]},"properties":{"name":"Bulevardul Nicolae Titulescu","highway":"residential","custom-speed":"50","maxspeed":"RO:urban","number-of-cars":"0","profile":"car","distance":"2552.426","time":"279.7363"}},{"type":"Feature","name":"ShapeMeta","geometry":{"type":"LineString","coordinates":[[23.61359,46.7694],[23.61304,46.76944]]},"properties":{"name":"Bulevardul Nicolae Titulescu","highway":"residential","custom-speed":"50","maxspeed":"RO:urban","number-of-cars":"0","profile":"car","distance":"2594.326","time":"282.7531"}},{"type":"Feature","name":"ShapeMeta","geometry":{"type":"LineString","coordinates":[[23.61304,46.76944],[23.61288,46.76944],[23.6123,46.76944]]},"properties":{"name":"Bulevardul Nicolae Titulescu","highway":"residential","custom-speed":"50","maxspeed":"RO:urban","number-of-cars":"0","profile":"car","distance":"2650.626","time":"286.8067"}},{"type":"Feature","name":"ShapeMeta","geometry":{"type":"LineString","coordinates":[[23.6123,46.76944],[23.61166,46.76941]]},"properties":{"name":"Bulevardul Nicolae Titulescu","highway":"residential","custom-speed":"50","maxspeed":"RO:urban","number-of-cars":"0","profile":"car","distance":"2699.526","time":"290.3275"}},{"type":"Feature","name":"ShapeMeta","geometry":{"type":"LineString","coordinates":[[23.61166,46.76941],[23.60995,46.76929],[23.6097,46.76928],[23.60956,46.76926]]},"properties":{"name":"Bulevardul Nicolae Titulescu","highway":"residential","custom-speed":"50","maxspeed":"RO:urban","number-of-cars":"0","profile":"car","distance":"2859.826","time":"301.8691"}},{"type":"Feature","name":"ShapeMeta","geometry":{"type":"LineString","coordinates":[[23.60956,46.76926],[23.60929,46.76935]]},"properties":{"name":"Bulevardul Nicolae Titulescu","highway":"residential","custom-speed":"50","maxspeed":"RO:urban","number-of-cars":"0","profile":"car","distance":"2883.026","time":"303.5395"}},{"type":"Feature","name":"ShapeMeta","geometry":{"type":"LineString","coordinates":[[23.60929,46.76935],[23.60924,46.76938],[23.60916,46.7694]]},"properties":{"name":"Bulevardul Nicolae Titulescu","highway":"residential","custom-speed":"50","maxspeed":"RO:urban","number-of-cars":"0","profile":"car","distance":"2894.526","time":"304.3675"}},{"type":"Feature","name":"ShapeMeta","geometry":{"type":"LineString","coordinates":[[23.60916,46.7694],[23.60911,46.76951],[23.6091,46.76962]]},"properties":{"name":"Strada Septimiu Albini","highway":"residential","custom-speed":"50","maxspeed":"RO:urban","number-of-cars":"0","profile":"car","distance":"2919.726","time":"306.1819"}},{"type":"Feature","name":"ShapeMeta","geometry":{"type":"LineString","coordinates":[[23.6091,46.76962],[23.60911,46.77026]]},"properties":{"name":"Strada Septimiu Albini","highway":"residential","custom-speed":"50","maxspeed":"RO:urban","number-of-cars":"0","profile":"car","distance":"2990.126","time":"311.2507"}},{"type":"Feature","name":"ShapeMeta","geometry":{"type":"LineString","coordinates":[[23.60911,46.77026],[23.60806,46.77019],[23.6075,46.7701]]},"properties":{"name":"Strada Minerilor","highway":"residential","custom-speed":"50","maxspeed":"RO:urban","number-of-cars":"0","profile":"car","distance":"3113.726","time":"320.1499"}},{"type":"Feature","name":"ShapeMeta","geometry":{"type":"LineString","coordinates":[[23.6075,46.7701],[23.60727,46.77004]]},"properties":{"name":"Strada Minerilor","highway":"residential","custom-speed":"50","maxspeed":"RO:urban","number-of-cars":"0","profile":"car","distance":"3132.826","time":"321.5251"}},{"type":"Feature","name":"ShapeMeta","geometry":{"type":"LineString","coordinates":[[23.60727,46.77004],[23.60563,46.76962]]},"properties":{"name":"Strada Minerilor","highway":"residential","custom-speed":"50","maxspeed":"RO:urban","number-of-cars":"0","profile":"car","distance":"3266.126","time":"331.1227"}},{"type":"Feature","name":"ShapeMeta","geometry":{"type":"LineString","coordinates":[[23.60563,46.76962],[23.60593,46.76892]]},"properties":{"name":"Strada Săpătorilor","highway":"residential","custom-speed":"50","maxspeed":"RO:urban","number-of-cars":"0","profile":"car","distance":"3347.426","time":"336.9763"}},{"type":"Feature","name":"ShapeMeta","geometry":{"type":"LineString","coordinates":[[23.60593,46.76892],[23.60476,46.76869]]},"properties":{"name":"Bulevardul Nicolae Titulescu","highway":"residential","custom-speed":"50","maxspeed":"RO:urban","number-of-cars":"0","profile":"car","distance":"3440.726","time":"343.6939"}},{"type":"Feature","name":"ShapeMeta","geometry":{"type":"LineString","coordinates":[[23.60476,46.76869],[23.60439,46.7686],[23.6036,46.76839],[23.60316,46.76827]]},"properties":{"name":"Bulevardul Nicolae Titulescu","highway":"residential","custom-speed":"50","maxspeed":"RO:urban","number-of-cars":"0","profile":"car","distance":"3570.626","time":"353.0467"}},{"type":"Feature","name":"ShapeMeta","geometry":{"type":"LineString","coordinates":[[23.60316,46.76827],[23.60284,46.76818]]},"properties":{"name":"Bulevardul Nicolae Titulescu","highway":"residential","custom-speed":"50","maxspeed":"RO:urban","number-of-cars":"0","profile":"car","distance":"3597.126","time":"354.9547"}},{"type":"Feature","name":"ShapeMeta","geometry":{"type":"LineString","coordinates":[[23.60284,46.76818],[23.60279,46.76817]]},"properties":{"name":"Bulevardul Nicolae Titulescu","highway":"residential","custom-speed":"50","maxspeed":"RO:urban","number-of-cars":"0","profile":"car","distance":"3601.226","time":"355.2499"}},{"type":"Feature","name":"ShapeMeta","geometry":{"type":"LineString","coordinates":[[23.60279,46.76817],[23.60263,46.76815],[23.60229,46.76805]]},"properties":{"name":"Bulevardul Nicolae Titulescu","highway":"residential","custom-speed":"50","maxspeed":"RO:urban","number-of-cars":"0","profile":"car","distance":"3641.026","time":"358.1155"}},{"type":"Feature","name":"ShapeMeta","geometry":{"type":"LineString","coordinates":[[23.60229,46.76805],[23.60142,46.76781],[23.60111,46.76773]]},"properties":{"name":"Bulevardul Nicolae Titulescu","highway":"residential","custom-speed":"50","maxspeed":"RO:urban","number-of-cars":"0","profile":"car","distance":"3738.126","time":"365.1067"}},{"type":"Feature","name":"ShapeMeta","geometry":{"type":"LineString","coordinates":[[23.60111,46.76773],[23.60096,46.76769]]},"properties":{"name":"Bulevardul Nicolae Titulescu","highway":"residential","custom-speed":"50","maxspeed":"RO:urban","number-of-cars":"0","profile":"car","distance":"3750.026","time":"365.9635"}},{"type":"Feature","name":"ShapeMeta","geometry":{"type":"LineString","coordinates":[[23.60096,46.76769],[23.60023,46.76751],[23.60008,46.7675]]},"properties":{"name":"Bulevardul Nicolae Titulescu","highway":"residential","custom-speed":"50","maxspeed":"RO:urban","number-of-cars":"0","profile":"car","distance":"3820.826","time":"371.0611"}},{"type":"Feature","name":"ShapeMeta","geometry":{"type":"LineString","coordinates":[[23.60008,46.7675],[23.59995,46.76754],[23.59993,46.76756]]},"properties":{"name":"Piața Timotei Cipariu","highway":"residential","maxspeed":"RO:urban","number-of-cars":"0","custom-speed":"1","profile":"car","distance":"3833.677","time":"417.3259"}},{"type":"Feature","name":"Stop","Shape":"0","geometry":{"type":"Point","coordinates":[23.63103,46.76819]},"properties":{"distance":"0","time":"0"}},{"type":"Feature","name":"Stop","Shape":"106","geometry":{"type":"Point","coordinates":[23.59993,46.76755]},"properties":{"distance":"3833.677","time":"417.3259"}}]}