{"type":"FeatureCollection","features":[{"type":"Feature","name":"ShapeMeta","geometry":{"type":"LineString","coordinates":[[23.63093,46.76816],[23.63088,46.76832],[23.63094,46.76848]]},"properties":{"name":"Strada Alexandru Vaida Voevod","highway":"residential","custom-speed":"50","maxspeed":"RO:urban","number-of-cars":"0","profile":"car","distance":"36.47415","time":"2.626138"}},{"type":"Feature","name":"ShapeMeta","geometry":{"type":"LineString","coordinates":[[23.63094,46.76848],[23.63092,46.76857],[23.63088,46.76864],[23.63078,46.76871]]},"properties":{"name":"Strada Alexandru Vaida Voevod","highway":"residential","custom-speed":"50","maxspeed":"RO:urban","number-of-cars":"0","profile":"car","distance":"65.77415","time":"4.735738"}},{"type":"Feature","name":"ShapeMeta","geometry":{"type":"LineString","coordinates":[[23.63078,46.76871],[23.63056,46.76866],[23.63029,46.76861]]},"properties":{"name":"Strada Lucia Sturdza Bulandra","highway":"residential","custom-speed":"50","maxspeed":"RO:urban","number-of-cars":"0","profile":"car","distance":"104.0741","time":"7.493338"}},{"type":"Feature","name":"ShapeMeta","geometry":{"type":"LineString","coordinates":[[23.63029,46.76861],[23.63033,46.76855],[23.63033,46.7685]]},"properties":{"name":"Strada Unirii","highway":"residential","custom-speed":"50","maxspeed":"RO:urban","number-of-cars":"0","profile":"car","distance":"116.3741","time":"8.378938"}},{"type":"Feature","name":"ShapeMeta","geometry":{"type":"LineString","coordinates":[[23.63033,46.7685],[23.6303,46.76845],[23.63017,46.76839],[23.63009,46.76839]]},"properties":{"name":"Strada Unirii","highway":"residential","custom-speed":"50","maxspeed":"RO:urban","number-of-cars":"0","profile":"car","distance":"140.4741","time":"10.11414"}},{"type":"Feature","name":"ShapeMeta","geometry":{"type":"LineString","coordinates":[[23.63009,46.76839],[23.6298,46.76824]]},"properties":{"name":"Strada Unirii","highway":"residential","custom-speed":"50","maxspeed":"RO:urban","number-of-cars":"0","profile":"car","distance":"168.5741","time":"12.13734"}},{"type":"Feature","name":"ShapeMeta","geometry":{"type":"LineString","coordinates":[[23.6298,46.76824],[23.62993,46.76851]]},"properties":{"name":"Strada Unirii","highway":"residential","custom-speed":"50","maxspeed":"RO:urban","number-of-cars":"0","profile":"car","distance":"200.3741","time":"14.42694"}},{"type":"Feature","name":"ShapeMeta","geometry":{"type":"LineString","coordinates":[[23.62993,46.76851],[23.62994,46.76857]]},"properties":{"name":"Strada Unirii","highway":"residential","custom-speed":"50","maxspeed":"RO:urban","number-of-cars":"0","profile":"car","distance":"206.6741","time":"14.88054"}},{"type":"Feature","name":"ShapeMeta","geometry":{"type":"LineString","coordinates":[[23.62994,46.76857],[23.62998,46.76862],[23.63003,46.76865],[23.63007,46.76865]]},"properties":{"name":"Strada Unirii","highway":"residential","custom-speed":"50","maxspeed":"RO:urban","number-of-cars":"0","profile":"car","distance":"221.2741","time":"15.93174"}},{"type":"Feature","name":"ShapeMeta","geometry":{"type":"LineString","coordinates":[[23.63007,46.76865],[23.62981,46.7688]]},"properties":{"name":"Strada Unirii","highway":"residential","custom-speed":"50","maxspeed":"RO:urban","number-of-cars":"0","profile":"car","distance":"247.1741","time":"17.79654"}},{"type":"Feature","name":"ShapeMeta","geometry":{"type":"LineString","coordinates":[[23.62981,46.7688],[23.62969,46.76889]]},"properties":{"name":"Strada Alexandru Vaida Voevod","highway":"residential","custom-speed":"50","maxspeed":"RO:urban","number-of-cars":"0","profile":"car","distance":"260.4741","time":"18.75414"}},{"type":"Feature","name":"ShapeMeta","geometry":{"type":"LineString","coordinates":[[23.62969,46.76889],[23.62926,46.7692]]},"properties":{"name":"Strada Alexandru Vaida Voevod","highway":"residential","custom-speed":"50","maxspeed":"RO:urban","number-of-cars":"0","profile":"car","distance":"307.5741","time":"22.14534"}},{"type":"Feature","name":"ShapeMeta","geometry":{"type":"LineString","coordinates":[[23.62926,46.7692],[23.6292,46.76924]]},"properties":{"name":"Strada Alexandru Vaida Voevod","highway":"residential","custom-speed":"50","maxspeed":"RO:urban","number-of-cars":"0","profile":"car","distance":"313.7741","time":"22.59174"}},{"type":"Feature","name":"ShapeMeta","geometry":{"type":"LineString","coordinates":[[23.6292,46.76924],[23.62876,46.76954],[23.62866,46.76961]]},"properties":{"name":"Strada Alexandru Vaida Voevod","highway":"residential","custom-speed":"50","maxspeed":"RO:urban","number-of-cars":"0","profile":"car","distance":"372.3741","time":"26.81094"}},{"type":"Feature","name":"ShapeMeta","geometry":{"type":"LineString","coordinates":[[23.62866,46.76961],[23.62863,46.76963]]},"properties":{"name":"Strada Alexandru Vaida Voevod","highway":"residential","custom-speed":"50","maxspeed":"RO:urban","number-of-cars":"0","profile":"car","distance":"375.6741","time":"27.04854"}},{"type":"Feature","name":"ShapeMeta","geometry":{"type":"LineString","coordinates":[[23.62863,46.76963],[23.62821,46.76992],[23.62814,46.76997]]},"properties":{"name":"Strada Alexandru Vaida Voevod","highway":"residential","maxspeed":"RO:urban","number-of-cars":"0","custom-speed":"1","profile":"car","distance":"428.4741","time":"217.1285"}},{"type":"Feature","name":"ShapeMeta","geometry":{"type":"LineString","coordinates":[[23.62814,46.76997],[23.62802,46.77005],[23.62792,46.77012]]},"properties":{"name":"Strada Alexandru Vaida Voevod","highway":"residential","custom-speed":"50","maxspeed":"RO:urban","number-of-cars":"0","profile":"car","distance":"451.6741","time":"218.7989"}},{"type":"Feature","name":"ShapeMeta","geometry":{"type":"LineString","coordinates":[[23.62792,46.77012],[23.62773,46.77024]]},"properties":{"name":"Strada Alexandru Vaida Voevod","highway":"residential","custom-speed":"50","maxspeed":"RO:urban","number-of-cars":"0","profile":"car","distance":"471.4741","time":"220.2245"}},{"type":"Feature","name":"ShapeMeta","geometry":{"type":"LineString","coordinates":[[23.62773,46.77024],[23.6275,46.7702],[23.62711,46.77015],[23.62689,46.77015],[23.62665,46.77026],[23.62655,46.77028],[23.62636,46.77028],[23.62627,46.77028]]},"properties":{"name":"Aleea Herculane","highway":"residential","custom-speed":"50","maxspeed":"RO:urban","number-of-cars":"0","profile":"car","distance":"587.6741","time":"228.5909"}},{"type":"Feature","name":"ShapeMeta","geometry":{"type":"LineString","coordinates":[[23.62627,46.77028],[23.62603,46.77028],[23.62589,46.77024]]},"properties":{"name":"Aleea Herculane","highway":"residential","custom-speed":"50","maxspeed":"RO:urban","number-of-cars":"0","profile":"car","distance":"616.8741","time":"230.6933"}},{"type":"Feature","name":"ShapeMeta","geometry":{"type":"LineString","coordinates":[[23.62589,46.77024],[23.62587,46.77024],[23.6257,46.77017],[23.62556,46.77011]]},"properties":{"name":"Aleea Herculane","highway":"residential","custom-speed":"50","maxspeed":"RO:urban","number-of-cars":"0","profile":"car","distance":"646.3741","time":"232.8173"}},{"type":"Feature","name":"ShapeMeta","geometry":{"type":"LineString","coordinates":[[23.62556,46.77011],[23.62548,46.77008],[23.62433,46.77011],[23.62414,46.77021],[23.62402,46.77026]]},"properties":{"name":"Aleea Herculane","highway":"residential","custom-speed":"50","maxspeed":"RO:urban","number-of-cars":"0","profile":"car","distance":"769.5741","time":"241.6877"}},{"type":"Feature","name":"ShapeMeta","geometry":{"type":"LineString","coordinates":[[23.62402,46.77026],[23.62369,46.77025]]},"properties":{"name":"Aleea Herculane","highway":"residential","custom-speed":"50","maxspeed":"RO:urban","number-of-cars":"0","profile":"car","distance":"794.8741","time":"243.5093"}},{"type":"Feature","name":"ShapeMeta","geometry":{"type":"LineString","coordinates":[[23.62369,46.77025],[23.62339,46.77023]]},"properties":{"name":"Aleea Herculane","highway":"residential","custom-speed":"50","maxspeed":"RO:urban","number-of-cars":"0","profile":"car","distance":"817.6741","time":"245.1509"}},{"type":"Feature","name":"ShapeMeta","geometry":{"type":"LineString","coordinates":[[23.62339,46.77023],[23.62298,46.77021]]},"properties":{"name":"Aleea Herculane","highway":"residential","custom-speed":"50","maxspeed":"RO:urban","number-of-cars":"0","profile":"car","distance":"849.3741","time":"247.4333"}},{"type":"Feature","name":"ShapeMeta","geometry":{"type":"LineString","coordinates":[[23.62298,46.77021],[23.62182,46.77018]]},"properties":{"name":"Aleea Herculane","highway":"residential","custom-speed":"50","maxspeed":"RO:urban","number-of-cars":"0","profile":"car","distance":"937.5741","time":"253.7837"}},{"type":"Feature","name":"ShapeMeta","geometry":{"type":"LineString","coordinates":[[23.62182,46.77018],[23.62162,46.77018]]},"properties":{"name":"Aleea Herculane","highway":"residential","custom-speed":"50","maxspeed":"RO:urban","number-of-cars":"0","profile":"car","distance":"952.6741","time":"254.8709"}},{"type":"Feature","name":"ShapeMeta","geometry":{"type":"LineString","coordinates":[[23.62162,46.77018],[23.62158,46.77018]]},"properties":{"name":"Aleea Herculane","highway":"residential","custom-speed":"50","maxspeed":"RO:urban","number-of-cars":"0","profile":"car","distance":"955.8741","time":"255.1013"}},{"type":"Feature","name":"ShapeMeta","geometry":{"type":"LineString","coordinates":[[23.62158,46.77018],[23.62141,46.77028],[23.6213,46.77037]]},"properties":{"name":"Aleea Herculane","highway":"residential","custom-speed":"50","maxspeed":"RO:urban","number-of-cars":"0","profile":"car","distance":"986.3741","time":"257.2973"}},{"type":"Feature","name":"ShapeMeta","geometry":{"type":"LineString","coordinates":[[23.6213,46.77037],[23.62114,46.77036],[23.62096,46.77035],[23.62093,46.77034]]},"properties":{"name":"Aleea Herculane","highway":"residential","custom-speed":"50","maxspeed":"RO:urban","number-of-cars":"0","profile":"car","distance":"1015.474","time":"259.3925"}},{"type":"Feature","name":"ShapeMeta","geometry":{"type":"LineString","coordinates":[[23.62093,46.77034],[23.62069,46.77032]]},"properties":{"name":"Aleea Herculane","highway":"residential","custom-speed":"50","maxspeed":"RO:urban","number-of-cars":"0","profile":"car","distance":"1033.374","time":"260.6813"}},{"type":"Feature","name":"ShapeMeta","geometry":{"type":"LineString","coordinates":[[23.62069,46.77032],[23.62048,46.77019],[23.62026,46.76983],[23.62022,46.7694],[23.62028,46.76878]]},"properties":{"name":"Aleea Herculane","highway":"residential","custom-speed":"50","maxspeed":"RO:urban","number-of-cars":"0","profile":"car","distance":"1215.174","time":"273.7709"}},{"type":"Feature","name":"ShapeMeta","geometry":{"type":"LineString","coordinates":[[23.62028,46.76878],[23.62028,46.76854],[23.62022,46.76836]]},"properties":{"name":"Aleea Herculane","highway":"residential","custom-speed":"50","maxspeed":"RO:urban","number-of-cars":"0","profile":"car","distance":"1262.674","time":"277.1909"}},{"type":"Feature","name":"ShapeMeta","geometry":{"type":"LineString","coordinates":[[23.62022,46.76836],[23.62008,46.76841],[23.61965,46.76855],[23.61935,46.76863]]},"properties":{"name":"Strada Unirii","highway":"residential","custom-speed":"50","maxspeed":"RO:urban","number-of-cars":"0","profile":"car","distance":"1335.774","time":"282.4541"}},{"type":"Feature","name":"ShapeMeta","geometry":{"type":"LineString","coordinates":[[23.61935,46.76863],[23.61914,46.76869]]},"properties":{"name":"Strada Unirii","highway":"residential","custom-speed":"50","maxspeed":"RO:urban","number-of-cars":"0","profile":"car","distance":"1352.874","time":"283.6853"}},{"type":"Feature","name":"ShapeMeta","geometry":{"type":"LineString","coordinates":[[23.61914,46.76869],[23.61914,46.76879],[23.6191,46.76887],[23.61899,46.76894]]},"properties":{"name":"Bulevardul Nicolae Titulescu","highway":"residential","custom-speed":"50","maxspeed":"RO:urban","number-of-cars":"0","profile":"car","distance":"1384.774","time":"285.9821"}},{"type":"Feature","name":"ShapeMeta","geometry":{"type":"LineString","coordinates":[[23.61899,46.76894],[23.61884,46.76895]]},"properties":{"name":"Bulevardul Nicolae Titulescu","highway":"residential","custom-speed":"50","maxspeed":"RO:urban","number-of-cars":"0","profile":"car","distance":"1395.874","time":"286.7813"}},{"type":"Feature","name":"ShapeMeta","geometry":{"type":"LineString","coordinates":[[23.61884,46.76895],[23.6187,46.76889],[23.61862,46.76881]]},"properties":{"name":"Bulevardul Nicolae Titulescu","highway":"residential","custom-speed":"50","maxspeed":"RO:urban","number-of-cars":"0","profile":"car","distance":"1419.374","time":"288.4733"}},{"type":"Feature","name":"ShapeMeta","geometry":{"type":"LineString","coordinates":[[23.61862,46.76881],[23.61823,46.76886],[23.61765,46.76895]]},"properties":{"name":"Bulevardul Nicolae Titulescu","highway":"residential","custom-speed":"50","maxspeed":"RO:urban","number-of-cars":"0","profile":"car","distance":"1495.174","time":"293.9309"}},{"type":"Feature","name":"ShapeMeta","geometry":{"type":"LineString","coordinates":[[23.61765,46.76895],[23.61749,46.7697]]},"properties":{"name":"Strada Bistriței","highway":"residential","custom-speed":"50","maxspeed":"RO:urban","number-of-cars":"0","profile":"car","distance":"1579.674","time":"300.0149"}},{"type":"Feature","name":"ShapeMeta","geometry":{"type":"LineString","coordinates":[[23.61749,46.7697],[23.61745,46.76986],[23.6174,46.77007]]},"properties":{"name":"Strada Bistriței","highway":"residential","custom-speed":"50","maxspeed":"RO:urban","number-of-cars":"0","profile":"car","distance":"1620.774","time":"302.9741"}},{"type":"Feature","name":"ShapeMeta","geometry":{"type":"LineString","coordinates":[[23.6174,46.77007],[23.61731,46.77047]]},"properties":{"name":"Strada Bistriței","highway":"residential","custom-speed":"50","maxspeed":"RO:urban","number-of-cars":"0","profile":"car","distance":"1666.174","time":"306.2429"}},{"type":"Feature","name":"ShapeMeta","geometry":{"type":"LineString","coordinates":[[23.61731,46.77047],[23.61716,46.77114]]},"properties":{"name":"Strada Bistriței","highway":"residential","custom-speed":"50","maxspeed":"RO:urban","number-of-cars":"0","profile":"car","distance":"1740.774","time":"311.6141"}},{"type":"Feature","name":"ShapeMeta","geometry":{"type":"LineString","coordinates":[[23.61716,46.77114],[23.61571,46.77114]]},"properties":{"name":"Strada Actorului","highway":"residential","custom-speed":"50","maxspeed":"RO:urban","number-of-cars":"0","profile":"car","distance":"1851.274","time":"319.5701"}},{"type":"Feature","name":"ShapeMeta","geometry":{"type":"LineString","coordinates":[[23.61571,46.77114],[23.61295,46.77115]]},"properties":{"name":"Strada Actorului","highway":"residential","custom-speed":"50","maxspeed":"RO:urban","number-of-cars":"0","profile":"car","distance":"2061.674","time":"334.7189"}},{"type":"Feature","name":"ShapeMeta","geometry":{"type":"LineString","coordinates":[[23.61295,46.77115],[23.61164,46.77115]]},"properties":{"name":"Strada Actorului","highway":"residential","profile":"car","distance":"2161.674","time":"344.3189"}},{"type":"Feature","name":"ShapeMeta","geometry":{"type":"LineString","coordinates":[[23.61164,46.77115],[23.61127,46.77122]]},"properties":{"name":"Strada Aurel Suciu","highway":"residential","profile":"car","distance":"2190.674","time":"347.1029"}},{"type":"Feature","name":"ShapeMeta","geometry":{"type":"LineString","coordinates":[[23.61127,46.77122],[23.6105,46.77136]]},"properties":{"name":"Strada Aurel Suciu","highway":"residential","profile":"car","distance":"2251.374","time":"352.9301"}},{"type":"Feature","name":"ShapeMeta","geometry":{"type":"LineString","coordinates":[[23.6105,46.77136],[23.60907,46.77161]]},"properties":{"name":"Strada Aurel Suciu","highway":"residential","profile":"car","distance":"2363.674","time":"363.7109"}},{"type":"Feature","name":"ShapeMeta","geometry":{"type":"LineString","coordinates":[[23.60907,46.77161],[23.60907,46.77162],[23.60906,46.77165],[23.60905,46.77166]]},"properties":{"highway":"residential","junction":"roundabout","profile":"car","distance":"2369.174","time":"364.2389"}},{"type":"Feature","name":"ShapeMeta","geometry":{"type":"LineString","coordinates":[[23.60905,46.77166],[23.60904,46.77166],[23.60902,46.77166],[23.60898,46.77165],[23.60897,46.77164],[23.60897,46.77164]]},"properties":{"highway":"residential","junction":"roundabout","profile":"car","distance":"2376.574","time":"364.9493"}},{"type":"Feature","name":"ShapeMeta","geometry":{"type":"LineString","coordinates":[[23.60897,46.77164],[23.60883,46.77168],[23.60821,46.7718],[23.60811,46.77182]]},"properties":{"name":"Strada Aurel Suciu","highway":"residential","profile":"car","distance":"2444.974","time":"371.5157"}},{"type":"Feature","name":"ShapeMeta","geometry":{"type":"LineString","coordinates":[[23.60811,46.77182],[23.60765,46.7719]]},"properties":{"name":"Strada Aurel Suciu","highway":"residential","profile":"car","distance":"2481.174","time":"374.9909"}},{"type":"Feature","name":"ShapeMeta","geometry":{"type":"LineString","coordinates":[[23.60765,46.7719],[23.60728,46.77167],[23.60647,46.77129],[23.60616,46.77117],[23.60492,46.77075]]},"properties":{"name":"Strada General Traian Moșoiu","highway":"residential","profile":"car","distance":"2726.974","time":"398.5877"}},{"type":"Feature","name":"ShapeMeta","geometry":{"type":"LineString","coordinates":[[23.60492,46.77075],[23.60476,46.77069],[23.60319,46.77],[23.60225,46.76968]]},"properties":{"name":"Strada General Traian Moșoiu","oneway":"yes","highway":"residential","profile":"car","distance":"2962.774","time":"421.2245"}},{"type":"Feature","name":"ShapeMeta","geometry":{"type":"LineString","coordinates":[[23.60225,46.76968],[23.60168,46.76947]]},"properties":{"name":"Strada General Traian Moșoiu","oneway":"yes","highway":"residential","profile":"car","distance":"3011.974","time":"425.9477"}},{"type":"Feature","name":"ShapeMeta","geometry":{"type":"LineString","coordinates":[[23.60168,46.76947],[23.60026,46.76905]]},"properties":{"name":"Strada General Traian Moșoiu","highway":"residential","profile":"car","distance":"3129.974","time":"437.2757"}},{"type":"Feature","name":"ShapeMeta","geometry":{"type":"LineString","coordinates":[[23.60026,46.76905],[23.59937,46.7688],[23.59921,46.76876],[23.59908,46.76872]]},"properties":{"name":"Strada General Traian Moșoiu","highway":"residential","profile":"car","distance":"3226.974","time":"446.5877"}},{"type":"Feature","name":"ShapeMeta","geometry":{"type":"LineString","coordinates":[[23.59908,46.76872],[23.59887,46.76865],[23.598,46.76837],[23.59789,46.76833]]},"properties":{"name":"Strada Posada","highway":"primary","oneway":"yes","profile":"car","distance":"3327.074","time":"451.9264"}},{"type":"Feature","name":"ShapeMeta","geometry":{"type":"LineString","coordinates":[[23.59789,46.76833],[23.59795,46.76815],[23.59795,46.76814]]},"properties":{"highway":"residential","custom-speed":"50","maxspeed":"RO:urban","number-of-cars":"0","profile":"car","distance":"3348.774","time":"453.4888"}},{"type":"Feature","name":"ShapeMeta","geometry":{"type":"LineString","coordinates":[[23.59795,46.76814],[23.59797,46.76807]]},"properties":{"highway":"residential","custom-speed":"50","maxspeed":"RO:urban","number-of-cars":"0","profile":"car","distance":"3356.574","time":"454.0504"}},{"type":"Feature","name":"ShapeMeta","geometry":{"type":"LineString","coordinates":[[23.59797,46.76807],[23.59801,46.76777],[23.59801,46.76773],[23.59802,46.76765]]},"properties":{"highway":"primary","oneway":"yes","profile":"car","distance":"3404.174","time":"456.5891"}},{"type":"Feature","name":"ShapeMeta","geometry":{"type":"LineString","coordinates":[[23.59802,46.76765],[23.59829,46.76751]]},"properties":{"oneway":"yes","highway":"primary_link","profile":"car","distance":"3429.374","time":"457.9331"}},{"type":"Feature","name":"ShapeMeta","geometry":{"type":"LineString","coordinates":[[23.59829,46.76751],[23.59851,46.76738],[23.59865,46.76732],[23.59881,46.76727]]},"properties":{"name":"Piața Ștefan cel Mare","highway":"residential","custom-speed":"50","maxspeed":"RO:urban","number-of-cars":"0","profile":"car","distance":"3477.674","time":"461.4107"}},{"type":"Feature","name":"ShapeMeta","geometry":{"type":"LineString","coordinates":[[23.59881,46.76727],[23.59944,46.76739]]},"properties":{"name":"Strada Milton Lehrer","highway":"residential","custom-speed":"50","maxspeed":"RO:urban","number-of-cars":"0","profile":"car","distance":"3527.874","time":"465.0251"}},{"type":"Feature","name":"ShapeMeta","geometry":{"type":"LineString","coordinates":[[23.59944,46.76739],[23.5996,46.76748],[23.59968,46.76762],[23.59969,46.76768],[23.59968,46.76774]]},"properties":{"oneway":"yes","highway":"primary_link","profile":"car","distance":"3573.674","time":"467.4677"}},{"type":"Feature","name":"ShapeMeta","geometry":{"type":"LineString","coordinates":[[23.59968,46.76774],[23.59976,46.76766],[23.59993,46.76756]]},"properties":{"name":"Piața Timotei Cipariu","highway":"residential","maxspeed":"RO:urban","number-of-cars":"0","custom-speed":"1","profile":"car","distance":"3601.723","time":"568.4429"}},{"type":"Feature","name":"Stop","Shape":"0","geometry":{"type":"Point","coordinates":[23.63103,46.76819]},"properties":{"distance":"0","time":"0"}},{"type":"Feature","name":"Stop","Shape":"131","geometry":{"type":"Point","coordinates":[23.59993,46.76755]},"properties":{"distance":"3601.723","time":"568.4429"}}]}