{"type":"FeatureCollection","features":[{"type":"Feature","name":"ShapeMeta","geometry":{"type":"LineString","coordinates":[[23.63093,46.76816],[23.63088,46.76832],[23.63094,46.76848]]},"properties":{"name":"Strada Alexandru Vaida Voevod","highway":"residential","custom-speed":"50","maxspeed":"RO:urban","number-of-cars":"0","profile":"car","distance":"36.47415","time":"2.626138"}},{"type":"Feature","name":"ShapeMeta","geometry":{"type":"LineString","coordinates":[[23.63094,46.76848],[23.63092,46.76857],[23.63088,46.76864],[23.63078,46.76871]]},"properties":{"name":"Strada Alexandru Vaida Voevod","highway":"residential","custom-speed":"50","maxspeed":"RO:urban","number-of-cars":"0","profile":"car","distance":"65.77415","time":"4.735738"}},{"type":"Feature","name":"ShapeMeta","geometry":{"type":"LineString","coordinates":[[23.63078,46.76871],[23.63056,46.76866],[23.63029,46.76861]]},"properties":{"name":"Strada Lucia Sturdza Bulandra","highway":"residential","maxspeed":"RO:urban","number-of-cars":"0","custom-speed":"1","profile":"car","distance":"104.0741","time":"142.6157"}},{"type":"Feature","name":"ShapeMeta","geometry":{"type":"LineString","coordinates":[[23.63029,46.76861],[23.63026,46.76863]]},"properties":{"name":"Strada Unirii","highway":"residential","custom-speed":"50","maxspeed":"RO:urban","number-of-cars":"0","profile":"car","distance":"107.1741","time":"142.8389"}},{"type":"Feature","name":"ShapeMeta","geometry":{"type":"LineString","coordinates":[[23.63026,46.76863],[23.63024,46.76864],[23.63018,46.76866],[23.6301,46.76866]]},"properties":{"name":"Strada Unirii","highway":"residential","custom-speed":"50","maxspeed":"RO:urban","number-of-cars":"0","profile":"car","distance":"120.6741","time":"143.8109"}},{"type":"Feature","name":"ShapeMeta","geometry":{"type":"LineString","coordinates":[[23.6301,46.76866],[23.63007,46.76865]]},"properties":{"name":"Strada Unirii","highway":"residential","custom-speed":"50","maxspeed":"RO:urban","number-of-cars":"0","profile":"car","distance":"123.2741","time":"143.9981"}},{"type":"Feature","name":"ShapeMeta","geometry":{"type":"LineString","coordinates":[[23.63007,46.76865],[23.63003,46.76865],[23.62998,46.76862],[23.62994,46.76857]]},"properties":{"name":"Strada Unirii","highway":"residential","custom-speed":"50","maxspeed":"RO:urban","number-of-cars":"0","profile":"car","distance":"137.8741","time":"145.0493"}},{"type":"Feature","name":"ShapeMeta","geometry":{"type":"LineString","coordinates":[[23.62994,46.76857],[23.62993,46.76851]]},"properties":{"name":"Strada Unirii","highway":"residential","custom-speed":"50","maxspeed":"RO:urban","number-of-cars":"0","profile":"car","distance":"144.1741","time":"145.5029"}},{"type":"Feature","name":"ShapeMeta","geometry":{"type":"LineString","coordinates":[[23.62993,46.76851],[23.6298,46.76824]]},"properties":{"name":"Strada Unirii","highway":"residential","custom-speed":"50","maxspeed":"RO:urban","number-of-cars":"0","profile":"car","distance":"175.9741","time":"147.7925"}},{"type":"Feature","name":"ShapeMeta","geometry":{"type":"LineString","coordinates":[[23.6298,46.76824],[23.62962,46.76809]]},"properties":{"name":"Strada Unirii","highway":"residential","custom-speed":"50","maxspeed":"RO:urban","number-of-cars":"0","profile":"car","distance":"196.7741","time":"149.2901"}},{"type":"Feature","name":"ShapeMeta","geometry":{"type":"LineString","coordinates":[[23.62962,46.76809],[23.62935,46.76798]]},"properties":{"name":"Strada Unirii","highway":"residential","custom-speed":"50","maxspeed":"RO:urban","number-of-cars":"0","profile":"car","distance":"220.9741","time":"151.0325"}},{"type":"Feature","name":"ShapeMeta","geometry":{"type":"LineString","coordinates":[[23.62935,46.76798],[23.62916,46.76793],[23.62897,46.76791],[23.62889,46.76791]]},"properties":{"name":"Strada Unirii","highway":"residential","custom-speed":"50","maxspeed":"RO:urban","number-of-cars":"0","profile":"car","distance":"257.2741","time":"153.6461"}},{"type":"Feature","name":"ShapeMeta","geometry":{"type":"LineString","coordinates":[[23.62889,46.76791],[23.62887,46.76822]]},"properties":{"highway":"residential","custom-speed":"50","maxspeed":"RO:urban","number-of-cars":"0","profile":"car","distance":"291.5741","time":"156.1157"}},{"type":"Feature","name":"ShapeMeta","geometry":{"type":"LineString","coordinates":[[23.62887,46.76822],[23.62883,46.76907]]},"properties":{"highway":"residential","custom-speed":"50","maxspeed":"RO:urban","number-of-cars":"0","profile":"car","distance":"386.5741","time":"162.9557"}},{"type":"Feature","name":"ShapeMeta","geometry":{"type":"LineString","coordinates":[[23.62883,46.76907],[23.62888,46.76908],[23.6292,46.76924]]},"properties":{"highway":"residential","custom-speed":"50","maxspeed":"RO:urban","number-of-cars":"0","profile":"car","distance":"420.7741","time":"165.4181"}},{"type":"Feature","name":"ShapeMeta","geometry":{"type":"LineString","coordinates":[[23.6292,46.76924],[23.62876,46.76954],[23.62866,46.76961]]},"properties":{"name":"Strada Alexandru Vaida Voevod","highway":"residential","custom-speed":"50","maxspeed":"RO:urban","number-of-cars":"0","profile":"car","distance":"479.3741","time":"169.6373"}},{"type":"Feature","name":"ShapeMeta","geometry":{"type":"LineString","coordinates":[[23.62866,46.76961],[23.62863,46.76963]]},"properties":{"name":"Strada Alexandru Vaida Voevod","highway":"residential","custom-speed":"50","maxspeed":"RO:urban","number-of-cars":"0","profile":"car","distance":"482.6741","time":"169.8749"}},{"type":"Feature","name":"ShapeMeta","geometry":{"type":"LineString","coordinates":[[23.62863,46.76963],[23.62821,46.76992],[23.62814,46.76997]]},"properties":{"name":"Strada Alexandru Vaida Voevod","highway":"residential","custom-speed":"50","maxspeed":"RO:urban","number-of-cars":"0","profile":"car","distance":"535.4741","time":"173.6765"}},{"type":"Feature","name":"ShapeMeta","geometry":{"type":"LineString","coordinates":[[23.62814,46.76997],[23.62802,46.77005],[23.62792,46.77012]]},"properties":{"name":"Strada Alexandru Vaida Voevod","highway":"residential","custom-speed":"50","maxspeed":"RO:urban","number-of-cars":"0","profile":"car","distance":"558.6741","time":"175.3469"}},{"type":"Feature","name":"ShapeMeta","geometry":{"type":"LineString","coordinates":[[23.62792,46.77012],[23.62773,46.77024]]},"properties":{"name":"Strada Alexandru Vaida Voevod","highway":"residential","custom-speed":"50","maxspeed":"RO:urban","number-of-cars":"0","profile":"car","distance":"578.4741","time":"176.7725"}},{"type":"Feature","name":"ShapeMeta","geometry":{"type":"LineString","coordinates":[[23.62773,46.77024],[23.62669,46.77087],[23.62658,46.77093],[23.62654,46.77095]]},"properties":{"name":"Strada Alexandru Vaida Voevod","highway":"residential","custom-speed":"50","maxspeed":"RO:urban","number-of-cars":"0","profile":"car","distance":"698.4741","time":"185.4125"}},{"type":"Feature","name":"ShapeMeta","geometry":{"type":"LineString","coordinates":[[23.62654,46.77095],[23.6264,46.77102],[23.62561,46.77142]]},"properties":{"name":"Strada Alexandru Vaida Voevod","highway":"residential","custom-speed":"50","maxspeed":"RO:urban","number-of-cars":"0","profile":"car","distance":"786.5741","time":"191.7557"}},{"type":"Feature","name":"ShapeMeta","geometry":{"type":"LineString","coordinates":[[23.62561,46.77142],[23.62541,46.77151],[23.62538,46.77152],[23.62531,46.77155]]},"properties":{"name":"Strada Alexandru Vaida Voevod","highway":"residential","maxspeed":"RO:urban","number-of-cars":"0","custom-speed":"1","profile":"car","distance":"813.6741","time":"289.3157"}},{"type":"Feature","name":"ShapeMeta","geometry":{"type":"LineString","coordinates":[[23.62531,46.77155],[23.62521,46.7716],[23.62504,46.77167],[23.62501,46.77169]]},"properties":{"name":"Strada Alexandru Vaida Voevod","highway":"residential","custom-speed":"50","maxspeed":"RO:urban","number-of-cars":"0","profile":"car","distance":"841.274","time":"291.3029"}},{"type":"Feature","name":"ShapeMeta","geometry":{"type":"LineString","coordinates":[[23.62501,46.77169],[23.62498,46.7717]]},"properties":{"name":"Strada Alexandru Vaida Voevod","highway":"secondary","profile":"car","distance":"843.774","time":"291.4743"}},{"type":"Feature","name":"ShapeMeta","geometry":{"type":"LineString","coordinates":[[23.62498,46.7717],[23.62495,46.77171],[23.62486,46.77176],[23.62476,46.7718]]},"properties":{"name":"Strada Alexandru Vaida Voevod","highway":"residential","custom-speed":"50","maxspeed":"RO:urban","number-of-cars":"0","profile":"car","distance":"864.174","time":"292.9431"}},{"type":"Feature","name":"ShapeMeta","geometry":{"type":"LineString","coordinates":[[23.62476,46.7718],[23.62423,46.77203]]},"properties":{"name":"Strada Alexandru Vaida Voevod","highway":"residential","custom-speed":"50","maxspeed":"RO:urban","number-of-cars":"0","profile":"car","distance":"911.874","time":"296.3775"}},{"type":"Feature","name":"ShapeMeta","geometry":{"type":"LineString","coordinates":[[23.62423,46.77203],[23.62404,46.77217]]},"properties":{"highway":"residential","custom-speed":"50","maxspeed":"RO:urban","number-of-cars":"0","profile":"car","distance":"933.374","time":"297.9255"}},{"type":"Feature","name":"ShapeMeta","geometry":{"type":"LineString","coordinates":[[23.62404,46.77217],[23.62404,46.77221],[23.62398,46.77228],[23.62392,46.77229],[23.62386,46.77229]]},"properties":{"highway":"residential","custom-speed":"50","maxspeed":"RO:urban","number-of-cars":"0","profile":"car","distance":"956.174","time":"299.5671"}},{"type":"Feature","name":"ShapeMeta","geometry":{"type":"LineString","coordinates":[[23.62386,46.77229],[23.6238,46.77228],[23.62375,46.77225],[23.62373,46.77221]]},"properties":{"highway":"residential","custom-speed":"50","maxspeed":"RO:urban","number-of-cars":"0","profile":"car","distance":"970.674","time":"300.6111"}},{"type":"Feature","name":"ShapeMeta","geometry":{"type":"LineString","coordinates":[[23.62373,46.77221],[23.62374,46.77216]]},"properties":{"highway":"residential","custom-speed":"50","maxspeed":"RO:urban","number-of-cars":"0","profile":"car","distance":"975.674","time":"300.9711"}},{"type":"Feature","name":"ShapeMeta","geometry":{"type":"LineString","coordinates":[[23.62374,46.77216],[23.62337,46.77198],[23.62298,46.77183],[23.62234,46.77162]]},"properties":{"name":"Aleea Slănic","highway":"residential","custom-speed":"50","maxspeed":"RO:urban","number-of-cars":"0","profile":"car","distance":"1098.174","time":"309.7911"}},{"type":"Feature","name":"ShapeMeta","geometry":{"type":"LineString","coordinates":[[23.62234,46.77162],[23.62198,46.77151],[23.62101,46.77125],[23.62038,46.771],[23.61947,46.77042],[23.61923,46.7702]]},"properties":{"name":"Aleea Slănic","highway":"residential","custom-speed":"50","maxspeed":"RO:urban","number-of-cars":"0","profile":"car","distance":"1387.474","time":"330.6207"}},{"type":"Feature","name":"ShapeMeta","geometry":{"type":"LineString","coordinates":[[23.61923,46.7702],[23.6191,46.77004],[23.61902,46.76989],[23.61896,46.76976]]},"properties":{"name":"Aleea Slănic","highway":"residential","custom-speed":"50","maxspeed":"RO:urban","number-of-cars":"0","profile":"car","distance":"1441.474","time":"334.5087"}},{"type":"Feature","name":"ShapeMeta","geometry":{"type":"LineString","coordinates":[[23.61896,46.76976],[23.61884,46.76895]]},"properties":{"name":"Aleea Slănic","highway":"residential","custom-speed":"50","maxspeed":"RO:urban","number-of-cars":"0","profile":"car","distance":"1531.774","time":"341.0103"}},{"type":"Feature","name":"ShapeMeta","geometry":{"type":"LineString","coordinates":[[23.61884,46.76895],[23.6187,46.76889],[23.61862,46.76881]]},"properties":{"name":"Bulevardul Nicolae Titulescu","highway":"residential","custom-speed":"50","maxspeed":"RO:urban","number-of-cars":"0","profile":"car","distance":"1555.274","time":"342.7023"}},{"type":"Feature","name":"ShapeMeta","geometry":{"type":"LineString","coordinates":[[23.61862,46.76881],[23.61823,46.76886],[23.61765,46.76895]]},"properties":{"name":"Bulevardul Nicolae Titulescu","highway":"residential","custom-speed":"50","maxspeed":"RO:urban","number-of-cars":"0","profile":"car","distance":"1631.074","time":"348.1599"}},{"type":"Feature","name":"ShapeMeta","geometry":{"type":"LineString","coordinates":[[23.61765,46.76895],[23.61749,46.7697]]},"properties":{"name":"Strada Bistriței","highway":"residential","custom-speed":"50","maxspeed":"RO:urban","number-of-cars":"0","profile":"car","distance":"1715.574","time":"354.2439"}},{"type":"Feature","name":"ShapeMeta","geometry":{"type":"LineString","coordinates":[[23.61749,46.7697],[23.61745,46.76986],[23.6174,46.77007]]},"properties":{"name":"Strada Bistriței","highway":"residential","custom-speed":"50","maxspeed":"RO:urban","number-of-cars":"0","profile":"car","distance":"1756.674","time":"357.2031"}},{"type":"Feature","name":"ShapeMeta","geometry":{"type":"LineString","coordinates":[[23.6174,46.77007],[23.61731,46.77047]]},"properties":{"name":"Strada Bistriței","highway":"residential","custom-speed":"50","maxspeed":"RO:urban","number-of-cars":"0","profile":"car","distance":"1802.074","time":"360.4719"}},{"type":"Feature","name":"ShapeMeta","geometry":{"type":"LineString","coordinates":[[23.61731,46.77047],[23.61716,46.77114]]},"properties":{"name":"Strada Bistriței","highway":"residential","custom-speed":"50","maxspeed":"RO:urban","number-of-cars":"0","profile":"car","distance":"1876.674","time":"365.8431"}},{"type":"Feature","name":"ShapeMeta","geometry":{"type":"LineString","coordinates":[[23.61716,46.77114],[23.61571,46.77114]]},"properties":{"name":"Strada Actorului","highway":"residential","custom-speed":"50","maxspeed":"RO:urban","number-of-cars":"0","profile":"car","distance":"1987.174","time":"373.7991"}},{"type":"Feature","name":"ShapeMeta","geometry":{"type":"LineString","coordinates":[[23.61571,46.77114],[23.61295,46.77115]]},"properties":{"name":"Strada Actorului","highway":"residential","custom-speed":"50","maxspeed":"RO:urban","number-of-cars":"0","profile":"car","distance":"2197.574","time":"388.9479"}},{"type":"Feature","name":"ShapeMeta","geometry":{"type":"LineString","coordinates":[[23.61295,46.77115],[23.61299,46.77032]]},"properties":{"name":"Strada Arieșului","highway":"residential","custom-speed":"50","maxspeed":"RO:urban","number-of-cars":"0","profile":"car","distance":"2290.474","time":"395.6367"}},{"type":"Feature","name":"ShapeMeta","geometry":{"type":"LineString","coordinates":[[23.61299,46.77032],[23.613,46.76997]]},"properties":{"name":"Strada Arieșului","highway":"residential","custom-speed":"50","maxspeed":"RO:urban","number-of-cars":"0","profile":"car","distance":"2329.474","time":"398.4447"}},{"type":"Feature","name":"ShapeMeta","geometry":{"type":"LineString","coordinates":[[23.613,46.76997],[23.61304,46.76944]]},"properties":{"name":"Strada Arieșului","highway":"residential","custom-speed":"50","maxspeed":"RO:urban","number-of-cars":"0","profile":"car","distance":"2388.074","time":"402.6639"}},{"type":"Feature","name":"ShapeMeta","geometry":{"type":"LineString","coordinates":[[23.61304,46.76944],[23.61288,46.76944],[23.6123,46.76944]]},"properties":{"name":"Bulevardul Nicolae Titulescu","highway":"residential","custom-speed":"50","maxspeed":"RO:urban","number-of-cars":"0","profile":"car","distance":"2444.374","time":"406.7175"}},{"type":"Feature","name":"ShapeMeta","geometry":{"type":"LineString","coordinates":[[23.6123,46.76944],[23.61166,46.76941]]},"properties":{"name":"Bulevardul Nicolae Titulescu","highway":"residential","custom-speed":"50","maxspeed":"RO:urban","number-of-cars":"0","profile":"car","distance":"2493.274","time":"410.2383"}},{"type":"Feature","name":"ShapeMeta","geometry":{"type":"LineString","coordinates":[[23.61166,46.76941],[23.60995,46.76929],[23.6097,46.76928],[23.60956,46.76926]]},"properties":{"name":"Bulevardul Nicolae Titulescu","highway":"residential","custom-speed":"50","maxspeed":"RO:urban","number-of-cars":"0","profile":"car","distance":"2653.574","time":"421.7799"}},{"type":"Feature","name":"ShapeMeta","geometry":{"type":"LineString","coordinates":[[23.60956,46.76926],[23.60929,46.76935]]},"properties":{"name":"Bulevardul Nicolae Titulescu","highway":"residential","custom-speed":"50","maxspeed":"RO:urban","number-of-cars":"0","profile":"car","distance":"2676.774","time":"423.4503"}},{"type":"Feature","name":"ShapeMeta","geometry":{"type":"LineString","coordinates":[[23.60929,46.76935],[23.60924,46.76938],[23.60916,46.7694]]},"properties":{"name":"Bulevardul Nicolae Titulescu","highway":"residential","custom-speed":"50","maxspeed":"RO:urban","number-of-cars":"0","profile":"car","distance":"2688.274","time":"424.2783"}},{"type":"Feature","name":"ShapeMeta","geometry":{"type":"LineString","coordinates":[[23.60916,46.7694],[23.6091,46.76941],[23.60898,46.76938],[23.60891,46.76934]]},"properties":{"name":"Bulevardul Nicolae Titulescu","highway":"residential","custom-speed":"50","maxspeed":"RO:urban","number-of-cars":"0","profile":"car","distance":"2709.174","time":"425.7831"}},{"type":"Feature","name":"ShapeMeta","geometry":{"type":"LineString","coordinates":[[23.60891,46.76934],[23.60863,46.7692]]},"properties":{"name":"Bulevardul Nicolae Titulescu","highway":"residential","custom-speed":"50","maxspeed":"RO:urban","number-of-cars":"0","profile":"car","distance":"2734.974","time":"427.6407"}},{"type":"Feature","name":"ShapeMeta","geometry":{"type":"LineString","coordinates":[[23.60863,46.7692],[23.60802,46.76916],[23.60688,46.76905],[23.60649,46.769]]},"properties":{"name":"Bulevardul Nicolae Titulescu","highway":"residential","custom-speed":"50","maxspeed":"RO:urban","number-of-cars":"0","profile":"car","distance":"2899.974","time":"439.5207"}},{"type":"Feature","name":"ShapeMeta","geometry":{"type":"LineString","coordinates":[[23.60649,46.769],[23.60593,46.76892]]},"properties":{"name":"Bulevardul Nicolae Titulescu","highway":"residential","custom-speed":"50","maxspeed":"RO:urban","number-of-cars":"0","profile":"car","distance":"2943.074","time":"442.6239"}},{"type":"Feature","name":"ShapeMeta","geometry":{"type":"LineString","coordinates":[[23.60593,46.76892],[23.60476,46.76869]]},"properties":{"name":"Bulevardul Nicolae Titulescu","highway":"residential","custom-speed":"50","maxspeed":"RO:urban","number-of-cars":"0","profile":"car","distance":"3036.374","time":"449.3415"}},{"type":"Feature","name":"ShapeMeta","geometry":{"type":"LineString","coordinates":[[23.60476,46.76869],[23.60439,46.7686],[23.6036,46.76839],[23.60316,46.76827]]},"properties":{"name":"Bulevardul Nicolae Titulescu","highway":"residential","custom-speed":"50","maxspeed":"RO:urban","number-of-cars":"0","profile":"car","distance":"3166.274","time":"458.6943"}},{"type":"Feature","name":"ShapeMeta","geometry":{"type":"LineString","coordinates":[[23.60316,46.76827],[23.60284,46.76818]]},"properties":{"name":"Bulevardul Nicolae Titulescu","highway":"residential","custom-speed":"50","maxspeed":"RO:urban","number-of-cars":"0","profile":"car","distance":"3192.774","time":"460.6023"}},{"type":"Feature","name":"ShapeMeta","geometry":{"type":"LineString","coordinates":[[23.60284,46.76818],[23.60279,46.76817]]},"properties":{"name":"Bulevardul Nicolae Titulescu","highway":"residential","custom-speed":"50","maxspeed":"RO:urban","number-of-cars":"0","profile":"car","distance":"3196.874","time":"460.8975"}},{"type":"Feature","name":"ShapeMeta","geometry":{"type":"LineString","coordinates":[[23.60279,46.76817],[23.60263,46.76815],[23.60229,46.76805]]},"properties":{"name":"Bulevardul Nicolae Titulescu","highway":"residential","custom-speed":"50","maxspeed":"RO:urban","number-of-cars":"0","profile":"car","distance":"3236.674","time":"463.7631"}},{"type":"Feature","name":"ShapeMeta","geometry":{"type":"LineString","coordinates":[[23.60229,46.76805],[23.60142,46.76781],[23.60111,46.76773]]},"properties":{"name":"Bulevardul Nicolae Titulescu","highway":"residential","custom-speed":"50","maxspeed":"RO:urban","number-of-cars":"0","profile":"car","distance":"3333.774","time":"470.7543"}},{"type":"Feature","name":"ShapeMeta","geometry":{"type":"LineString","coordinates":[[23.60111,46.76773],[23.60096,46.76769]]},"properties":{"name":"Bulevardul Nicolae Titulescu","highway":"residential","custom-speed":"50","maxspeed":"RO:urban","number-of-cars":"0","profile":"car","distance":"3345.674","time":"471.6111"}},{"type":"Feature","name":"ShapeMeta","geometry":{"type":"LineString","coordinates":[[23.60096,46.76769],[23.60023,46.76751],[23.60008,46.7675]]},"properties":{"name":"Bulevardul Nicolae Titulescu","highway":"residential","custom-speed":"50","maxspeed":"RO:urban","number-of-cars":"0","profile":"car","distance":"3416.474","time":"476.7087"}},{"type":"Feature","name":"ShapeMeta","geometry":{"type":"LineString","coordinates":[[23.60008,46.7675],[23.59995,46.76754],[23.59993,46.76756]]},"properties":{"name":"Piața Timotei Cipariu","highway":"residential","maxspeed":"RO:urban","number-of-cars":"0","custom-speed":"1","profile":"car","distance":"3429.325","time":"522.9736"}},{"type":"Feature","name":"Stop","Shape":"0","geometry":{"type":"Point","coordinates":[23.63103,46.76819]},"properties":{"distance":"0","time":"0"}},{"type":"Feature","name":"Stop","Shape":"117","geometry":{"type":"Point","coordinates":[23.59993,46.76755]},"properties":{"distance":"3429.325","time":"522.9736"}}]}