{"type":"FeatureCollection","features":[{"type":"Feature","name":"ShapeMeta","geometry":{"type":"LineString","coordinates":[[23.63093,46.76816],[23.63088,46.76832],[23.63094,46.76848]]},"properties":{"name":"Strada Alexandru Vaida Voevod","highway":"residential","custom-speed":"50","maxspeed":"RO:urban","number-of-cars":"0","profile":"car","distance":"36.47415","time":"2.626138"}},{"type":"Feature","name":"ShapeMeta","geometry":{"type":"LineString","coordinates":[[23.63094,46.76848],[23.63092,46.76857],[23.63088,46.76864],[23.63078,46.76871]]},"properties":{"name":"Strada Alexandru Vaida Voevod","highway":"residential","maxspeed":"RO:urban","number-of-cars":"0","custom-speed":"1","profile":"car","distance":"65.77415","time":"108.1061"}},{"type":"Feature","name":"ShapeMeta","geometry":{"type":"LineString","coordinates":[[23.63078,46.76871],[23.63056,46.76866],[23.63029,46.76861]]},"properties":{"name":"Strada Lucia Sturdza Bulandra","highway":"residential","custom-speed":"50","maxspeed":"RO:urban","number-of-cars":"0","profile":"car","distance":"104.0741","time":"110.8637"}},{"type":"Feature","name":"ShapeMeta","geometry":{"type":"LineString","coordinates":[[23.63029,46.76861],[23.63026,46.76863]]},"properties":{"name":"Strada Unirii","highway":"residential","custom-speed":"50","maxspeed":"RO:urban","number-of-cars":"0","profile":"car","distance":"107.1741","time":"111.0869"}},{"type":"Feature","name":"ShapeMeta","geometry":{"type":"LineString","coordinates":[[23.63026,46.76863],[23.63024,46.76864],[23.63018,46.76866],[23.6301,46.76866]]},"properties":{"name":"Strada Unirii","highway":"residential","custom-speed":"50","maxspeed":"RO:urban","number-of-cars":"0","profile":"car","distance":"120.6741","time":"112.0589"}},{"type":"Feature","name":"ShapeMeta","geometry":{"type":"LineString","coordinates":[[23.6301,46.76866],[23.63007,46.76865]]},"properties":{"name":"Strada Unirii","highway":"residential","custom-speed":"50","maxspeed":"RO:urban","number-of-cars":"0","profile":"car","distance":"123.2741","time":"112.2461"}},{"type":"Feature","name":"ShapeMeta","geometry":{"type":"LineString","coordinates":[[23.63007,46.76865],[23.62981,46.7688]]},"properties":{"name":"Strada Unirii","highway":"residential","custom-speed":"50","maxspeed":"RO:urban","number-of-cars":"0","profile":"car","distance":"149.1741","time":"114.1109"}},{"type":"Feature","name":"ShapeMeta","geometry":{"type":"LineString","coordinates":[[23.62981,46.7688],[23.62969,46.76889]]},"properties":{"name":"Strada Alexandru Vaida Voevod","highway":"residential","custom-speed":"50","maxspeed":"RO:urban","number-of-cars":"0","profile":"car","distance":"162.4741","time":"115.0685"}},{"type":"Feature","name":"ShapeMeta","geometry":{"type":"LineString","coordinates":[[23.62969,46.76889],[23.62926,46.7692]]},"properties":{"name":"Strada Alexandru Vaida Voevod","highway":"residential","custom-speed":"50","maxspeed":"RO:urban","number-of-cars":"0","profile":"car","distance":"209.5741","time":"118.4597"}},{"type":"Feature","name":"ShapeMeta","geometry":{"type":"LineString","coordinates":[[23.62926,46.7692],[23.6292,46.76924]]},"properties":{"name":"Strada Alexandru Vaida Voevod","highway":"residential","custom-speed":"50","maxspeed":"RO:urban","number-of-cars":"0","profile":"car","distance":"215.7741","time":"118.9061"}},{"type":"Feature","name":"ShapeMeta","geometry":{"type":"LineString","coordinates":[[23.6292,46.76924],[23.62876,46.76954],[23.62866,46.76961]]},"properties":{"name":"Strada Alexandru Vaida Voevod","highway":"residential","custom-speed":"50","maxspeed":"RO:urban","number-of-cars":"0","profile":"car","distance":"274.3741","time":"123.1253"}},{"type":"Feature","name":"ShapeMeta","geometry":{"type":"LineString","coordinates":[[23.62866,46.76961],[23.62863,46.76963]]},"properties":{"name":"Strada Alexandru Vaida Voevod","highway":"residential","custom-speed":"50","maxspeed":"RO:urban","number-of-cars":"0","profile":"car","distance":"277.6741","time":"123.3629"}},{"type":"Feature","name":"ShapeMeta","geometry":{"type":"LineString","coordinates":[[23.62863,46.76963],[23.62821,46.76992],[23.62814,46.76997]]},"properties":{"name":"Strada Alexandru Vaida Voevod","highway":"residential","custom-speed":"50","maxspeed":"RO:urban","number-of-cars":"0","profile":"car","distance":"330.4741","time":"127.1645"}},{"type":"Feature","name":"ShapeMeta","geometry":{"type":"LineString","coordinates":[[23.62814,46.76997],[23.62802,46.77005],[23.62792,46.77012]]},"properties":{"name":"Strada Alexandru Vaida Voevod","highway":"residential","custom-speed":"50","maxspeed":"RO:urban","number-of-cars":"0","profile":"car","distance":"353.6741","time":"128.8349"}},{"type":"Feature","name":"ShapeMeta","geometry":{"type":"LineString","coordinates":[[23.62792,46.77012],[23.62773,46.77024]]},"properties":{"name":"Strada Alexandru Vaida Voevod","highway":"residential","custom-speed":"50","maxspeed":"RO:urban","number-of-cars":"0","profile":"car","distance":"373.4741","time":"130.2605"}},{"type":"Feature","name":"ShapeMeta","geometry":{"type":"LineString","coordinates":[[23.62773,46.77024],[23.6275,46.7702],[23.62711,46.77015],[23.62689,46.77015],[23.62665,46.77026],[23.62655,46.77028],[23.62636,46.77028],[23.62627,46.77028]]},"properties":{"name":"Aleea Herculane","highway":"residential","custom-speed":"50","maxspeed":"RO:urban","number-of-cars":"0","profile":"car","distance":"489.6741","time":"138.6269"}},{"type":"Feature","name":"ShapeMeta","geometry":{"type":"LineString","coordinates":[[23.62627,46.77028],[23.62603,46.77028],[23.62589,46.77024]]},"properties":{"name":"Aleea Herculane","highway":"residential","custom-speed":"50","maxspeed":"RO:urban","number-of-cars":"0","profile":"car","distance":"518.8741","time":"140.7293"}},{"type":"Feature","name":"ShapeMeta","geometry":{"type":"LineString","coordinates":[[23.62589,46.77024],[23.6259,46.77005],[23.62597,46.76955],[23.62591,46.76948]]},"properties":{"highway":"residential","custom-speed":"50","maxspeed":"RO:urban","number-of-cars":"0","profile":"car","distance":"605.6741","time":"146.9789"}},{"type":"Feature","name":"ShapeMeta","geometry":{"type":"LineString","coordinates":[[23.62591,46.76948],[23.62572,46.76981]]},"properties":{"name":"Aleea Snagov","highway":"residential","custom-speed":"50","maxspeed":"RO:urban","number-of-cars":"0","profile":"car","distance":"645.4741","time":"149.8445"}},{"type":"Feature","name":"ShapeMeta","geometry":{"type":"LineString","coordinates":[[23.62572,46.76981],[23.62556,46.77011]]},"properties":{"name":"Aleea Snagov","highway":"residential","custom-speed":"50","maxspeed":"RO:urban","number-of-cars":"0","profile":"car","distance":"681.2741","time":"152.4221"}},{"type":"Feature","name":"ShapeMeta","geometry":{"type":"LineString","coordinates":[[23.62556,46.77011],[23.62548,46.77008],[23.62433,46.77011],[23.62414,46.77021],[23.62402,46.77026]]},"properties":{"name":"Aleea Herculane","highway":"residential","custom-speed":"50","maxspeed":"RO:urban","number-of-cars":"0","profile":"car","distance":"804.4741","time":"161.2925"}},{"type":"Feature","name":"ShapeMeta","geometry":{"type":"LineString","coordinates":[[23.62402,46.77026],[23.62411,46.771]]},"properties":{"name":"Aleea Herculane","highway":"residential","maxspeed":"20","profile":"car","distance":"886.9741","time":"181.0925"}},{"type":"Feature","name":"ShapeMeta","geometry":{"type":"LineString","coordinates":[[23.62411,46.771],[23.62494,46.77099]]},"properties":{"name":"Aleea Herculane","highway":"residential","maxspeed":"20","profile":"car","distance":"950.2741","time":"196.2845"}},{"type":"Feature","name":"ShapeMeta","geometry":{"type":"LineString","coordinates":[[23.62494,46.77099],[23.62504,46.77099],[23.62524,46.77105],[23.62561,46.77142]]},"properties":{"name":"Aleea Herculane","highway":"residential","maxspeed":"20","profile":"car","distance":"1024.174","time":"214.0205"}},{"type":"Feature","name":"ShapeMeta","geometry":{"type":"LineString","coordinates":[[23.62561,46.77142],[23.62541,46.77151],[23.62538,46.77152],[23.62531,46.77155]]},"properties":{"name":"Strada Alexandru Vaida Voevod","highway":"residential","custom-speed":"50","maxspeed":"RO:urban","number-of-cars":"0","profile":"car","distance":"1051.274","time":"215.9717"}},{"type":"Feature","name":"ShapeMeta","geometry":{"type":"LineString","coordinates":[[23.62531,46.77155],[23.62521,46.7716],[23.62504,46.77167],[23.62501,46.77169]]},"properties":{"name":"Strada Alexandru Vaida Voevod","highway":"residential","custom-speed":"50","maxspeed":"RO:urban","number-of-cars":"0","profile":"car","distance":"1078.874","time":"217.9589"}},{"type":"Feature","name":"ShapeMeta","geometry":{"type":"LineString","coordinates":[[23.62501,46.77169],[23.62498,46.7717]]},"properties":{"name":"Strada Alexandru Vaida Voevod","highway":"secondary","profile":"car","distance":"1081.374","time":"218.1303"}},{"type":"Feature","name":"ShapeMeta","geometry":{"type":"LineString","coordinates":[[23.62498,46.7717],[23.62495,46.77171],[23.62486,46.77176],[23.62476,46.7718]]},"properties":{"name":"Strada Alexandru Vaida Voevod","highway":"residential","custom-speed":"50","maxspeed":"RO:urban","number-of-cars":"0","profile":"car","distance":"1101.774","time":"219.5991"}},{"type":"Feature","name":"ShapeMeta","geometry":{"type":"LineString","coordinates":[[23.62476,46.7718],[23.62423,46.77203]]},"properties":{"name":"Strada Alexandru Vaida Voevod","highway":"residential","custom-speed":"50","maxspeed":"RO:urban","number-of-cars":"0","profile":"car","distance":"1149.474","time":"223.0335"}},{"type":"Feature","name":"ShapeMeta","geometry":{"type":"LineString","coordinates":[[23.62423,46.77203],[23.62404,46.77217]]},"properties":{"highway":"residential","custom-speed":"50","maxspeed":"RO:urban","number-of-cars":"0","profile":"car","distance":"1170.974","time":"224.5815"}},{"type":"Feature","name":"ShapeMeta","geometry":{"type":"LineString","coordinates":[[23.62404,46.77217],[23.62404,46.77221],[23.62398,46.77228],[23.62392,46.77229],[23.62386,46.77229]]},"properties":{"highway":"residential","custom-speed":"50","maxspeed":"RO:urban","number-of-cars":"0","profile":"car","distance":"1193.774","time":"226.2231"}},{"type":"Feature","name":"ShapeMeta","geometry":{"type":"LineString","coordinates":[[23.62386,46.77229],[23.62356,46.77237]]},"properties":{"highway":"residential","custom-speed":"50","maxspeed":"RO:urban","number-of-cars":"0","profile":"car","distance":"1217.774","time":"227.9511"}},{"type":"Feature","name":"ShapeMeta","geometry":{"type":"LineString","coordinates":[[23.62356,46.77237],[23.6234,46.77246],[23.62284,46.77275]]},"properties":{"name":"Strada Teodor Mihali","highway":"residential","custom-speed":"50","maxspeed":"RO:urban","number-of-cars":"0","profile":"car","distance":"1286.874","time":"232.9263"}},{"type":"Feature","name":"ShapeMeta","geometry":{"type":"LineString","coordinates":[[23.62284,46.77275],[23.62257,46.77291]]},"properties":{"name":"Strada Teodor Mihali","highway":"residential","custom-speed":"50","maxspeed":"RO:urban","number-of-cars":"0","profile":"car","distance":"1314.174","time":"234.8919"}},{"type":"Feature","name":"ShapeMeta","geometry":{"type":"LineString","coordinates":[[23.62257,46.77291],[23.6224,46.77305]]},"properties":{"name":"Strada Teodor Mihali","highway":"residential","custom-speed":"50","maxspeed":"RO:urban","number-of-cars":"0","profile":"car","distance":"1334.374","time":"236.3463"}},{"type":"Feature","name":"ShapeMeta","geometry":{"type":"LineString","coordinates":[[23.6224,46.77305],[23.62228,46.77317],[23.62217,46.77334],[23.622,46.77365]]},"properties":{"name":"Strada Teodor Mihali","highway":"residential","custom-speed":"50","maxspeed":"RO:urban","number-of-cars":"0","profile":"car","distance":"1407.574","time":"241.6167"}},{"type":"Feature","name":"ShapeMeta","geometry":{"type":"LineString","coordinates":[[23.622,46.77365],[23.62194,46.77375],[23.62167,46.77438],[23.62165,46.77441]]},"properties":{"name":"Strada Teodor Mihali","highway":"residential","custom-speed":"50","maxspeed":"RO:urban","number-of-cars":"0","profile":"car","distance":"1496.974","time":"248.0535"}},{"type":"Feature","name":"ShapeMeta","geometry":{"type":"LineString","coordinates":[[23.62165,46.77441],[23.62141,46.77494],[23.62125,46.77527]]},"properties":{"name":"Strada Teodor Mihali","highway":"residential","custom-speed":"50","maxspeed":"RO:urban","number-of-cars":"0","profile":"car","distance":"1596.674","time":"255.2319"}},{"type":"Feature","name":"ShapeMeta","geometry":{"type":"LineString","coordinates":[[23.62125,46.77527],[23.62076,46.77635]]},"properties":{"name":"Strada Teodor Mihali","highway":"residential","custom-speed":"50","maxspeed":"RO:urban","number-of-cars":"0","profile":"car","distance":"1722.374","time":"264.2823"}},{"type":"Feature","name":"ShapeMeta","geometry":{"type":"LineString","coordinates":[[23.62076,46.77635],[23.62072,46.77645]]},"properties":{"name":"Strada Teodor Mihali","highway":"residential","custom-speed":"50","maxspeed":"RO:urban","number-of-cars":"0","profile":"car","distance":"1733.874","time":"265.1103"}},{"type":"Feature","name":"ShapeMeta","geometry":{"type":"LineString","coordinates":[[23.62072,46.77645],[23.6207,46.77648]]},"properties":{"name":"Strada Teodor Mihali","highway":"residential","custom-speed":"50","maxspeed":"RO:urban","number-of-cars":"0","profile":"car","distance":"1737.374","time":"265.3623"}},{"type":"Feature","name":"ShapeMeta","geometry":{"type":"LineString","coordinates":[[23.6207,46.77648],[23.62058,46.77675]]},"properties":{"name":"Strada Teodor Mihali","highway":"residential","custom-speed":"50","maxspeed":"RO:urban","number-of-cars":"0","profile":"car","distance":"1769.374","time":"267.6663"}},{"type":"Feature","name":"ShapeMeta","geometry":{"type":"LineString","coordinates":[[23.62058,46.77675],[23.62051,46.7769]]},"properties":{"name":"Strada Teodor Mihali","highway":"residential","custom-speed":"50","maxspeed":"RO:urban","number-of-cars":"0","profile":"car","distance":"1786.674","time":"268.9119"}},{"type":"Feature","name":"ShapeMeta","geometry":{"type":"LineString","coordinates":[[23.62051,46.7769],[23.61981,46.77669]]},"properties":{"name":"Strada Venus","highway":"residential","profile":"car","distance":"1844.974","time":"274.5087"}},{"type":"Feature","name":"ShapeMeta","geometry":{"type":"LineString","coordinates":[[23.61981,46.77669],[23.6194,46.77648],[23.61891,46.77617]]},"properties":{"name":"Strada Venus","highway":"residential","profile":"car","distance":"1934.674","time":"283.1199"}},{"type":"Feature","name":"ShapeMeta","geometry":{"type":"LineString","coordinates":[[23.61891,46.77617],[23.61857,46.77596],[23.61832,46.77581]]},"properties":{"name":"Strada Venus","highway":"residential","profile":"car","distance":"1994.974","time":"288.9087"}},{"type":"Feature","name":"ShapeMeta","geometry":{"type":"LineString","coordinates":[[23.61832,46.77581],[23.61653,46.77468]]},"properties":{"name":"Strada Venus","highway":"residential","profile":"car","distance":"2180.374","time":"306.7071"}},{"type":"Feature","name":"ShapeMeta","geometry":{"type":"LineString","coordinates":[[23.61653,46.77468],[23.61653,46.77468],[23.61645,46.77471],[23.6164,46.77469],[23.61639,46.77468]]},"properties":{"oneway":"yes","highway":"residential","junction":"roundabout","profile":"car","distance":"2193.674","time":"307.9839"}},{"type":"Feature","name":"ShapeMeta","geometry":{"type":"LineString","coordinates":[[23.61639,46.77468],[23.61289,46.77431],[23.61276,46.7743]]},"properties":{"name":"Strada Baladei","highway":"residential","maxspeed":"50","profile":"car","distance":"2472.674","time":"334.7679"}},{"type":"Feature","name":"ShapeMeta","geometry":{"type":"LineString","coordinates":[[23.61276,46.7743],[23.61255,46.77424],[23.61219,46.774],[23.61147,46.77356]]},"properties":{"name":"Piața Fraternității","oneway":"yes","highway":"residential","profile":"car","distance":"2602.074","time":"347.1903"}},{"type":"Feature","name":"ShapeMeta","geometry":{"type":"LineString","coordinates":[[23.61147,46.77356],[23.61127,46.77346],[23.6107,46.77317],[23.61055,46.77306],[23.61035,46.77278],[23.61027,46.77273],[23.6098,46.77253],[23.6096,46.77237]]},"properties":{"name":"Strada Semenicului","highway":"residential","profile":"car","distance":"2800.374","time":"366.2271"}},{"type":"Feature","name":"ShapeMeta","geometry":{"type":"LineString","coordinates":[[23.6096,46.77237],[23.6095,46.7723],[23.60935,46.77214],[23.60915,46.77184],[23.60905,46.77166]]},"properties":{"name":"Strada Semenicului","highway":"residential","profile":"car","distance":"2890.474","time":"374.8767"}},{"type":"Feature","name":"ShapeMeta","geometry":{"type":"LineString","coordinates":[[23.60905,46.77166],[23.60904,46.77166],[23.60902,46.77166],[23.60898,46.77165],[23.60897,46.77164],[23.60897,46.77164]]},"properties":{"highway":"residential","junction":"roundabout","profile":"car","distance":"2897.874","time":"375.5871"}},{"type":"Feature","name":"ShapeMeta","geometry":{"type":"LineString","coordinates":[[23.60897,46.77164],[23.60883,46.77168],[23.60821,46.7718],[23.60811,46.77182]]},"properties":{"name":"Strada Aurel Suciu","highway":"residential","profile":"car","distance":"2966.274","time":"382.1535"}},{"type":"Feature","name":"ShapeMeta","geometry":{"type":"LineString","coordinates":[[23.60811,46.77182],[23.60765,46.7719]]},"properties":{"name":"Strada Aurel Suciu","highway":"residential","profile":"car","distance":"3002.474","time":"385.6287"}},{"type":"Feature","name":"ShapeMeta","geometry":{"type":"LineString","coordinates":[[23.60765,46.7719],[23.60728,46.77167],[23.60647,46.77129],[23.60616,46.77117],[23.60492,46.77075]]},"properties":{"name":"Strada General Traian Moșoiu","highway":"residential","profile":"car","distance":"3248.274","time":"409.2255"}},{"type":"Feature","name":"ShapeMeta","geometry":{"type":"LineString","coordinates":[[23.60492,46.77075],[23.60476,46.77069],[23.60319,46.77],[23.60225,46.76968]]},"properties":{"name":"Strada General Traian Moșoiu","oneway":"yes","highway":"residential","profile":"car","distance":"3484.074","time":"431.8623"}},{"type":"Feature","name":"ShapeMeta","geometry":{"type":"LineString","coordinates":[[23.60225,46.76968],[23.60168,46.76947]]},"properties":{"name":"Strada General Traian Moșoiu","oneway":"yes","highway":"residential","profile":"car","distance":"3533.274","time":"436.5855"}},{"type":"Feature","name":"ShapeMeta","geometry":{"type":"LineString","coordinates":[[23.60168,46.76947],[23.60026,46.76905]]},"properties":{"name":"Strada General Traian Moșoiu","highway":"residential","profile":"car","distance":"3651.274","time":"447.9135"}},{"type":"Feature","name":"ShapeMeta","geometry":{"type":"LineString","coordinates":[[23.60026,46.76905],[23.59937,46.7688],[23.59921,46.76876],[23.59908,46.76872]]},"properties":{"name":"Strada General Traian Moșoiu","highway":"residential","profile":"car","distance":"3748.274","time":"457.2255"}},{"type":"Feature","name":"ShapeMeta","geometry":{"type":"LineString","coordinates":[[23.59908,46.76872],[23.59887,46.76865],[23.598,46.76837],[23.59789,46.76833]]},"properties":{"name":"Strada Posada","highway":"primary","oneway":"yes","profile":"car","distance":"3848.374","time":"462.5641"}},{"type":"Feature","name":"ShapeMeta","geometry":{"type":"LineString","coordinates":[[23.59789,46.76833],[23.59795,46.76815],[23.59795,46.76814]]},"properties":{"highway":"primary","oneway":"yes","profile":"car","distance":"3870.074","time":"463.7214"}},{"type":"Feature","name":"ShapeMeta","geometry":{"type":"LineString","coordinates":[[23.59795,46.76814],[23.59797,46.76807]]},"properties":{"highway":"primary","oneway":"yes","profile":"car","distance":"3877.874","time":"464.1374"}},{"type":"Feature","name":"ShapeMeta","geometry":{"type":"LineString","coordinates":[[23.59797,46.76807],[23.59806,46.76791],[23.59818,46.76771],[23.59829,46.76751]]},"properties":{"name":"Piața Ștefan cel Mare","oneway":"yes","highway":"primary_link","profile":"car","distance":"3944.674","time":"467.7"}},{"type":"Feature","name":"ShapeMeta","geometry":{"type":"LineString","coordinates":[[23.59829,46.76751],[23.59851,46.76738],[23.59865,46.76732],[23.59881,46.76727]]},"properties":{"name":"Piața Ștefan cel Mare","oneway":"yes","highway":"primary_link","profile":"car","distance":"3992.974","time":"470.276"}},{"type":"Feature","name":"ShapeMeta","geometry":{"type":"LineString","coordinates":[[23.59881,46.76727],[23.59944,46.76739]]},"properties":{"name":"Strada Milton Lehrer","highway":"primary","oneway":"yes","profile":"car","distance":"4043.174","time":"472.9533"}},{"type":"Feature","name":"ShapeMeta","geometry":{"type":"LineString","coordinates":[[23.59944,46.76739],[23.5996,46.76748],[23.59968,46.76762],[23.59969,46.76768],[23.59968,46.76774]]},"properties":{"oneway":"yes","highway":"primary_link","profile":"car","distance":"4088.974","time":"475.396"}},{"type":"Feature","name":"ShapeMeta","geometry":{"type":"LineString","coordinates":[[23.59968,46.76774],[23.59976,46.76766],[23.59993,46.76756]]},"properties":{"name":"Piața Timotei Cipariu","highway":"residential","maxspeed":"RO:urban","number-of-cars":"0","custom-speed":"1","profile":"car","distance":"4117.023","time":"576.3712"}},{"type":"Feature","name":"Stop","Shape":"0","geometry":{"type":"Point","coordinates":[23.63103,46.76819]},"properties":{"distance":"0","time":"0"}},{"type":"Feature","name":"Stop","Shape":"147","geometry":{"type":"Point","coordinates":[23.59993,46.76755]},"properties":{"distance":"4117.023","time":"576.3712"}}]}