{"type":"FeatureCollection","features":[{"type":"Feature","name":"ShapeMeta","geometry":{"type":"LineString","coordinates":[[23.63093,46.76816],[23.63088,46.76832],[23.63094,46.76848]]},"properties":{"name":"Strada Alexandru Vaida Voevod","highway":"residential","custom-speed":"50","maxspeed":"RO:urban","number-of-cars":"0","profile":"car","distance":"36.47415","time":"2.626138"}},{"type":"Feature","name":"ShapeMeta","geometry":{"type":"LineString","coordinates":[[23.63094,46.76848],[23.63092,46.76857],[23.63088,46.76864],[23.63078,46.76871]]},"properties":{"name":"Strada Alexandru Vaida Voevod","highway":"residential","custom-speed":"50","maxspeed":"RO:urban","number-of-cars":"0","profile":"car","distance":"65.77415","time":"4.735738"}},{"type":"Feature","name":"ShapeMeta","geometry":{"type":"LineString","coordinates":[[23.63078,46.76871],[23.63056,46.76866],[23.63029,46.76861]]},"properties":{"name":"Strada Lucia Sturdza Bulandra","highway":"residential","maxspeed":"RO:urban","number-of-cars":"0","custom-speed":"1","profile":"car","distance":"104.0741","time":"142.6157"}},{"type":"Feature","name":"ShapeMeta","geometry":{"type":"LineString","coordinates":[[23.63029,46.76861],[23.63033,46.76855],[23.63033,46.7685]]},"properties":{"name":"Strada Unirii","highway":"residential","custom-speed":"50","maxspeed":"RO:urban","number-of-cars":"0","profile":"car","distance":"116.3741","time":"143.5013"}},{"type":"Feature","name":"ShapeMeta","geometry":{"type":"LineString","coordinates":[[23.63033,46.7685],[23.6303,46.76845],[23.63017,46.76839],[23.63009,46.76839]]},"properties":{"name":"Strada Unirii","highway":"residential","custom-speed":"50","maxspeed":"RO:urban","number-of-cars":"0","profile":"car","distance":"140.4741","time":"145.2365"}},{"type":"Feature","name":"ShapeMeta","geometry":{"type":"LineString","coordinates":[[23.63009,46.76839],[23.6298,46.76824]]},"properties":{"name":"Strada Unirii","highway":"residential","custom-speed":"50","maxspeed":"RO:urban","number-of-cars":"0","profile":"car","distance":"168.5741","time":"147.2597"}},{"type":"Feature","name":"ShapeMeta","geometry":{"type":"LineString","coordinates":[[23.6298,46.76824],[23.62962,46.76809]]},"properties":{"name":"Strada Unirii","highway":"residential","custom-speed":"50","maxspeed":"RO:urban","number-of-cars":"0","profile":"car","distance":"189.3741","time":"148.7573"}},{"type":"Feature","name":"ShapeMeta","geometry":{"type":"LineString","coordinates":[[23.62962,46.76809],[23.62935,46.76798]]},"properties":{"name":"Strada Unirii","highway":"residential","custom-speed":"50","maxspeed":"RO:urban","number-of-cars":"0","profile":"car","distance":"213.5741","time":"150.4997"}},{"type":"Feature","name":"ShapeMeta","geometry":{"type":"LineString","coordinates":[[23.62935,46.76798],[23.62916,46.76793],[23.62897,46.76791],[23.62889,46.76791]]},"properties":{"name":"Strada Unirii","highway":"residential","custom-speed":"50","maxspeed":"RO:urban","number-of-cars":"0","profile":"car","distance":"249.8741","time":"153.1133"}},{"type":"Feature","name":"ShapeMeta","geometry":{"type":"LineString","coordinates":[[23.62889,46.76791],[23.62864,46.76791],[23.62848,46.76791]]},"properties":{"name":"Strada Unirii","highway":"residential","custom-speed":"50","maxspeed":"RO:urban","number-of-cars":"0","profile":"car","distance":"280.6741","time":"155.3309"}},{"type":"Feature","name":"ShapeMeta","geometry":{"type":"LineString","coordinates":[[23.62848,46.76791],[23.62845,46.7679]]},"properties":{"name":"Strada Unirii","highway":"residential","custom-speed":"50","maxspeed":"RO:urban","number-of-cars":"0","profile":"car","distance":"283.3741","time":"155.5253"}},{"type":"Feature","name":"ShapeMeta","geometry":{"type":"LineString","coordinates":[[23.62845,46.7679],[23.62787,46.76788]]},"properties":{"name":"Strada Unirii","highway":"residential","custom-speed":"50","maxspeed":"RO:urban","number-of-cars":"0","profile":"car","distance":"327.3741","time":"158.6933"}},{"type":"Feature","name":"ShapeMeta","geometry":{"type":"LineString","coordinates":[[23.62787,46.76788],[23.6278,46.76788],[23.62664,46.76785],[23.62658,46.76785]]},"properties":{"name":"Strada Unirii","highway":"residential","custom-speed":"50","maxspeed":"RO:urban","number-of-cars":"0","profile":"car","distance":"425.4741","time":"165.7565"}},{"type":"Feature","name":"ShapeMeta","geometry":{"type":"LineString","coordinates":[[23.62658,46.76785],[23.62595,46.76783]]},"properties":{"name":"Strada Unirii","highway":"residential","custom-speed":"50","maxspeed":"RO:urban","number-of-cars":"0","profile":"car","distance":"473.3741","time":"169.2053"}},{"type":"Feature","name":"ShapeMeta","geometry":{"type":"LineString","coordinates":[[23.62595,46.76783],[23.62551,46.76782],[23.62465,46.76789]]},"properties":{"name":"Strada Unirii","highway":"residential","custom-speed":"50","maxspeed":"RO:urban","number-of-cars":"0","profile":"car","distance":"573.2741","time":"176.3981"}},{"type":"Feature","name":"ShapeMeta","geometry":{"type":"LineString","coordinates":[[23.62465,46.76789],[23.62454,46.76772]]},"properties":{"name":"Aleea Bizușa","highway":"residential","custom-speed":"50","maxspeed":"RO:urban","number-of-cars":"0","profile":"car","distance":"593.1741","time":"177.8309"}},{"type":"Feature","name":"ShapeMeta","geometry":{"type":"LineString","coordinates":[[23.62454,46.76772],[23.62403,46.7677]]},"properties":{"name":"Aleea Bizușa","highway":"residential","custom-speed":"50","maxspeed":"RO:urban","number-of-cars":"0","profile":"car","distance":"632.5741","time":"180.6677"}},{"type":"Feature","name":"ShapeMeta","geometry":{"type":"LineString","coordinates":[[23.62403,46.7677],[23.6238,46.76769],[23.62354,46.76769],[23.62331,46.76767]]},"properties":{"name":"Aleea Bizușa","highway":"residential","custom-speed":"50","maxspeed":"RO:urban","number-of-cars":"0","profile":"car","distance":"687.4741","time":"184.6205"}},{"type":"Feature","name":"ShapeMeta","geometry":{"type":"LineString","coordinates":[[23.62331,46.76767],[23.62297,46.76767],[23.62243,46.76766]]},"properties":{"name":"Aleea Bizușa","highway":"residential","custom-speed":"50","maxspeed":"RO:urban","number-of-cars":"0","profile":"car","distance":"754.2741","time":"189.4301"}},{"type":"Feature","name":"ShapeMeta","geometry":{"type":"LineString","coordinates":[[23.62243,46.76766],[23.62214,46.76765]]},"properties":{"name":"Aleea Bizușa","highway":"residential","custom-speed":"50","maxspeed":"RO:urban","number-of-cars":"0","profile":"car","distance":"776.0741","time":"190.9997"}},{"type":"Feature","name":"ShapeMeta","geometry":{"type":"LineString","coordinates":[[23.62214,46.76765],[23.62188,46.76765],[23.62179,46.76765],[23.62168,46.76765]]},"properties":{"name":"Aleea Bizușa","highway":"residential","custom-speed":"50","maxspeed":"RO:urban","number-of-cars":"0","profile":"car","distance":"811.1741","time":"193.5269"}},{"type":"Feature","name":"ShapeMeta","geometry":{"type":"LineString","coordinates":[[23.62168,46.76765],[23.6217,46.76691],[23.6209,46.76691],[23.62094,46.76691]]},"properties":{"highway":"residential","custom-speed":"50","maxspeed":"RO:urban","number-of-cars":"0","profile":"car","distance":"1048.174","time":"210.5909"}},{"type":"Feature","name":"ShapeMeta","geometry":{"type":"LineString","coordinates":[[23.62094,46.76691],[23.62093,46.76765]]},"properties":{"highway":"residential","custom-speed":"50","maxspeed":"RO:urban","number-of-cars":"0","profile":"car","distance":"1129.974","time":"216.4805"}},{"type":"Feature","name":"ShapeMeta","geometry":{"type":"LineString","coordinates":[[23.62093,46.76765],[23.62062,46.76765]]},"properties":{"name":"Aleea Bizușa","highway":"residential","custom-speed":"50","maxspeed":"RO:urban","number-of-cars":"0","profile":"car","distance":"1153.774","time":"218.1941"}},{"type":"Feature","name":"ShapeMeta","geometry":{"type":"LineString","coordinates":[[23.62062,46.76765],[23.62031,46.76762]]},"properties":{"name":"Aleea Bizușa","highway":"residential","custom-speed":"50","maxspeed":"RO:urban","number-of-cars":"0","profile":"car","distance":"1177.674","time":"219.9149"}},{"type":"Feature","name":"ShapeMeta","geometry":{"type":"LineString","coordinates":[[23.62031,46.76762],[23.61922,46.76751]]},"properties":{"name":"Aleea Bizușa","highway":"residential","custom-speed":"50","maxspeed":"RO:urban","number-of-cars":"0","profile":"car","distance":"1261.374","time":"225.9413"}},{"type":"Feature","name":"ShapeMeta","geometry":{"type":"LineString","coordinates":[[23.61922,46.76751],[23.61938,46.76716]]},"properties":{"name":"Strada Liviu Rebreanu","highway":"residential","custom-speed":"50","maxspeed":"RO:urban","number-of-cars":"0","profile":"car","distance":"1302.674","time":"228.9149"}},{"type":"Feature","name":"ShapeMeta","geometry":{"type":"LineString","coordinates":[[23.61938,46.76716],[23.6193,46.76714],[23.61844,46.76699]]},"properties":{"name":"Strada Tache Ionescu","highway":"residential","custom-speed":"50","maxspeed":"RO:urban","number-of-cars":"0","profile":"car","distance":"1376.674","time":"234.2429"}},{"type":"Feature","name":"ShapeMeta","geometry":{"type":"LineString","coordinates":[[23.61844,46.76699],[23.6187,46.76612]]},"properties":{"name":"Strada Zambilei","highway":"residential","custom-speed":"50","maxspeed":"RO:urban","number-of-cars":"0","profile":"car","distance":"1475.774","time":"241.3781"}},{"type":"Feature","name":"ShapeMeta","geometry":{"type":"LineString","coordinates":[[23.6187,46.76612],[23.61727,46.76586]]},"properties":{"name":"Strada Heltai Gáspár","highway":"residential","custom-speed":"50","maxspeed":"RO:urban","number-of-cars":"0","profile":"car","distance":"1588.674","time":"249.5069"}},{"type":"Feature","name":"ShapeMeta","geometry":{"type":"LineString","coordinates":[[23.61727,46.76586],[23.61454,46.76542]]},"properties":{"name":"Strada Heltai Gáspár","highway":"residential","custom-speed":"50","maxspeed":"RO:urban","number-of-cars":"0","profile":"car","distance":"1802.074","time":"264.8717"}},{"type":"Feature","name":"ShapeMeta","geometry":{"type":"LineString","coordinates":[[23.61454,46.76542],[23.61385,46.76531],[23.61381,46.7653],[23.61368,46.76528]]},"properties":{"name":"Strada Heltai Gáspár","highway":"residential","custom-speed":"50","maxspeed":"RO:urban","number-of-cars":"0","profile":"car","distance":"1869.374","time":"269.7173"}},{"type":"Feature","name":"ShapeMeta","geometry":{"type":"LineString","coordinates":[[23.61368,46.76528],[23.6137,46.76517],[23.61383,46.76466]]},"properties":{"name":"Strada Arieșului","highway":"residential","profile":"car","distance":"1939.374","time":"276.4373"}},{"type":"Feature","name":"ShapeMeta","geometry":{"type":"LineString","coordinates":[[23.61383,46.76466],[23.61391,46.76425],[23.61394,46.76416]]},"properties":{"name":"Strada Arieșului","highway":"residential","custom-speed":"50","maxspeed":"RO:urban","number-of-cars":"0","profile":"car","distance":"1995.974","time":"280.5125"}},{"type":"Feature","name":"ShapeMeta","geometry":{"type":"LineString","coordinates":[[23.61394,46.76416],[23.61337,46.76407],[23.61271,46.76398],[23.6125,46.76395]]},"properties":{"name":"Strada Constantin Brâncoveanu","highway":"residential","custom-speed":"50","maxspeed":"RO:urban","number-of-cars":"0","profile":"car","distance":"2107.674","time":"288.5549"}},{"type":"Feature","name":"ShapeMeta","geometry":{"type":"LineString","coordinates":[[23.6125,46.76395],[23.61229,46.76389],[23.61208,46.76382],[23.61118,46.76351]]},"properties":{"name":"Strada Constantin Brâncoveanu","highway":"residential","custom-speed":"50","maxspeed":"RO:urban","number-of-cars":"0","profile":"car","distance":"2219.774","time":"296.6261"}},{"type":"Feature","name":"ShapeMeta","geometry":{"type":"LineString","coordinates":[[23.61118,46.76351],[23.61066,46.76332],[23.60968,46.76299]]},"properties":{"name":"Strada Constantin Brâncoveanu","highway":"residential","custom-speed":"50","maxspeed":"RO:urban","number-of-cars":"0","profile":"car","distance":"2348.174","time":"305.8709"}},{"type":"Feature","name":"ShapeMeta","geometry":{"type":"LineString","coordinates":[[23.60968,46.76299],[23.60957,46.76295],[23.60949,46.76292]]},"properties":{"name":"Strada Constantin Brâncoveanu","highway":"residential","custom-speed":"50","maxspeed":"RO:urban","number-of-cars":"0","profile":"car","distance":"2364.074","time":"307.0157"}},{"type":"Feature","name":"ShapeMeta","geometry":{"type":"LineString","coordinates":[[23.60949,46.76292],[23.60851,46.7635],[23.60837,46.76358]]},"properties":{"name":"Strada Constantin Brâncuși","highway":"residential","custom-speed":"50","maxspeed":"RO:urban","number-of-cars":"0","profile":"car","distance":"2476.274","time":"315.0941"}},{"type":"Feature","name":"ShapeMeta","geometry":{"type":"LineString","coordinates":[[23.60837,46.76358],[23.60825,46.76365],[23.60693,46.76439],[23.60682,46.76445]]},"properties":{"name":"Strada Constantin Brâncuși","highway":"residential","custom-speed":"50","maxspeed":"RO:urban","number-of-cars":"0","profile":"car","distance":"2628.574","time":"326.0597"}},{"type":"Feature","name":"ShapeMeta","geometry":{"type":"LineString","coordinates":[[23.60682,46.76445],[23.60683,46.76446],[23.60683,46.76447],[23.60683,46.76447]]},"properties":{"name":"Strada Constantin Brâncuși","highway":"residential","custom-speed":"50","maxspeed":"RO:urban","number-of-cars":"0","profile":"car","distance":"2631.274","time":"326.2541"}},{"type":"Feature","name":"ShapeMeta","geometry":{"type":"LineString","coordinates":[[23.60683,46.76447],[23.60682,46.76448],[23.60679,46.76448],[23.60678,46.76448]]},"properties":{"name":"Strada Constantin Brâncuși","oneway":"yes","highway":"secondary","junction":"roundabout","profile":"car","distance":"2635.274","time":"326.5284"}},{"type":"Feature","name":"ShapeMeta","geometry":{"type":"LineString","coordinates":[[23.60678,46.76448],[23.60678,46.76447],[23.60678,46.76446],[23.60678,46.76445]]},"properties":{"name":"Strada Constantin Brâncuși","oneway":"yes","highway":"secondary","junction":"roundabout","profile":"car","distance":"2638.474","time":"326.7478"}},{"type":"Feature","name":"ShapeMeta","geometry":{"type":"LineString","coordinates":[[23.60678,46.76445],[23.60674,46.76439],[23.6067,46.76432],[23.60654,46.76379]]},"properties":{"name":"Strada Barbu Ștefănescu Delavrancea","highway":"residential","profile":"car","distance":"2714.374","time":"334.0342"}},{"type":"Feature","name":"ShapeMeta","geometry":{"type":"LineString","coordinates":[[23.60654,46.76379],[23.60506,46.76467]]},"properties":{"name":"Strada Anatole France","oneway":"yes","highway":"residential","profile":"car","distance":"2863.174","time":"348.319"}},{"type":"Feature","name":"ShapeMeta","geometry":{"type":"LineString","coordinates":[[23.60506,46.76467],[23.60338,46.76573],[23.60287,46.76606],[23.60245,46.76645],[23.60217,46.76673]]},"properties":{"name":"Strada Anatole France","oneway":"yes","highway":"residential","profile":"car","distance":"3182.274","time":"378.9526"}},{"type":"Feature","name":"ShapeMeta","geometry":{"type":"LineString","coordinates":[[23.60217,46.76673],[23.60197,46.76665]]},"properties":{"name":"Strada Zrínyi Miklós","highway":"residential","profile":"car","distance":"3200.374","time":"380.6902"}},{"type":"Feature","name":"ShapeMeta","geometry":{"type":"LineString","coordinates":[[23.60197,46.76665],[23.60188,46.76677],[23.60183,46.76686],[23.60181,46.76695],[23.60172,46.767],[23.60165,46.76701],[23.60135,46.76698],[23.60129,46.76699],[23.60121,46.76718],[23.60111,46.76721],[23.601,46.7672],[23.60092,46.76715],[23.60086,46.76705],[23.60079,46.767],[23.60054,46.76692]]},"properties":{"highway":"service","profile":"car","distance":"3366.274","time":"407.2342"}},{"type":"Feature","name":"ShapeMeta","geometry":{"type":"LineString","coordinates":[[23.60054,46.76692],[23.60037,46.76716]]},"properties":{"name":"Strada Andrei Mureșanu","highway":"residential","profile":"car","distance":"3395.874","time":"410.0758"}},{"type":"Feature","name":"ShapeMeta","geometry":{"type":"LineString","coordinates":[[23.60037,46.76716],[23.6003,46.76727],[23.60021,46.76736],[23.60012,46.76741],[23.60006,46.76744]]},"properties":{"name":"Strada Andrei Mureșanu","highway":"residential","custom-speed":"50","maxspeed":"RO:urban","number-of-cars":"0","profile":"car","distance":"3435.474","time":"412.927"}},{"type":"Feature","name":"ShapeMeta","geometry":{"type":"LineString","coordinates":[[23.60006,46.76744],[23.60009,46.76743],[23.60022,46.76744],[23.60025,46.76744]]},"properties":{"name":"Strada Milton Lehrer","oneway":"yes","highway":"secondary","profile":"car","distance":"3450.374","time":"413.9487"}},{"type":"Feature","name":"ShapeMeta","geometry":{"type":"LineString","coordinates":[[23.60025,46.76744],[23.60028,46.76745],[23.60048,46.76749],[23.60098,46.76763]]},"properties":{"name":"Bulevardul Nicolae Titulescu","highway":"residential","custom-speed":"50","maxspeed":"RO:urban","number-of-cars":"0","profile":"car","distance":"3509.474","time":"418.2039"}},{"type":"Feature","name":"ShapeMeta","geometry":{"type":"LineString","coordinates":[[23.60098,46.76763],[23.60118,46.76768]]},"properties":{"name":"Bulevardul Nicolae Titulescu","highway":"residential","custom-speed":"50","maxspeed":"RO:urban","number-of-cars":"0","profile":"car","distance":"3526.174","time":"419.4063"}},{"type":"Feature","name":"ShapeMeta","geometry":{"type":"LineString","coordinates":[[23.60118,46.76768],[23.60111,46.76773]]},"properties":{"name":"Strada Constantin Brâncuși","highway":"residential","custom-speed":"50","maxspeed":"RO:urban","number-of-cars":"0","profile":"car","distance":"3534.174","time":"419.9823"}},{"type":"Feature","name":"ShapeMeta","geometry":{"type":"LineString","coordinates":[[23.60111,46.76773],[23.60096,46.76769]]},"properties":{"name":"Bulevardul Nicolae Titulescu","highway":"residential","custom-speed":"50","maxspeed":"RO:urban","number-of-cars":"0","profile":"car","distance":"3546.074","time":"420.8391"}},{"type":"Feature","name":"ShapeMeta","geometry":{"type":"LineString","coordinates":[[23.60096,46.76769],[23.60023,46.76751],[23.60008,46.7675]]},"properties":{"name":"Bulevardul Nicolae Titulescu","highway":"residential","custom-speed":"50","maxspeed":"RO:urban","number-of-cars":"0","profile":"car","distance":"3616.874","time":"425.9367"}},{"type":"Feature","name":"ShapeMeta","geometry":{"type":"LineString","coordinates":[[23.60008,46.7675],[23.59995,46.76754],[23.59993,46.76756]]},"properties":{"name":"Piața Timotei Cipariu","highway":"residential","maxspeed":"RO:urban","number-of-cars":"0","custom-speed":"1","profile":"car","distance":"3629.725","time":"472.2015"}},{"type":"Feature","name":"Stop","Shape":"0","geometry":{"type":"Point","coordinates":[23.63103,46.76819]},"properties":{"distance":"0","time":"0"}},{"type":"Feature","name":"Stop","Shape":"124","geometry":{"type":"Point","coordinates":[23.59993,46.76755]},"properties":{"distance":"3629.725","time":"472.2015"}}]}