{"type":"FeatureCollection","features":[{"type":"Feature","name":"ShapeMeta","geometry":{"type":"LineString","coordinates":[[23.63093,46.76816],[23.63088,46.76832],[23.63094,46.76848]]},"properties":{"name":"Strada Alexandru Vaida Voevod","highway":"residential","maxspeed":"RO:urban","number-of-cars":"0","custom-speed":"1","profile":"car","distance":"36.47415","time":"131.3069"}},{"type":"Feature","name":"ShapeMeta","geometry":{"type":"LineString","coordinates":[[23.63094,46.76848],[23.63092,46.76857],[23.63088,46.76864],[23.63078,46.76871]]},"properties":{"name":"Strada Alexandru Vaida Voevod","highway":"residential","custom-speed":"50","maxspeed":"RO:urban","number-of-cars":"0","profile":"car","distance":"65.77415","time":"133.4165"}},{"type":"Feature","name":"ShapeMeta","geometry":{"type":"LineString","coordinates":[[23.63078,46.76871],[23.63056,46.76866],[23.63029,46.76861]]},"properties":{"name":"Strada Lucia Sturdza Bulandra","highway":"residential","custom-speed":"50","maxspeed":"RO:urban","number-of-cars":"0","profile":"car","distance":"104.0741","time":"136.1741"}},{"type":"Feature","name":"ShapeMeta","geometry":{"type":"LineString","coordinates":[[23.63029,46.76861],[23.63026,46.76863]]},"properties":{"name":"Strada Unirii","highway":"residential","custom-speed":"50","maxspeed":"RO:urban","number-of-cars":"0","profile":"car","distance":"107.1741","time":"136.3973"}},{"type":"Feature","name":"ShapeMeta","geometry":{"type":"LineString","coordinates":[[23.63026,46.76863],[23.63024,46.76864],[23.63018,46.76866],[23.6301,46.76866]]},"properties":{"name":"Strada Unirii","highway":"residential","custom-speed":"50","maxspeed":"RO:urban","number-of-cars":"0","profile":"car","distance":"120.6741","time":"137.3693"}},{"type":"Feature","name":"ShapeMeta","geometry":{"type":"LineString","coordinates":[[23.6301,46.76866],[23.63007,46.76865]]},"properties":{"name":"Strada Unirii","highway":"residential","custom-speed":"50","maxspeed":"RO:urban","number-of-cars":"0","profile":"car","distance":"123.2741","time":"137.5565"}},{"type":"Feature","name":"ShapeMeta","geometry":{"type":"LineString","coordinates":[[23.63007,46.76865],[23.62981,46.7688]]},"properties":{"name":"Strada Unirii","highway":"residential","custom-speed":"50","maxspeed":"RO:urban","number-of-cars":"0","profile":"car","distance":"149.1741","time":"139.4213"}},{"type":"Feature","name":"ShapeMeta","geometry":{"type":"LineString","coordinates":[[23.62981,46.7688],[23.62969,46.76889]]},"properties":{"name":"Strada Alexandru Vaida Voevod","highway":"residential","custom-speed":"50","maxspeed":"RO:urban","number-of-cars":"0","profile":"car","distance":"162.4741","time":"140.3789"}},{"type":"Feature","name":"ShapeMeta","geometry":{"type":"LineString","coordinates":[[23.62969,46.76889],[23.62926,46.7692]]},"properties":{"name":"Strada Alexandru Vaida Voevod","highway":"residential","custom-speed":"50","maxspeed":"RO:urban","number-of-cars":"0","profile":"car","distance":"209.5741","time":"143.7701"}},{"type":"Feature","name":"ShapeMeta","geometry":{"type":"LineString","coordinates":[[23.62926,46.7692],[23.6292,46.76924]]},"properties":{"name":"Strada Alexandru Vaida Voevod","highway":"residential","custom-speed":"50","maxspeed":"RO:urban","number-of-cars":"0","profile":"car","distance":"215.7741","time":"144.2165"}},{"type":"Feature","name":"ShapeMeta","geometry":{"type":"LineString","coordinates":[[23.6292,46.76924],[23.62888,46.76908],[23.62883,46.76907]]},"properties":{"highway":"residential","custom-speed":"50","maxspeed":"RO:urban","number-of-cars":"0","profile":"car","distance":"249.9741","time":"146.6789"}},{"type":"Feature","name":"ShapeMeta","geometry":{"type":"LineString","coordinates":[[23.62883,46.76907],[23.62887,46.76822]]},"properties":{"highway":"residential","custom-speed":"50","maxspeed":"RO:urban","number-of-cars":"0","profile":"car","distance":"344.9741","time":"153.5189"}},{"type":"Feature","name":"ShapeMeta","geometry":{"type":"LineString","coordinates":[[23.62887,46.76822],[23.62889,46.76791]]},"properties":{"highway":"residential","custom-speed":"50","maxspeed":"RO:urban","number-of-cars":"0","profile":"car","distance":"379.2741","time":"155.9885"}},{"type":"Feature","name":"ShapeMeta","geometry":{"type":"LineString","coordinates":[[23.62889,46.76791],[23.62864,46.76791],[23.62848,46.76791]]},"properties":{"name":"Strada Unirii","highway":"residential","custom-speed":"50","maxspeed":"RO:urban","number-of-cars":"0","profile":"car","distance":"410.0741","time":"158.2061"}},{"type":"Feature","name":"ShapeMeta","geometry":{"type":"LineString","coordinates":[[23.62848,46.76791],[23.62845,46.7679]]},"properties":{"name":"Strada Unirii","highway":"residential","custom-speed":"50","maxspeed":"RO:urban","number-of-cars":"0","profile":"car","distance":"412.7741","time":"158.4005"}},{"type":"Feature","name":"ShapeMeta","geometry":{"type":"LineString","coordinates":[[23.62845,46.7679],[23.62787,46.76788]]},"properties":{"name":"Strada Unirii","highway":"residential","custom-speed":"50","maxspeed":"RO:urban","number-of-cars":"0","profile":"car","distance":"456.7741","time":"161.5685"}},{"type":"Feature","name":"ShapeMeta","geometry":{"type":"LineString","coordinates":[[23.62787,46.76788],[23.6278,46.76788],[23.62664,46.76785],[23.62658,46.76785]]},"properties":{"name":"Strada Unirii","highway":"residential","custom-speed":"50","maxspeed":"RO:urban","number-of-cars":"0","profile":"car","distance":"554.8741","time":"168.6317"}},{"type":"Feature","name":"ShapeMeta","geometry":{"type":"LineString","coordinates":[[23.62658,46.76785],[23.62595,46.76783]]},"properties":{"name":"Strada Unirii","highway":"residential","custom-speed":"50","maxspeed":"RO:urban","number-of-cars":"0","profile":"car","distance":"602.7741","time":"172.0805"}},{"type":"Feature","name":"ShapeMeta","geometry":{"type":"LineString","coordinates":[[23.62595,46.76783],[23.62595,46.76793],[23.62595,46.76806]]},"properties":{"name":"Aleea Snagov","highway":"residential","profile":"car","distance":"628.1741","time":"174.5189"}},{"type":"Feature","name":"ShapeMeta","geometry":{"type":"LineString","coordinates":[[23.62595,46.76806],[23.62592,46.76908]]},"properties":{"name":"Aleea Snagov","highway":"residential","profile":"car","distance":"741.3741","time":"185.3861"}},{"type":"Feature","name":"ShapeMeta","geometry":{"type":"LineString","coordinates":[[23.62592,46.76908],[23.62591,46.76944]]},"properties":{"name":"Aleea Snagov","highway":"residential","profile":"car","distance":"781.1741","time":"189.2069"}},{"type":"Feature","name":"ShapeMeta","geometry":{"type":"LineString","coordinates":[[23.62591,46.76944],[23.62591,46.76948]]},"properties":{"name":"Aleea Snagov","highway":"residential","profile":"car","distance":"785.774","time":"189.6485"}},{"type":"Feature","name":"ShapeMeta","geometry":{"type":"LineString","coordinates":[[23.62591,46.76948],[23.62572,46.76981]]},"properties":{"name":"Aleea Snagov","highway":"residential","profile":"car","distance":"825.574","time":"193.4693"}},{"type":"Feature","name":"ShapeMeta","geometry":{"type":"LineString","coordinates":[[23.62572,46.76981],[23.62556,46.77011]]},"properties":{"name":"Aleea Snagov","highway":"residential","profile":"car","distance":"861.374","time":"196.9061"}},{"type":"Feature","name":"ShapeMeta","geometry":{"type":"LineString","coordinates":[[23.62556,46.77011],[23.62548,46.77008],[23.62433,46.77011],[23.62414,46.77021],[23.62402,46.77026]]},"properties":{"name":"Aleea Herculane","highway":"residential","custom-speed":"50","maxspeed":"RO:urban","number-of-cars":"0","profile":"car","distance":"984.574","time":"205.7765"}},{"type":"Feature","name":"ShapeMeta","geometry":{"type":"LineString","coordinates":[[23.62402,46.77026],[23.62369,46.77025]]},"properties":{"name":"Aleea Herculane","highway":"residential","custom-speed":"50","maxspeed":"RO:urban","number-of-cars":"0","profile":"car","distance":"1009.874","time":"207.5981"}},{"type":"Feature","name":"ShapeMeta","geometry":{"type":"LineString","coordinates":[[23.62369,46.77025],[23.62339,46.77023]]},"properties":{"name":"Aleea Herculane","highway":"residential","custom-speed":"50","maxspeed":"RO:urban","number-of-cars":"0","profile":"car","distance":"1032.674","time":"209.2397"}},{"type":"Feature","name":"ShapeMeta","geometry":{"type":"LineString","coordinates":[[23.62339,46.77023],[23.62339,46.76968],[23.62332,46.76961],[23.623,46.76959]]},"properties":{"highway":"service","profile":"car","distance":"1128.374","time":"224.5517"}},{"type":"Feature","name":"ShapeMeta","geometry":{"type":"LineString","coordinates":[[23.623,46.76959],[23.62299,46.76969]]},"properties":{"name":"Aleea Borsec","oneway":"yes","highway":"residential","maxspeed":"30","profile":"car","distance":"1138.974","time":"226.2477"}},{"type":"Feature","name":"ShapeMeta","geometry":{"type":"LineString","coordinates":[[23.62299,46.76969],[23.62163,46.76966]]},"properties":{"oneway":"yes","highway":"service","profile":"car","distance":"1242.874","time":"242.8717"}},{"type":"Feature","name":"ShapeMeta","geometry":{"type":"LineString","coordinates":[[23.62163,46.76966],[23.62162,46.77018]]},"properties":{"highway":"service","profile":"car","distance":"1300.474","time":"252.0877"}},{"type":"Feature","name":"ShapeMeta","geometry":{"type":"LineString","coordinates":[[23.62162,46.77018],[23.62158,46.77018]]},"properties":{"name":"Aleea Herculane","highway":"residential","custom-speed":"50","maxspeed":"RO:urban","number-of-cars":"0","profile":"car","distance":"1303.674","time":"252.3181"}},{"type":"Feature","name":"ShapeMeta","geometry":{"type":"LineString","coordinates":[[23.62158,46.77018],[23.62141,46.77028],[23.6213,46.77037]]},"properties":{"name":"Aleea Herculane","highway":"residential","custom-speed":"50","maxspeed":"RO:urban","number-of-cars":"0","profile":"car","distance":"1334.174","time":"254.5141"}},{"type":"Feature","name":"ShapeMeta","geometry":{"type":"LineString","coordinates":[[23.6213,46.77037],[23.62114,46.77036],[23.62096,46.77035],[23.62093,46.77034]]},"properties":{"name":"Aleea Herculane","highway":"residential","custom-speed":"50","maxspeed":"RO:urban","number-of-cars":"0","profile":"car","distance":"1363.274","time":"256.6093"}},{"type":"Feature","name":"ShapeMeta","geometry":{"type":"LineString","coordinates":[[23.62093,46.77034],[23.62069,46.77032]]},"properties":{"name":"Aleea Herculane","highway":"residential","custom-speed":"50","maxspeed":"RO:urban","number-of-cars":"0","profile":"car","distance":"1381.174","time":"257.8981"}},{"type":"Feature","name":"ShapeMeta","geometry":{"type":"LineString","coordinates":[[23.62069,46.77032],[23.62048,46.77019],[23.62026,46.76983],[23.62022,46.7694],[23.62028,46.76878]]},"properties":{"name":"Aleea Herculane","highway":"residential","custom-speed":"50","maxspeed":"RO:urban","number-of-cars":"0","profile":"car","distance":"1562.974","time":"270.9877"}},{"type":"Feature","name":"ShapeMeta","geometry":{"type":"LineString","coordinates":[[23.62028,46.76878],[23.62028,46.76854],[23.62022,46.76836]]},"properties":{"name":"Aleea Herculane","highway":"residential","custom-speed":"50","maxspeed":"RO:urban","number-of-cars":"0","profile":"car","distance":"1610.474","time":"274.4077"}},{"type":"Feature","name":"ShapeMeta","geometry":{"type":"LineString","coordinates":[[23.62022,46.76836],[23.62008,46.76841],[23.61965,46.76855],[23.61935,46.76863]]},"properties":{"name":"Strada Unirii","highway":"residential","custom-speed":"50","maxspeed":"RO:urban","number-of-cars":"0","profile":"car","distance":"1683.574","time":"279.6709"}},{"type":"Feature","name":"ShapeMeta","geometry":{"type":"LineString","coordinates":[[23.61935,46.76863],[23.61914,46.76869]]},"properties":{"name":"Strada Unirii","highway":"residential","maxspeed":"RO:urban","number-of-cars":"0","custom-speed":"1","profile":"car","distance":"1700.674","time":"341.2309"}},{"type":"Feature","name":"ShapeMeta","geometry":{"type":"LineString","coordinates":[[23.61914,46.76869],[23.61914,46.76879],[23.6191,46.76887],[23.61899,46.76894]]},"properties":{"name":"Bulevardul Nicolae Titulescu","highway":"residential","custom-speed":"50","maxspeed":"RO:urban","number-of-cars":"0","profile":"car","distance":"1732.574","time":"343.5277"}},{"type":"Feature","name":"ShapeMeta","geometry":{"type":"LineString","coordinates":[[23.61899,46.76894],[23.61884,46.76895]]},"properties":{"name":"Bulevardul Nicolae Titulescu","highway":"residential","custom-speed":"50","maxspeed":"RO:urban","number-of-cars":"0","profile":"car","distance":"1743.674","time":"344.3269"}},{"type":"Feature","name":"ShapeMeta","geometry":{"type":"LineString","coordinates":[[23.61884,46.76895],[23.6187,46.76889],[23.61862,46.76881]]},"properties":{"name":"Bulevardul Nicolae Titulescu","highway":"residential","custom-speed":"50","maxspeed":"RO:urban","number-of-cars":"0","profile":"car","distance":"1767.174","time":"346.0189"}},{"type":"Feature","name":"ShapeMeta","geometry":{"type":"LineString","coordinates":[[23.61862,46.76881],[23.61863,46.76871],[23.61872,46.76862],[23.61885,46.76859]]},"properties":{"name":"Bulevardul Nicolae Titulescu","highway":"secondary","junction":"roundabout","profile":"car","distance":"1800.374","time":"348.2955"}},{"type":"Feature","name":"ShapeMeta","geometry":{"type":"LineString","coordinates":[[23.61885,46.76859],[23.61885,46.76846],[23.61885,46.7683],[23.61922,46.76751]]},"properties":{"name":"Strada Liviu Rebreanu","highway":"residential","profile":"car","distance":"1923.774","time":"360.1419"}},{"type":"Feature","name":"ShapeMeta","geometry":{"type":"LineString","coordinates":[[23.61922,46.76751],[23.61938,46.76716]]},"properties":{"name":"Strada Liviu Rebreanu","highway":"residential","custom-speed":"50","maxspeed":"RO:urban","number-of-cars":"0","profile":"car","distance":"1965.074","time":"363.1155"}},{"type":"Feature","name":"ShapeMeta","geometry":{"type":"LineString","coordinates":[[23.61938,46.76716],[23.6193,46.76714],[23.61844,46.76699]]},"properties":{"name":"Strada Tache Ionescu","highway":"residential","custom-speed":"50","maxspeed":"RO:urban","number-of-cars":"0","profile":"car","distance":"2039.074","time":"368.4435"}},{"type":"Feature","name":"ShapeMeta","geometry":{"type":"LineString","coordinates":[[23.61844,46.76699],[23.61781,46.7669]]},"properties":{"name":"Strada Tache Ionescu","highway":"residential","custom-speed":"50","maxspeed":"RO:urban","number-of-cars":"0","profile":"car","distance":"2088.474","time":"372.0003"}},{"type":"Feature","name":"ShapeMeta","geometry":{"type":"LineString","coordinates":[[23.61781,46.7669],[23.61775,46.76689]]},"properties":{"name":"Strada Tache Ionescu","highway":"residential","custom-speed":"50","maxspeed":"RO:urban","number-of-cars":"0","profile":"car","distance":"2093.074","time":"372.3315"}},{"type":"Feature","name":"ShapeMeta","geometry":{"type":"LineString","coordinates":[[23.61775,46.76689],[23.61698,46.76675]]},"properties":{"name":"Strada Tache Ionescu","highway":"residential","profile":"car","distance":"2153.074","time":"378.0915"}},{"type":"Feature","name":"ShapeMeta","geometry":{"type":"LineString","coordinates":[[23.61698,46.76675],[23.61372,46.76617],[23.61363,46.76616],[23.6135,46.76614]]},"properties":{"name":"Strada Tache Ionescu","highway":"residential","profile":"car","distance":"2427.174","time":"404.4051"}},{"type":"Feature","name":"ShapeMeta","geometry":{"type":"LineString","coordinates":[[23.6135,46.76614],[23.61331,46.7661],[23.6108,46.76568]]},"properties":{"name":"Strada Tache Ionescu","oneway":"yes","highway":"residential","profile":"car","distance":"2639.174","time":"424.7571"}},{"type":"Feature","name":"ShapeMeta","geometry":{"type":"LineString","coordinates":[[23.6108,46.76568],[23.61058,46.76562],[23.6095,46.76534]]},"properties":{"name":"Strada Tache Ionescu","highway":"residential","profile":"car","distance":"2744.774","time":"434.8947"}},{"type":"Feature","name":"ShapeMeta","geometry":{"type":"LineString","coordinates":[[23.6095,46.76534],[23.60863,46.7651],[23.60802,46.7649],[23.60794,46.76488]]},"properties":{"name":"Strada Tache Ionescu","highway":"residential","profile":"car","distance":"2874.274","time":"447.3267"}},{"type":"Feature","name":"ShapeMeta","geometry":{"type":"LineString","coordinates":[[23.60794,46.76488],[23.60787,46.76486],[23.60692,46.76451],[23.60683,46.76447]]},"properties":{"name":"Strada Tache Ionescu","highway":"residential","profile":"car","distance":"2970.074","time":"456.5235"}},{"type":"Feature","name":"ShapeMeta","geometry":{"type":"LineString","coordinates":[[23.60683,46.76447],[23.60682,46.76448],[23.60679,46.76448],[23.60678,46.76448]]},"properties":{"name":"Strada Constantin Brâncuși","oneway":"yes","highway":"secondary","junction":"roundabout","profile":"car","distance":"2974.074","time":"456.7978"}},{"type":"Feature","name":"ShapeMeta","geometry":{"type":"LineString","coordinates":[[23.60678,46.76448],[23.6066,46.76458],[23.60531,46.7653]]},"properties":{"name":"Strada Constantin Brâncuși","highway":"secondary","profile":"car","distance":"3118.574","time":"466.7064"}},{"type":"Feature","name":"ShapeMeta","geometry":{"type":"LineString","coordinates":[[23.60531,46.7653],[23.60341,46.7664]]},"properties":{"name":"Strada Constantin Brâncuși","highway":"secondary","profile":"car","distance":"3308.174","time":"479.7075"}},{"type":"Feature","name":"ShapeMeta","geometry":{"type":"LineString","coordinates":[[23.60341,46.7664],[23.60255,46.7669]]},"properties":{"name":"Strada Constantin Brâncuși","highway":"secondary","profile":"car","distance":"3393.974","time":"485.5909"}},{"type":"Feature","name":"ShapeMeta","geometry":{"type":"LineString","coordinates":[[23.60255,46.7669],[23.60217,46.76673]]},"properties":{"name":"Strada Zrínyi Miklós","highway":"residential","profile":"car","distance":"3428.074","time":"488.8645"}},{"type":"Feature","name":"ShapeMeta","geometry":{"type":"LineString","coordinates":[[23.60217,46.76673],[23.60197,46.76665]]},"properties":{"name":"Strada Zrínyi Miklós","highway":"residential","profile":"car","distance":"3446.174","time":"490.6021"}},{"type":"Feature","name":"ShapeMeta","geometry":{"type":"LineString","coordinates":[[23.60197,46.76665],[23.60102,46.76628],[23.601,46.76627]]},"properties":{"name":"Strada Zrínyi Miklós","highway":"residential","profile":"car","distance":"3531.174","time":"498.7621"}},{"type":"Feature","name":"ShapeMeta","geometry":{"type":"LineString","coordinates":[[23.601,46.76627],[23.60098,46.76627],[23.60021,46.76597]]},"properties":{"name":"Strada Zrínyi Miklós","highway":"residential","profile":"car","distance":"3599.774","time":"505.3477"}},{"type":"Feature","name":"ShapeMeta","geometry":{"type":"LineString","coordinates":[[23.60021,46.76597],[23.59928,46.76561]]},"properties":{"name":"Strada Zrínyi Miklós","highway":"residential","profile":"car","distance":"3681.174","time":"513.1621"}},{"type":"Feature","name":"ShapeMeta","geometry":{"type":"LineString","coordinates":[[23.59928,46.76561],[23.5989,46.76583]]},"properties":{"name":"Strada Brașov","highway":"residential","profile":"car","distance":"3719.974","time":"516.8869"}},{"type":"Feature","name":"ShapeMeta","geometry":{"type":"LineString","coordinates":[[23.5989,46.76583],[23.59883,46.76599],[23.5987,46.76617],[23.59822,46.76687]]},"properties":{"name":"Calea Turzii","highway":"primary","maxspeed":"60","profile":"car","distance":"3846.574","time":"527.0149"}},{"type":"Feature","name":"ShapeMeta","geometry":{"type":"LineString","coordinates":[[23.59822,46.76687],[23.59827,46.76699],[23.59831,46.76707],[23.5984,46.76715],[23.59852,46.7672],[23.59866,46.76723],[23.59881,46.76727]]},"properties":{"oneway":"yes","highway":"primary_link","profile":"car","distance":"3914.674","time":"530.6469"}},{"type":"Feature","name":"ShapeMeta","geometry":{"type":"LineString","coordinates":[[23.59881,46.76727],[23.59944,46.76739]]},"properties":{"name":"Strada Milton Lehrer","highway":"primary","oneway":"yes","profile":"car","distance":"3964.874","time":"533.3242"}},{"type":"Feature","name":"ShapeMeta","geometry":{"type":"LineString","coordinates":[[23.59944,46.76739],[23.5996,46.76748],[23.59968,46.76762],[23.59969,46.76768],[23.59968,46.76774]]},"properties":{"oneway":"yes","highway":"primary_link","profile":"car","distance":"4010.674","time":"535.7669"}},{"type":"Feature","name":"ShapeMeta","geometry":{"type":"LineString","coordinates":[[23.59968,46.76774],[23.59976,46.76766],[23.59993,46.76756]]},"properties":{"name":"Piața Timotei Cipariu","highway":"residential","maxspeed":"RO:urban","number-of-cars":"0","custom-speed":"1","profile":"car","distance":"4038.723","time":"636.7421"}},{"type":"Feature","name":"Stop","Shape":"0","geometry":{"type":"Point","coordinates":[23.63103,46.76819]},"properties":{"distance":"0","time":"0"}},{"type":"Feature","name":"Stop","Shape":"126","geometry":{"type":"Point","coordinates":[23.59993,46.76755]},"properties":{"distance":"4038.723","time":"636.7421"}}]}